Name,Category,Address,Latitude,Longitude
Diani Beach,Beach,,-4.2797626,39.5946958
Diani Beach,Kenya,,-4.2890694,39.582837
Diani Reef Beach Resort & Spa,5-star hotel,,-4.2792229,39.5944083
Swahili Beach Resort,5-star hotel,,-4.292183,39.586675
The Maji Beach Boutique Hotel,5-star hotel,,-4.2762412,39.5940109
Nomad Beach Resort,5-star hotel,,-4.3279096,39.5716651
Diamonds Leisure Beach & Golf Resort,4-star hotel,,-4.281539,39.5924429
Baobab Beach Resort & Spa,4-star hotel,,-4.3366306,39.56805
Coral Beach Resort,Resort hotel,,-4.2891936,39.5897397
Southern Palms Beach Resort,4-star hotel,,-4.2682637,39.5970049
Leopard Beach Resort and Spa,Hotel,,-4.2841087,39.5892313
Waterlovers Beach Resort,4-star hotel,,-4.3080734,39.5806263
Bahari Dhow Beach Villas,3-star hotel,,-4.271643,39.5945764
Jacaranda Indian Ocean Beach Resort,4-star hotel,,-4.2617618,39.59544
Swahili Beach diani,Hotel,,-4.2921967,39.5864883
The Villa Luxury Suites Hotel,4-star hotel,,-4.2872271,39.5847249
Kaskazi Beach Resort,4-star hotel,,-4.2935937,39.5863427
Morning Star Diani Beach Resort,3-star hotel,,-4.2771883,39.5915103
Tombo House,Hotel,,-4.2755383,39.5889014
Coconut Beach Lodge,4-star hotel,,-4.2481045,39.6009515
Papillon Lagoon Reef,3-star hotel,,-4.3332646,39.5672755
Prideinn Express Diani,3-star hotel,,-4.2755123,39.5925342
Prideinn Express Diani,3-star hotel,,-4.2755123,39.5925342
Asha Boutique Hotel,Hotel,,-4.3084629,39.5804949
"Safari Beach Hotel, Diani",Hotel,,-4.3311551,39.5680296
Eleven Pearl Boutique Hotel & Spa,4-star hotel,,-4.3416889,39.5662658
Stilts Tree Houses,Hotel,,-4.3120961,39.5739288
Aqua Resort,Holiday apartment rental,,-4.272937,39.5936968
Villa Mandhari Diani Beach,Hotel,,-4.3263698,39.5621082
PrideInn Hotel Diani,Hotel,,-4.2879887,39.5812613
Galu Beach Retreat,3-star hotel,,-4.2991695,39.5814765
Diani Backpackers,2-star hotel,,-4.341119,39.560823
"The Safiya Hotel, Diani",Hotel,,-4.269502,39.594592
Elewana AfroChic Diani Beach,4-star hotel,,-4.271843,39.597075
"Doric Cottages Diani, Kenya",3-star hotel,,-4.297959,39.577697
Mzima Beach Diani,Hotel,,-4.3574818,39.5610443
African Dream Cottages - Diani Beach,Cottage,,-4.3109888,39.5730919
Seaclusion Diani,4-star hotel,,-4.310092,39.5749243
Oasis Diani Villas,5-star hotel,,-4.3199944,39.5690765
Boxo Diani,4-star hotel,,-4.363113,39.5579518
Diani Sea Lodge,4-star hotel,,-4.3180311,39.5753208
Flamboyant Diani,4-star hotel,,-4.3134098,39.5777863
KASKAZI BEACH HOTEL,Hotel,,-4.2851368,39.566338
Swahili House,4-star hotel,,-4.2380144,39.6028292
Mangro Hotel Diani,3-star hotel,,-4.2851172,39.5737439
Coco-De-Ville Kenya,3-star hotel,,-4.3077554,39.5771798
Diani Campsite & Cottages,Group accommodation,,-4.3035966,39.5809792
Casa Hera,Bed & breakfast,,-4.2731205,39.5895515
"Casa Di Mia Luxury Villa, Beach Road",Villa,,-4.2633251,39.5946011
Ocean Village Club,4-star hotel,,-4.3324398,39.569562
Diani Beach Villas Cottages,3-star hotel,,-4.3141165,39.5689152
Golden Duranta Villas,Villa,,-4.2940341,39.5773277
Lotfa Resort Diani,3-star hotel,,-4.3259762,39.5693391
HillPark Tiwi & Amare Resort,4-star hotel,,-4.224201,39.607094
Amkia Villas Diani,Hotel,,-4.3255995,39.563898
Pendo Villas Diani,2-star hotel,,-4.299223,39.57338
Sonnie Guest House,3-star hotel,,-4.3193697,39.5662117
Alfajiri Villas,Cottage,,-4.286725,39.5895927
Diani Sea Resort,Hotel,,-4.3068277,39.5797706
Diani Beach,Group accommodation,,-4.2797626,39.5946957
Diani Apartments,Hotel,,-4.3004754,39.5780446
Raquel's Bliss Diani,Hotel,,-4.3260119,39.5634811
glory oceanvillas diani,Villa,,-4.3031269,39.5772573
Kijani Cottages,Lodge,,-4.3392761,39.5598505
Savita House Diani,Guest house,,-4.298843,39.5778385
Tradewinds Lodge,3-star hotel,,-4.305683,39.5801779
Malaika Gardens hotel $ conference centre,Hotel,,-4.3008541,39.577525
Diani - Banda Guest House,2-star hotel,,-4.3036522,39.579914
Cycad Palm Diani,Hotel,,-4.3276645,39.5592411
milamax beach villa,Cottage rental,,-4.2719261,39.5967125
Diani Classic Guest House Limited,Hotel,,-4.2825767,39.5693179
Diani Travelers Guest House,3-star hotel,,-4.2814111,39.5670485
DARAD DIANI HOTEL,Hotel,,-4.2865082,39.5767382
Fred Hunter Villa,Cottage rental,,-4.2327197,39.5966194
Qua Bruce Villas,3-star hotel,,-4.3080718,39.5776636
Lovely 5-bed Room House With a Swimming Pool,Extended stay hotel,,-4.3294,39.56574
Noura suites Diani,Restaurant,,-4.2852739,39.5750866
Manyatta Resort & Apartments,Resort hotel,,-4.3279487,39.5715614
Diani Hostel,1-star hotel,,-4.3371025,39.5542596
Gold Sand International Hotel,Hotel,,-4.2702648,39.5954466
Leopard Beach Resort,,,-4.281539,39.5924429
Diani Marine Divers Village,4-star hotel,,-4.3122353,39.5773735
Shikamoo Cottage Diani Beach,Serviced accommodation,,-4.2714694,39.5931363
DianiKwetu Resort,Resort hotel,,-4.2697549,39.5921969
Searenity Beach Villa,Villa,,-4.3025647,39.5829882
Kole Kole Hotel,4-star hotel,,-4.3377807,39.5674163
Golden Sun Resort (Fisherhut Restaurant),Hotel,,-4.2700662,39.595375
Armaan Shopping Complex,Guest house,,-4.316064,39.5733988
Waridi Diani,Hotel,,-4.2707662,39.595514
Watano beach house,Hotel,,-4.2994413,39.5843719
Southern Cottages resort Diani,3-star hotel,,-4.2667829,39.5919353
Hotel - Asins,3-star hotel,,-4.2725824,39.5938256
DIANI BAY RESORT,3-star hotel,,-4.2617194,39.5915836
Amani Tiwi Beach Resort,4-star hotel,,-4.2520029,39.5994529
Palm Escape Diani Beach,Guest house,,-4.2702345,39.5929118
Fair Haven Resort Diani,Resort hotel,,-4.2706657,39.5903935
Zarafa House,Bed & breakfast,,-4.2687541,39.5928066
Africa Pearl spa,Hotel,,-4.2776624,39.5907709
Kenda Villas,3-star hotel,,-4.2829404,39.5902516
Retro Boutique Hotel,3-star hotel,,-4.2871218,39.5838349
Kongo river (shambani) bungalows,Cottage,,-4.259795,39.5947
Sand Island Beach Cottage,Hotel,,-4.2224133,39.608714
Golf and Living,Resort hotel,,-4.2854215,39.5863669
Kenya Charming Villas,Villa,,-4.2629574,39.5953307
Warandale Cottages,Cottage,,-4.2855467,39.5885696
Diani Beach Club,Bed & breakfast,,-4.3279487,39.5715614
Papatuo Villas Resort,4-star hotel,,-4.2797627,39.594696
Grace Villa,Hotel,,-4.261018,39.596384
Flametree Beach Homes,3-star hotel,,-4.2977695,39.5786766
"The Afters, Diani - Boutique Hotel",Hotel,,-4.2609641,39.5938994
Diani Paradise Villas,Villa,,-4.2946059,39.579947
Backdoor Villa,Villa,,-4.2651316,39.5935486
Twiga Lodge,4-star hotel,,-4.2404172,39.6026818
Alliance Jadini Beach Hotel,Hotel,,-4.2801206,39.5923101
Fiorella Beach House,Serviced accommodation,,-4.2965385,39.5833337
Zana Villas,Villa,,-4.3252855,39.5645594
Diplomat Diani Beach Resort,4-star hotel,,-4.296905,39.5805473
Frangipani Cottages,4-star hotel,,-4.3031267,39.5777195
Diani Beach Konya House,Hotel,,-4.3436073,39.5616705
Maisha Marefu,Cabin rental agency,,-4.2647982,39.5950391
Kirathimo Explorer's Oasis,Hotel,,-4.290887,39.588726
"Msitu Kwetu (Luxury Villa Estate, Diani Beach)",Villa,,-4.3215385,39.5714759
Lala Galu,Hotel,,-4.3636385,39.5589771
"Lantana Galu - Hotel in Diani, South Coast Kenya",4-star hotel,,-4.3640977,39.5577424
Galu Ecolodge - Diani Beach Kenya,Hotel,,-4.3696712,39.5560424
Neptune Village Beach Resort & Spa,4-star hotel,,-4.3625013,39.5604142
Galu Inn,3-star hotel,,-4.352838,39.5603751
Neptune Paradise Beach Resort & Spa,4-star hotel,,-4.361214,39.5606776
SUNSET VILLA,3-star hotel,,-4.3639092,39.5528144
Boxo Diani,4-star hotel,,-4.363113,39.5579518
Baobab Beach Resort & Spa,4-star hotel,,-4.3366306,39.56805
Eleven Pearl Boutique Hotel & Spa,4-star hotel,,-4.3416889,39.5662658
Nomad Beach Resort,5-star hotel,,-4.3279096,39.5716651
Soul Breeze Beach Resort,3-star hotel,,-4.3647999,39.5576134
Mzima Beach Diani,Hotel,,-4.3574818,39.5610443
Coco-De-Ville Beach Holiday Home,3-star hotel,,-4.3550739,39.5586483
Diani Beach Luxury Retreat With 5 Bedrooms,Extended stay hotel,,-4.3564154,39.5559025
Upani in Diani,4-star hotel,,-4.3635997,39.555716
Blue Water Villas,Homestay,,-4.3657436,39.5525123
Hibiscus Diani | Self Catering House & Apartments Kenya,3-star hotel,,-4.3496359,39.5586109
Marikeka Hotel,Hotel,,-4.3495683,39.5567091
Blessing holiday homes,Hotel,,-4.3637838,39.5571136
Marikeka Hotel,Hotel,,-4.3495683,39.5567091
Blessing holiday homes,Hotel,,-4.3637838,39.5571136
Allamanda Boutique Hostel,Hostel,,-4.3501091,39.5585913
Kijani Cottages,Lodge,,-4.3392761,39.5598505
Swahili Beach Resort,5-star hotel,,-4.292183,39.586675
QUEENS CHATEAU BOUTIQUE VILLA,3-star hotel,,-4.3624138,39.5571201
Waterlovers Beach Resort,4-star hotel,,-4.3080734,39.5806263
Diani Reef Beach Resort & Spa,5-star hotel,,-4.2792229,39.5944083
"Safari Beach Hotel, Diani",Hotel,,-4.3311551,39.5680296
Bora Bora Luxury Tented Camp,,,-4.354223,39.55995
Papillon Lagoon Reef,3-star hotel,,-4.3332646,39.5672755
Almanara Luxury Villas,5-star hotel,,-4.3523521,39.562561
Zuri Tulivu Resort & Restaurant,Bed & breakfast,,-4.3697676,39.5554915
Stilts Tree Houses,Hotel,,-4.3120961,39.5739288
Coral Beach Resort,Resort hotel,,-4.2891936,39.5897397
The Maji Beach Boutique Hotel,5-star hotel,,-4.2762412,39.5940109
Kenyaways Beach Bed & Breakfast,3-star hotel,,-4.3508613,39.5635787
Blue Marlin Hotel,4-star hotel,,-4.3502467,39.5632992
Neptune Palm Beach Boutique Resort & Spa,Hotel,,-4.3632709,39.5601838
The Zubeida,4-star hotel,,-4.345478,39.5648187
Galu Beach Retreat,3-star hotel,,-4.2991695,39.5814765
Monkey Beach House,4-star hotel,,-4.3537412,39.5624584
ZumZum Beachhouse,Resort hotel,,-4.3700296,39.5558188
Chale Island Resort,4-star hotel,,-4.4428343,39.5362363
Simba Oryx Beach Cottages,4-star hotel,,-4.3559113,39.5595083
"Al Mahali Villas, Diani Galu Beach, Kenya",Villa,,-4.3641176,39.5596131
Southern Palms Beach Resort,4-star hotel,,-4.2682637,39.5970049
Asha Boutique Hotel,Hotel,,-4.3084629,39.5804949
Villa Mandhari Diani Beach,Hotel,,-4.3263698,39.5621082
Coconut Beach Lodge,4-star hotel,,-4.2481045,39.6009515
Pinewood Beach Resort & Spa,Hotel,,-4.3758348,39.5522602
Ocean Village Club,4-star hotel,,-4.3324398,39.569562
Kole Kole Hotel,4-star hotel,,-4.3377807,39.5674163
Mzuri Beach House,4-star hotel,,-4.3539524,39.5624458
Leopard Beach Resort and Spa,Hotel,,-4.2841087,39.5892313
Lotfa Resort Diani,3-star hotel,,-4.3259762,39.5693391
Diamonds Leisure Beach & Golf Resort,4-star hotel,,-4.281539,39.5924429
Diani Hostel,1-star hotel,,-4.3371025,39.5542596
Tombo House,Hotel,,-4.2755383,39.5889014
Kaskazi Beach Resort,4-star hotel,,-4.2935937,39.5863427
Tulia Eco Garden,Hotel,,-4.3124264,39.5178807
Coco-De-Ville Kenya,3-star hotel,,-4.3077554,39.5771798
Swahili Beach diani,Hotel,,-4.2921967,39.5864883
Amkia Villas Diani,Hotel,,-4.3255995,39.563898
Diamonds Leisure Beach & Golf Resort,4-star hotel,,-4.281539,39.5924429
Kivulini Beach Villa & Cottages,Resort hotel,,-4.3030334,39.582382
AFRICAN QUEEN Diani Beach,Cottage,,-4.3573965,39.557731
Raquel's Bliss Diani,Hotel,,-4.3260119,39.5634811
Kusini Beach Cottages,Cottage,,-4.365951,39.558513
Mango villa,Villa,,-4.361092,39.5536553
CS Gisimba Villas,4-star hotel,,-4.3594722,39.5581855
The Villa Luxury Suites Hotel,4-star hotel,,-4.2872271,39.5847249
Oasis Diani Villas,5-star hotel,,-4.3199944,39.5690765
Sonnie Guest House,3-star hotel,,-4.3193697,39.5662117
Four Twenty South,4-star hotel,,-4.3424372,39.5659339
Amber Villas Diani,Villa,,-4.3561243,39.5583686
AMANI PARADISE LUXURY VILLAS,Serviced accommodation,,-4.3608837,39.5555336
African Dream Cottages - Diani Beach,Cottage,,-4.3109888,39.5730919
Amani Luxury Apartments,4-star hotel,,-4.3409079,39.5599643
Cycad Palm Diani,Hotel,,-4.3276645,39.5592411
"Doric Cottages Diani, Kenya",3-star hotel,,-4.297959,39.577697
Palm Dream Villa,3-star hotel,,-4.3628583,39.554911
Galu Tulivu,3-star hotel,,-4.3720115,39.550715
Villa Black Pearl Diani,Vacation home rental agency,,-4.3572175,39.5573071
Villa Soleil - Free Wi-Fi,Vacation home rental agency,,-4.3616779,39.5549516
Jacaranda Indian Ocean Beach Resort,4-star hotel,,-4.2617618,39.59544
Diani Sea Lodge,4-star hotel,,-4.3180311,39.5753208
Villa LeoMar,Cottage,,-4.3566863,39.5566557
Flamboyant Diani,4-star hotel,,-4.3134098,39.5777863
The Shore House Kenya,Villa,,-4.3480096,39.563503
KASKAZI BEACH HOTEL,Hotel,,-4.2851368,39.566338
Coconut Village Beach Resort,3-star hotel,,-4.3633543,39.5602028
Villa Kasuku,Bed & breakfast,,-4.3612649,39.5557761
Seaclusion Diani,4-star hotel,,-4.310092,39.5749243
Language Point Cottages,Cottage rental,,-4.3547266,39.5404698
Lazy Days,Villa,,-4.3437555,39.5646202
Bahari Dhow Beach Villas,3-star hotel,,-4.271643,39.5945764
Tichi Villa Diani Beach,Hotel,,-4.3645574,39.5567787
Diani Beach Villas Cottages,3-star hotel,,-4.3141165,39.5689152
Diani Beach Konya House,Hotel,,-4.3436073,39.5616705
Tahira Villa,Villa,,-4.3637722,39.5573176
Mawimbi,Hotel,,-4.3543142,39.5623752
Moringa House,Lodging,,-4.3561359,39.5615206
Elewana AfroChic Diani Beach,4-star hotel,,-4.271843,39.597075
Mango Park - 2,Villa,,-4.360202,39.5539377
Masai Paradise Cottages,Villa,,-4.3507901,39.5608516
Diani Beach Holiday Cottages,Self-catering accommodation,,-4.352474,39.5593377
Manyatta Resort & Apartments,Resort hotel,,-4.3279487,39.5715614
firstrose Villa,Villa,,-4.3552373,39.5547156
Galu getaway resort,4-star hotel,,-4.3613027,39.5612526
Forest Dream Cottages (Resort),Cottage,,-4.334975,39.56158
Golden Duranta Villas,Villa,,-4.2940341,39.5773277
Aqua Resort,Holiday apartment rental,,-4.272937,39.5936968
Tequila sunrise,Bed & breakfast,,-4.343068,39.5657393
Pendo Villas Diani,2-star hotel,,-4.299223,39.57338
Diani Campsite & Cottages,Group accommodation,,-4.3035966,39.5809792
Tradewinds Lodge,3-star hotel,,-4.305683,39.5801779
PrideInn Hotel Diani,Hotel,,-4.2879887,39.5812613
Pinewood Village,Group accommodation,,-4.3756532,39.5522937
Morning Star Diani Beach Resort,3-star hotel,,-4.2771883,39.5915103
Swahili Beach Resort,5-star hotel,,-4.292183,39.586675
Nomad Beach Resort,5-star hotel,,-4.3279096,39.5716651
Diani Reef Beach Resort & Spa,5-star hotel,,-4.2792229,39.5944083
Baobab Beach Resort & Spa,4-star hotel,,-4.3366306,39.56805
Waterlovers Beach Resort,4-star hotel,,-4.3080734,39.5806263
The Maji Beach Boutique Hotel,5-star hotel,,-4.2762412,39.5940109
Southern Palms Beach Resort,4-star hotel,,-4.2682637,39.5970049
KASKAZI BEACH HOTEL,Hotel,,-4.2851368,39.566338
Diamonds Leisure Beach & Golf Resort,4-star hotel,,-4.281539,39.5924429
Kaskazi Beach Resort,4-star hotel,,-4.2935937,39.5863427
Swahili Beach diani,Hotel,,-4.2921967,39.5864883
Asha Boutique Hotel,Hotel,,-4.3084629,39.5804949
Leopard Beach Resort and Spa,Hotel,,-4.2841087,39.5892313
Kivulini Beach Villa & Cottages,Resort hotel,,-4.3030334,39.582382
The Villa Luxury Suites Hotel,4-star hotel,,-4.2872271,39.5847249
Eleven Pearl Boutique Hotel & Spa,4-star hotel,,-4.3416889,39.5662658
Tombo House,Hotel,,-4.2755383,39.5889014
Stilts Tree Houses,Hotel,,-4.3120961,39.5739288
Coconut Beach Lodge,4-star hotel,,-4.2481045,39.6009515
Coral Beach Resort,Resort hotel,,-4.2891936,39.5897397
Tulia Eco Garden,Hotel,,-4.3124264,39.5178807
Papillon Lagoon Reef,3-star hotel,,-4.3332646,39.5672755
"Safari Beach Hotel, Diani",Hotel,,-4.3311551,39.5680296
Mangro Hotel Diani,3-star hotel,,-4.2851172,39.5737439
Villa Mandhari Diani Beach,Hotel,,-4.3263698,39.5621082
Jacaranda Indian Ocean Beach Resort,4-star hotel,,-4.2617618,39.59544
Coco-De-Ville Kenya,3-star hotel,,-4.3077554,39.5771798
Bahari Dhow Beach Villas,3-star hotel,,-4.271643,39.5945764
Diani Sea Lodge,4-star hotel,,-4.3180311,39.5753208
Mzima Beach Diani,Hotel,,-4.3574818,39.5610443
Swahili House,4-star hotel,,-4.2380144,39.6028292
Sonnie Guest House,3-star hotel,,-4.3193697,39.5662117
Diani Cottages,Hotel,,-4.3086572,39.5778481
Diani Backpackers,2-star hotel,,-4.341119,39.560823
Galu Beach Retreat,3-star hotel,,-4.2991695,39.5814765
"Doric Cottages Diani, Kenya",3-star hotel,,-4.297959,39.577697
PrideInn Hotel Diani,Hotel,,-4.2879887,39.5812613
Ocean Village Club,4-star hotel,,-4.3324398,39.569562
African Dream Cottages - Diani Beach,Cottage,,-4.3109888,39.5730919
Oasis Diani Villas,5-star hotel,,-4.3199944,39.5690765
Diani Beach Villas Cottages,3-star hotel,,-4.3141165,39.5689152
Golden Duranta Villas,Villa,,-4.2940341,39.5773277
Seaclusion Diani,4-star hotel,,-4.310092,39.5749243
Morning Star Diani Beach Resort,3-star hotel,,-4.2771883,39.5915103
Amkia Villas Diani,Hotel,,-4.3255995,39.563898
Flamboyant Diani,4-star hotel,,-4.3134098,39.5777863
Pendo Villas Diani,2-star hotel,,-4.299223,39.57338
Diani Sea Resort,Hotel,,-4.3068277,39.5797706
Diani Campsite & Cottages,Group accommodation,,-4.3035966,39.5809792
Lotfa Resort Diani,3-star hotel,,-4.3259762,39.5693391
Elewana AfroChic Diani Beach,4-star hotel,,-4.271843,39.597075
Diani Classic Guest House Limited,Hotel,,-4.2825767,39.5693179
Kole Kole Hotel,4-star hotel,,-4.3377807,39.5674163
Kijani Cottages,Lodge,,-4.3392761,39.5598505
Alfajiri Villas,Cottage,,-4.286725,39.5895927
Diani Travelers Guest House,3-star hotel,,-4.2814111,39.5670485
Aqua Resort,Holiday apartment rental,,-4.272937,39.5936968
glory oceanvillas diani,Villa,,-4.3031269,39.5772573
Prideinn Express Diani,3-star hotel,,-4.2755123,39.5925342
Noura suites Diani,Restaurant,,-4.2852739,39.5750866
Boxo Diani,4-star hotel,,-4.363113,39.5579518
Raquel's Bliss Diani,Hotel,,-4.3260119,39.5634811
Noura suites Diani,Restaurant,,-4.2852739,39.5750866
"Casa Di Mia Luxury Villa, Beach Road",Villa,,-4.2633251,39.5946011
Tradewinds Lodge,3-star hotel,,-4.305683,39.5801779
Diani - Banda Guest House,2-star hotel,,-4.3036522,39.579914
Malaika Gardens hotel $ conference centre,Hotel,,-4.3008541,39.577525
Casa Hera,Bed & breakfast,,-4.2731205,39.5895515
DARAD DIANI HOTEL,Hotel,,-4.2865082,39.5767382
"The Safiya Hotel, Diani",Hotel,,-4.269502,39.594592
Qua Bruce Villas,3-star hotel,,-4.3080718,39.5776636
Savita House Diani,Guest house,,-4.298843,39.5778385
Cycad Palm Diani,Hotel,,-4.3276645,39.5592411
Diani Hostel,1-star hotel,,-4.3371025,39.5542596
Diani Marine Divers Village,4-star hotel,,-4.3122353,39.5773735
Manyatta Resort & Apartments,Resort hotel,,-4.3279487,39.5715614
Lovely 5-bed Room House With a Swimming Pool,Extended stay hotel,,-4.3294,39.56574
Diani Apartments,Hotel,,-4.3004754,39.5780446
Kitu Kidogo House,Villa,,-4.3132438,39.5760078
Watano beach house,Hotel,,-4.2994413,39.5843719
Diani sea Resort,Hotel,,-4.2879617,39.5652842
Retro Boutique Hotel,3-star hotel,,-4.2871218,39.5838349
Frangipani Cottages,4-star hotel,,-4.3031267,39.5777195
Armaan Shopping Complex,Guest house,,-4.316064,39.5733988
"Msitu Kwetu (Luxury Villa Estate, Diani Beach)",Villa,,-4.3215385,39.5714759
Forest Dream Cottages (Resort),Cottage,,-4.334975,39.56158
African Huts,Resort hotel,,-4.3245041,39.5648913
Golf and Living,Resort hotel,,-4.2854215,39.5863669
Twiga Lodge,4-star hotel,,-4.2404172,39.6026818
Safina Cottages,3-star hotel,,-4.3083826,39.574437
Mkelekele House,Hotel,,-4.243797,39.600954
Amani Tiwi Beach Resort,4-star hotel,,-4.2520029,39.5994529
LaSpaDiani,4-star hotel,,-4.3223241,39.5621214
Maasai Paradise,Hotel,,-4.2869817,39.5659974
Diani Beach,Group accommodation,,-4.2797626,39.5946957
Kongo river (shambani) bungalows,Cottage,,-4.259795,39.5947
BmB Villar,Hotel,,-4.2879586,39.5652384
Marula Park,3-star hotel,,-4.3115782,39.576011
Zana Villas,Villa,,-4.3252855,39.5645594
Footprints House,4-star hotel,,-4.3022948,39.5811185
DianiKwetu Resort,Resort hotel,,-4.2697549,39.5921969
Saffron Villas,Hotel,,-4.3135024,39.5759322
Seaesta Studios Diani,Guest house,,-4.286871,39.5755252
Diani Paradise Villas,Villa,,-4.2946059,39.579947
Inchi Raha Cottages,3-star hotel,,-4.2780581,39.570019
Diani Forest Lodge,Lodge,,-4.2790822,39.5636196
Flametree Beach Homes,3-star hotel,,-4.2977695,39.5786766
Peekaboo,Bed & breakfast,,-4.3029146,39.5776582
Diani Beach Club,Bed & breakfast,,-4.3279487,39.5715614
Kwale Golden Guest House,3-star hotel,,-4.1754047,39.44978
Satao Guest House,4-star hotel,,-4.2877253,39.5664259
Ndege Cottages,Cottage,,-4.3033977,39.5773697
Monkey Suites,Villa,,-4.3172033,39.5753582
Germano Cottages Garden and Pool,Hotel,,-4.2878614,39.5766889
Fiorella Beach House,Serviced accommodation,,-4.2965385,39.5833337
Gecko Hotel resort,Resort hotel,,-4.285279,39.574121
Tiwani Cottages,4-star hotel,,-4.2408239,39.5974086
Kenya Charming Villas,Villa,,-4.2629574,39.5953307
V-Szameitat Homes (Diani South Coast-Kenya),Villa,,-4.3087014,39.5792684
vila,3-star hotel,,-4.2919792,39.5700155
"Shani House -Diani beach front private luxury villa, fully staffed.",,,-4.2614989,39.5969048
Modern 4-Bedroom Villa with Rooftop & Beach Access ‚Äì Diani,,,-4.2711039,39.5930023
Private Backdoor Villa with big swimming pool and services of chef included,Villa,,-4.2650099,39.5936699
Amkia Villas Diani,Villa,,-4.2795348,39.5936508
Casa Zuri Diani Beach Villa,,,-4.27879,39.5895691
"Private villa with big pool, a chef free of charge",,,-4.2648501,39.5936012
Villa Mozilla Diani Beach,,,-4.285264,39.5865555
A secluded escape with Private Pool and Chef .,,,-4.275826,39.5889435
Modern 4-BR Diani villa-ooftop in & Beach Access in Diani Beach ideal for,,,-4.2765379,39.5857506
Watano Beach House Diani,,,-4.2994547,39.5843468
Saffron Villas,Villa,,-4.3134298,39.5764694
Lux Suites Sanuna Villas Diani,,,-4.3024588,39.5800056
A step from ocean,Villa,,-4.2992401,39.5821419
Diani 2BR Coastal Villa - 4 Mins To The Beach,Villa,,-4.2696242,39.594738
Villa Black Pearl with large pool - Paradise for Families,,,-4.3055902,39.5786896
BEACH VILLA DIANI,,,-4.28687,39.5826912
10 minutes to the beach! Villa Sultanas Luxury Villa with private swimming pool,Villa,,-4.3238988,39.5709305
Sea la vie - Macheo,Villa,,-4.2694001,39.5942612
"Luxury Private Villas in Diani Beach, Mombasa Kenya",,,-4.3237648,39.5617447
"Cosy Villa along Diani Beach Road, that combines elegance and tranquility.",,,-4.2975001,39.5827904
"Luxury Private Villas in Diani Beach, Mombasa Kenya",,,-4.3237648,39.5617447
"Cosy Villa along Diani Beach Road, that combines elegance and tranquility.",,,-4.2975001,39.5827904
Backdoor Villa,Villa,,-4.2651033,39.5935669
Sea la vie - Macheo,Villa,,-4.2694001,39.5942612
Swahili Design Luxury Villa,,,-4.301897,39.5828018
Oasis Villas- Diani Beach -5 mins walk to the Beach!,Villa,,-4.3198299,39.5719109
Villa Mahaba Diani Beach,,,-4.2890701,39.5828362
Diani Paradise Villas Resort,,,-4.2945499,39.5800095
2 & 3 Bedroom Villa Near Diani Beach,,,-4.268774,39.5908546
3-bedroom villa in enchanting Diani Beach with AC,,,-4.3286018,39.5697937
Swahili Oasis,Villa,,-4.2974901,39.5785103
"Our vacation rental home is a haven of peace and bliss, surrounded by nature.",,,-4.2877388,39.5847015
DIANI 2BDR,,,-4.28198,39.5984917
Villa Zumaridi,Villa,,-4.280591,39.5789375
Roseville,,,-4.29667,39.5783806
Lux Suites Diani Holiday Villas,,,-4.2700348,39.5946083
Marvelous 2 bedroom villa with AC in Diani,,,-4.320435,39.5664711
"Sagwe Riviera Diani, Kenya",,,-4.2617898,39.5916481
"South Fork Diani, 3 bedroom with pool.",,,-4.3418665,39.5571823
"Villa with own compound with pool ,5 minutes to the beach ,shops and restaurants",,,-4.2879348,39.5652351
Paradise Awaits,Villa,,-4.3167,39.5724716
Sublime Villa 4BR 2 mins 2 beach,,,-4.3088002,39.5803909
Villa Duran - 5 bedrooms,,,-4.2944498,39.5773315
Villa SeaRender Deluxe Villa,,,-4.3217449,39.5625877
Villa Lamuhouse Diani Beach,Villa,,-4.3216,39.571209
Greenfield Villa D- Diani,,,-4.3014708,39.5797195
Sea Breeze Villas Kenya,Villa,,-4.2996402,39.5736618
Ras Kikadini Beach House,Villa,,-4.2092237,39.6125336
Oasis Diani Beach Villas - Two-Bedroom Villa,,,-4.3200998,39.5690384
3 Bedrom Villa 50 meters 2 Beach,,,-4.3017602,39.5792999
Leshan Luxury Villas,,,-4.2928338,39.5752144
Queens Chateau Boutique Villa,,,-4.3189859,39.5735626
Pendo Villas  Diani Beach,,,-4.300087,39.5711937
Your wild villa escape near the Diani beach! The Heart of Serenity.,,,-4.3251829,39.5642052
African Huts Villas Diani Your wild villa escape near the Diani beach!,,,-4.2878408,39.5847244
Mbuyu Villa - 5min from the beach!!,,,-4.2660732,39.5904961
Fantastic villa with AC in Tiwi - 8 bedrooms for ultimate relaxation,,,-4.2171679,39.5961151
Oasis Villa Diani Beach- Two Bedroom,Villa,,-4.2865281,39.5381737
Lux Suites Diani Airstrip Villas,,,-4.3040771,39.5788574
Kivuli Villas Diani-3 Bedrooms,Villa,,-4.3088002,39.5770912
Luxury villa with 2 bedrooms,,,-4.3221192,39.5744095
Villa Sunshine,Villa,,-4.2639399,39.5939713
Doric Cottages Diani,,,-4.2981658,39.5786209
Nimepata Paradiso Ndovu,,,-4.28792,39.5653
Tradewinds Lodge,Villa,,-4.30548,39.5798798
CAPITAL C DIANI BEACH VILLA,,,-4.2751899,39.5919685
Stay happy at Raz Homes,,,-4.3107071,39.5753136
2-bedroom villa 8min walk to the beach,,,-4.3204899,39.5669937
Coral Villas Cottage,Villa,,-4.3364301,39.5569305
Serene 3 bed villa in the garden,,,-4.3225098,39.5836487
Enchanting 3bed Villa with Ac pool,,,-4.2869802,39.5876198
PRIME RESIDENCE DIANI,,,-4.2729802,39.5974503
Villa own compound /with pool 5 min to the beach,,,-4.2838202,39.5870743
Clem Villa,,,-4.2716799,39.592411
"Casa Di Mia Villa, with Pool & 3 min walk to Beach.",,,-4.2633252,39.5944672
Sawa Sawa Cottage - Boutique Lamu cottage in Diani,,,-4.2846498,39.5891685
Kivulini Beach Villas and Cottages,,,-4.3061099,39.5835686
"Elna's Haven - 4BR All ensuite villa in a private compound. Wifi, Swimming Pool",,,-4.2877402,39.584671
Villa in diani beach,,,-4.2705708,39.5932426
3 Bed Room private villa with pool,,,-4.28583,39.5871086
Spectacular Manola House ‚Äì Beach 2 Min Walk,,,-4.3087802,39.5770416
Beachfront Vigae Villa.,Villa,,-4.2887502,39.5894089
Villa SeaRender - A luxury Swahili-style home,,,-4.2670102,39.5953102
"A unique, tastefully furnished luxury villa in Diani, near Africa's best beach.",Villa,,-4.267261,39.5884705
Four bedroom stand alone luxury villa,,,-4.3018899,39.5802383
The Big 5 Diani Villas,,,-4.2719402,39.5907097
"Diani Beach,  Luxury Cottage",,,-4.290647,39.5880737
Jaz Villa,Villa,,-4.26372,39.5916481
Searenity Beach Villa,,,-4.3028688,39.5826721
Oasis Retreat,,,-4.2877402,39.5846901
"Barizieum Nest 3BR Villa,Diani",,,-4.2701201,39.5946999
Villa Cool Breeze.,,,-4.26403,39.5951996
3 Bedrom Villa 50 meters 2 the Beach ‚õ±Ô∏èüå¥HOT!!,,,-4.3027258,39.5809517
Diani-Paradise-Villas,Villa,,-4.2946701,39.5798912
Modern 3 bedroom villa Diani-HomeAway_Luxurious,,,-4.2708001,39.5946884
Villa SeaRender,,,-4.2670178,39.5953064
Fisia Diani Villa,Villa,,-4.281589,39.5777588
Pet Friendly Oneiric Villa at the Indian Ocean with Pool,,,-4.3030701,39.5796013
Villa Ndoto,Villa,,-4.32197,39.5722694
MASKANI Villa,Villa,,-4.2844901,39.5851402
Mawimbi House. Shamsa collection - our family home in front of the Indian Ocean,,,-4.2972708,39.585968
Perfect Family Villa,,,-4.2765098,39.5910988
ZANA DIANI VILLAS,Villa,,-4.32583,39.5643082
Casa di Mia,,,-4.26335,39.5944405
Diani Luxury 2 bedroom Villa,,,-4.2668362,39.5919647
Roseville Diani,,,-4.2965441,39.578537
The Beach House,,,-4.3091602,39.5799599
Executive 3 bedroom Villa Zana,,,-4.3009,39.5744705
Kivulini Villas,,,-4.3037,39.579731
"Serene 4BR Family Home, 5 Min Walk from the Beach",Villa,,-4.2848101,39.5859413
Villa Mbuyu Diani,,,-4.2645898,39.5908813
Amani Paradise - Luxurious Seven bedroom villa,,,-4.3299699,39.5683784
Private 4 Bedroom Villa - Diani,,,-4.2622399,39.5956917
Villas Orchard,,,-4.2670999,39.5910416
Maranda Residences - Cool Breeze.,Villa,,-4.26402,39.595211
Cape Blush Villa beachfront,,,-4.3136301,39.5767403
BLISS VILLAS DIANI - Two-Bedroom Villa,Villa,,-4.30409,39.5788918
Wembley villla diani beach,,,-4.2703142,39.5928268
Little Canada Beach House,,,-4.2877402,39.5846786
Villa Sultanas Diani,Villa,,-4.3030701,39.5739517
Amani Paradise - Luxury Villas,Villa,,-4.3610401,39.5552711
Black Pearl - Luxury Villa with private pool - near beach,,,-4.3573699,39.55756
Grand Amber Villas Diani,Villa,,-4.3562889,39.5583229
Diani Beach | Kenya | Luxury Swahili Beach Villas at Lantana Galu Beach,,,-4.3647299,39.5598984
New beautiful villa in great location only 2 minutes to exotic white sandy beach,Villa,,-4.3542991,39.5599327
Coastal Bliss Diani Villa with private pool and Private Beach Acess,,,-4.3537688,39.5601463
Villa LeoMar Diani Beach,Villa,,-4.3566799,39.556591
"Villa LeoMar with large private pool, tropical garden only 350 m from the beach",Villa,,-4.3564501,39.5566597
Amber Villas Diani,Villa,,-4.35707,39.5591698
Villas Dora and Holly,Villa,,-4.36273,39.5531693
Galu Ecolodge - Diani Beach - Beach Bungalow,Villa,,-4.37012,39.55793
Peaceful Hideaway Cottage Pool/Barbecue/Aircon,,,-4.3623309,39.5532379
Upani in Diani,Villa,,-4.3636398,39.5555191
Villa Black Pearl,,,-4.3572021,39.557312
Charming and Remarkable15-bed Villa in Diani Beach,,,-4.3442602,39.5627098
Peaceful Hideaway Cottage Pool\/Barbecue\/Aircon,,,-4.36233,39.5532303
"Villa Kwako. For Privacy  safely. Tastefully-furnished, for family or group.",Villa,,-4.3526101,39.5586891
Premium 6-bedroom villa in the World Famous Diani/Galu Beach in Kenya.,,,-4.356154,39.5614929
Tahira Villa,Villa,,-4.36378,39.5573082
Unique Hideaway Cottage Aircon~Pool~Barbecue,Villa,,-4.3628082,39.553009
Two Bedroomed Villa set in the pristine Galu Beach area of Diani,,,-4.3727608,39.5498123
Unique Hideaway Cottage Aircon~Pool~Barbecue,Villa,,-4.3628082,39.553009
"Villa Kwako. For Privacy & safely. Tastefully-furnished, for family or group.",Villa,,-4.3526101,39.5587006
Marabi Luxury Villa,,,-4.350872,39.561058
BLUE WATER VILLAS,,,-4.3658409,39.5525093
"Artistic Dreamscape 4br Villa Diani Beach, 5 minutes walk to the white beach",,,-4.3489318,39.5617142
5 Bedroom Luxury Villa In Diani,,,-4.34339,39.5613899
Private villa in Lamu style with private pool and cook/ staff 250 m to the beach,Villa,,-4.3287382,39.5683556
Al Mahali Villas,,,-4.363975,39.559803
"South Fork Diani, 3 bedroom with pool.",,,-4.3418665,39.5571823
Beautiful paradise,,,-4.3670001,39.5569992
Queens Chateau Boutique Villa,,,-4.35432,39.5599213
"The Ultimate Villa in an Ideal Location, Kwale County Villa 1000",,,-4.3629298,39.5525513
"4 bedroom villa with a kitchen - Economy Double Room, Balcony, Garden View",,,-4.3639898,39.5568886
Lovely 4-Bed Villa Family oriented or a smallgroup,Villa,,-4.35605,39.5591087
Lazy Days,,,-4.3429942,39.5634918
La maison,Villa,,-4.3497701,39.5565414
Saffron Villas,Villa,,-4.3134298,39.5764694
3 Bed Villa - Sleeps 6 - Wifi - Parking,,,-4.3640599,39.5573883
Diani Beachalets,,,-4.3460398,39.5646286
A sentimental villa with a swimmingpool near beach,,,-4.36414,39.5573502
Pet Friendly Villa Leomar,Villa,,-4.3564572,39.5566673
"Luxury Private Villas in Diani Beach, Mombasa Kenya",,,-4.3237648,39.5617447
10 minutes to the beach! Villa Sultanas Luxury Villa with private swimming pool,Villa,,-4.3238988,39.5709305
Villa Dora and Holly,,,-4.3627629,39.5529594
ZANA DIANI VILLAS. LUXURIOUS 2 BEDROOM VILLA 10 MIN FROM THE BEACH,Villa,,-4.325942,39.5646095
Micmoll paradise vla,,,-4.36904,39.559269
ZANA DIANI VILLAS. LUXURIOUS 3 BEDROOM PRIVATE VILLA 10 min from the beach,Villa,,-4.3260012,39.5645752
Oasis Diani Beach Villas - Two-Bedroom Villa,,,-4.3200998,39.5690384
Grand Amber Villa,,,-4.3565922,39.5579376
Oasis Villas- Diani Beach -5 mins walk to the Beach!,Villa,,-4.3198299,39.5719109
3-bedroom villa in enchanting Diani Beach with AC,,,-4.3286018,39.5697937
Honeydream Villa  Studio Apartments,,,-4.3436999,39.5613289
Villa Lamuhouse Diani Beach,Villa,,-4.3216,39.571209
Coral Villas Cottage,Villa,,-4.3364301,39.5569305
Villa Black Pearl with large pool - Paradise for Families,,,-4.3055902,39.5786896
Marvelous 2 bedroom villa with AC in Diani,,,-4.320435,39.5664711
Airdunia Villa,,,-4.3509202,39.5603218
Nice and cosy Studio en-suite kitchenette Kenya,,,-4.36413,39.5573692
4 bedroom villa with a kitchen,,,-4.363996,39.5568924
3 Bedroom Luxurious Villa in Diani,,,-4.3881898,39.5422058
Sea Breeze Villas Kenya,Villa,,-4.2996402,39.5736618
Private Backdoor Villa with big swimming pool and services of chef included,Villa,,-4.2650099,39.5936699
3 Bedroom Luxury Villa-Sita in Diani,Villa,,-4.3878798,39.5421104
A step from ocean,Villa,,-4.2992401,39.5821419
"Shani House -Diani beach front private luxury villa, fully staffed.",,,-4.2614989,39.5969048
Lux Suites Sanuna Villas Diani,,,-4.3024588,39.5800056
Your wild villa escape near the Diani beach! The Heart of Serenity.,,,-4.3251829,39.5642052
A secluded escape with Private Pool and Chef .,,,-4.275826,39.5889435
"Cosy Villa along Diani Beach Road, that combines elegance and tranquility.",,,-4.2975001,39.5827904
Pendo Villas  Diani Beach,,,-4.300087,39.5711937
Watano Beach House Diani,,,-4.2994547,39.5843468
Kivuli Villas Diani-3 Bedrooms,Villa,,-4.3088002,39.5770912
2-bedroom villa 8min walk to the beach,,,-4.3204899,39.5669937
Swahili Oasis,Villa,,-4.2974901,39.5785103
Diani Paradise Villas Resort,,,-4.2945499,39.5800095
Modern 4-BR Diani villa-ooftop in & Beach Access in Diani Beach ideal for,,,-4.2765379,39.5857506
Villa Mahaba Diani Beach,,,-4.2890701,39.5828362
Paradise Awaits,Villa,,-4.3167,39.5724716
Roseville,,,-4.29667,39.5783806
Luxury villa with 2 bedrooms,,,-4.3221192,39.5744095
Sublime Villa 4BR 2 mins 2 beach,,,-4.3088002,39.5803909
Villa SeaRender Deluxe Villa,,,-4.3217449,39.5625877
Modern 4-Bedroom Villa with Rooftop & Beach Access ‚Äì Diani,,,-4.2711039,39.5930023
Leshan Luxury Villas,,,-4.2928338,39.5752144
Oasis Villa Diani Beach- Two Bedroom,Villa,,-4.2865281,39.5381737
Swahili Design Luxury Villa,,,-4.301897,39.5828018
Amkia Villas Diani,Villa,,-4.2795348,39.5936508
Villa Mozilla Diani Beach,,,-4.285264,39.5865555
"Private villa with big pool, a chef free of charge",,,-4.2648501,39.5936012
Diani 2BR Coastal Villa - 4 Mins To The Beach,Villa,,-4.2696242,39.594738
Almond Ridge - Villa Mfalme (Deluxe),,,-4.388063,39.542202
Stay happy at Raz Homes,,,-4.3107071,39.5753136
Almond Ridge - Villa Sita,Villa,,-4.3878846,39.5421143
Tradewinds Lodge,Villa,,-4.30548,39.5798798
3 Bedrom Villa 50 meters 2 Beach,,,-4.3017602,39.5792999
Casa Zuri Diani Beach Villa,,,-4.27879,39.5895691
"Villa with own compound with pool ,5 minutes to the beach ,shops and restaurants",,,-4.2879348,39.5652351
"Sagwe Riviera Diani, Kenya",,,-4.2617898,39.5916481
Greenfield Villa D- Diani,,,-4.3014708,39.5797195
2 & 3 Bedroom Villa Near Diani Beach,,,-4.268774,39.5908546
Villa Zumaridi,Villa,,-4.280591,39.5789375
DIANI 2BDR,,,-4.28198,39.5984917
Villa Duran - 5 bedrooms,,,-4.2944498,39.5773315
Sea la vie - Macheo,Villa,,-4.2694001,39.5942612
"Our vacation rental home is a haven of peace and bliss, surrounded by nature.",,,-4.2877388,39.5847015
BEACH VILLA DIANI,,,-4.28687,39.5826912
Nimepata Paradiso Ndovu,,,-4.28792,39.5653
Backdoor Villa,Villa,,-4.2651033,39.5935669
Lux Suites Diani Airstrip Villas,,,-4.3040771,39.5788574
African Huts Villas Diani Your wild villa escape near the Diani beach!,,,-4.2878408,39.5847244
Mbuyu Villa - 5min from the beach!!,,,-4.2660732,39.5904961
Serene 3 bed villa in the garden,,,-4.3225098,39.5836487
Villa Sunshine,Villa,,-4.2639399,39.5939713
Doric Cottages Diani,,,-4.2981658,39.5786209
Lux Suites Diani Holiday Villas,,,-4.2700348,39.5946083
CAPITAL C DIANI BEACH VILLA,,,-4.2751899,39.5919685
Swahili house,,,-4.3508601,39.5610619
4 U Luxury Bungalows Diani,Villa,,-4.35953,39.5519409
Luxury Holiday Villa - Private Chef - Pool - A\/C (partly),,,-4.3577299,39.5587502
Private Backdoor Villa with big swimming pool and services of chef included,Villa,,-4.2650099,39.5936699
10 minutes to the beach! Villa Sultanas Luxury Villa with private swimming pool,Villa,,-4.3238988,39.5709305
Saffron Villas,Villa,,-4.3134298,39.5764694
Private villa in Lamu style with private pool and cook/ staff 250 m to the beach,Villa,,-4.3287382,39.5683556
Lux Suites Sanuna Villas Diani,,,-4.3024588,39.5800056
ZANA DIANI VILLAS. LUXURIOUS 3 BEDROOM PRIVATE VILLA 10 min from the beach,Villa,,-4.3260012,39.5645752
"Villa with own compound with pool ,5 minutes to the beach ,shops and restaurants",,,-4.2879348,39.5652351
ZANA DIANI VILLAS. LUXURIOUS 2 BEDROOM VILLA 10 MIN FROM THE BEACH,Villa,,-4.325942,39.5646095
Modern 4-BR Diani villa-ooftop in & Beach Access in Diani Beach ideal for,,,-4.2765379,39.5857506
Watano Beach House Diani,,,-4.2994547,39.5843468
A secluded escape with Private Pool and Chef .,,,-4.275826,39.5889435
"Shani House -Diani beach front private luxury villa, fully staffed.",,,-4.2614989,39.5969048
Villa Black Pearl with large pool - Paradise for Families,,,-4.3055902,39.5786896
A step from ocean,Villa,,-4.2992401,39.5821419
"Cosy Villa along Diani Beach Road, that combines elegance and tranquility.",,,-4.2975001,39.5827904
Sea Breeze Villas Kenya,Villa,,-4.2996402,39.5736618
Villa Mozilla Diani Beach,,,-4.285264,39.5865555
"Private villa with big pool, a chef free of charge",,,-4.2648501,39.5936012
"Luxury Private Villas in Diani Beach, Mombasa Kenya",,,-4.3237648,39.5617447
Leshan Luxury Villas,,,-4.2928338,39.5752144
Marvelous 2 bedroom villa with AC in Diani,,,-4.320435,39.5664711
Villa Zumaridi,Villa,,-4.280591,39.5789375
Oasis Diani Beach Villas - Two-Bedroom Villa,,,-4.3200998,39.5690384
Backdoor Villa,Villa,,-4.2651033,39.5935669
3-bedroom villa in enchanting Diani Beach with AC,,,-4.3286018,39.5697937
Villa SeaRender Deluxe Villa,,,-4.3217449,39.5625877
Leshan Luxury Villas,,,-4.2928338,39.5752144
"Sagwe Riviera Diani, Kenya",,,-4.2617898,39.5916481
Casa Zuri Diani Beach Villa,,,-4.27879,39.5895691
"South Fork Diani, 3 bedroom with pool.",,,-4.3418665,39.5571823
Diani Paradise Villas Resort,,,-4.2945499,39.5800095
Villa Mahaba Diani Beach,,,-4.2890701,39.5828362
Swahili Oasis,Villa,,-4.2974901,39.5785103
Your wild villa escape near the Diani beach! The Heart of Serenity.,,,-4.3251829,39.5642052
Nimepata Paradiso Ndovu,,,-4.28792,39.5653
Villa Lamuhouse Diani Beach,Villa,,-4.3216,39.571209
Diani 2BR Coastal Villa - 4 Mins To The Beach,Villa,,-4.2696242,39.594738
Swahili Design Luxury Villa,,,-4.301897,39.5828018
Oasis Villas- Diani Beach -5 mins walk to the Beach!,Villa,,-4.3198299,39.5719109
Villa Duran - 5 bedrooms,,,-4.2944498,39.5773315
Pendo Villas  Diani Beach,,,-4.300087,39.5711937
BEACH VILLA DIANI,,,-4.28687,39.5826912
Greenfield Villa D- Diani,,,-4.3014708,39.5797195
Roseville,,,-4.29667,39.5783806
Queens Chateau Boutique Villa,,,-4.3189859,39.5735626
"Our vacation rental home is a haven of peace and bliss, surrounded by nature.",,,-4.2877388,39.5847015
Kivuli Villas Diani-3 Bedrooms,Villa,,-4.3088002,39.5770912
Paradise Awaits,Villa,,-4.3167,39.5724716
Luxury villa with 2 bedrooms,,,-4.3221192,39.5744095
Amkia Villas Diani,Villa,,-4.2795348,39.5936508
Lux Suites Diani Airstrip Villas,,,-4.3040771,39.5788574
Sublime Villa 4BR 2 mins 2 beach,,,-4.3088002,39.5803909
Mbuyu Villa - 5min from the beach!!,,,-4.2660732,39.5904961
African Huts Villas Diani Your wild villa escape near the Diani beach!,,,-4.2878408,39.5847244
Sea la vie - Macheo,Villa,,-4.2694001,39.5942612
3 Bedrom Villa 50 meters 2 Beach,,,-4.3017602,39.5792999
2 & 3 Bedroom Villa Near Diani Beach,,,-4.268774,39.5908546
DIANI 2BDR,,,-4.28198,39.5984917
Coral Villas Cottage,Villa,,-4.3364301,39.5569305
Oasis Villa Diani Beach- Two Bedroom,Villa,,-4.2865281,39.5381737
Tradewinds Lodge,Villa,,-4.30548,39.5798798
Villa Sunshine,Villa,,-4.2639399,39.5939713
Stay happy at Raz Homes,,,-4.3107071,39.5753136
Lux Suites Diani Holiday Villas,,,-4.2700348,39.5946083
Doric Cottages Diani,,,-4.2981658,39.5786209
2-bedroom villa 8min walk to the beach,,,-4.3204899,39.5669937
Serene 3 bed villa in the garden,,,-4.3225098,39.5836487
CAPITAL C DIANI BEACH VILLA,,,-4.2751899,39.5919685
Enchanting 3bed Villa with Ac pool,,,-4.2869802,39.5876198
Kivulini Beach Villas and Cottages,,,-4.3061099,39.5835686
Mango Park Villas,,,-4.2871799,39.5655518
Executive 3 bedroom Villa Zana,,,-4.3009,39.5744705
ZANA DIANI VILLAS,Villa,,-4.32583,39.5643082
Fisia Diani Villa,Villa,,-4.281589,39.5777588
Kivulini Villas,,,-4.3037,39.579731
Villa Sultanas Diani,Villa,,-4.3030701,39.5739517
Four bedroom stand alone luxury villa,,,-4.3018899,39.5802383
Pet Friendly Oneiric Villa at the Indian Ocean with Pool,,,-4.3030701,39.5796013
Searenity Beach Villa,,,-4.3028688,39.5826721
The Beach House,,,-4.3091602,39.5799599
"Elna's Haven Villa Diani - Lush  Private with Swimming Pool, Wifi and Games",Villa,,-4.3206601,39.5693016
Spectacular Manola House ‚Äì Beach 2 Min Walk,,,-4.3087802,39.5770416
Luxury 3 bedroom Villa,Villa,,-4.3022199,39.5741692
luxury villa,,,-4.304873,39.57901
"Elna's Haven - 4BR All ensuite villa in a private compound. Wifi, Swimming Pool",,,-4.2877402,39.584671
Clem Villa,,,-4.2716799,39.592411
Villa Ndoto,Villa,,-4.32197,39.5722694
Diani-Paradise-Villas,Villa,,-4.2946701,39.5798912
PRIME RESIDENCE DIANI,,,-4.2729802,39.5974503
"Villa Raymond, Diani, Kenya",Villa,,-4.3214502,39.5644798
"A unique, tastefully furnished luxury villa in Diani, near Africa's best beach.",Villa,,-4.267261,39.5884705
Villa Leone with private pool and air con,,,-4.3187799,39.5660591
Villa Nova POOL own compound 8min walk to the beach Diani Beach,,,-4.29948,39.5780106
Garden villa with pool own compound,,,-4.2976298,39.5784302
MASKANI Villa,Villa,,-4.2844901,39.5851402
Mandhari- Diani Beach VIlla,,,-4.3227501,39.5553398
The Big 5 Diani Villas,,,-4.2719402,39.5907097
Villa 5min walk to the beach POOL privacy own compound,,,-4.2946301,39.5768318
OCEANBLUE VILLAS,Villa,,-4.30299,39.5797882
3 Bed Room private villa with pool,,,-4.28583,39.5871086
Amani Paradise - Luxurious Seven bedroom villa,,,-4.3299699,39.5683784
Diani villa,,,-4.30863,39.5778618
Villa own compound /with pool 5 min to the beach,,,-4.2838202,39.5870743
Sunrise villa,,,-4.3103399,39.5763397
Garden villa own compound with pool Diani Beach 5min walk to the beach,Villa,,-4.3006501,39.5775414
"Casa Di Mia Villa, with Pool & 3 min walk to Beach.",,,-4.2633252,39.5944672
DIANI HOLIDAY COTTAGE VILLAS,,,-4.2994499,39.5763397
Jaz Villa,Villa,,-4.26372,39.5916481
Haki Villas Diani Beach,Villa,,-4.3180499,39.5565491
Villa Mandhari- Diani Beach,,,-4.3265948,39.5626945
ZANZIBAR VILLAS HOUSE,,,-4.2964101,39.58004
The Great Escape Villa,,,-4.2860799,39.5769882
BLUE WATER VILLAS,,,-4.2906899,39.5654488
Villa Mbuyu Diani,,,-4.2645898,39.5908813
4 Bedroom Villa - Villa Diani,,,-4.3062901,39.5751305
CDV Holiday Home. Calm Tranquility!,Villa,,-4.3087902,39.5776215
Villa Leeven mit privatem Pool am Diani Beach,,,-4.32195,39.5630112
Perfect Family Villa,,,-4.2765098,39.5910988
"Serene 4BR Family Home, 5 Min Walk from the Beach",Villa,,-4.2848101,39.5859413
Own compound 3-bedroom villa,,,-4.3024402,39.5779495
Leonardo's Restaurant,Restaurant,"Colliers Centre, Diani Complex, Ukunda, Diani Beach Road",-4.287741,39.586991
Casamia Diani Beach,Restaurant,"4.312746, 39",-4.3115357,39.5753774
Nomad Beach Bar & Restaurant,Restaurant,Diani Beach Road,-4.3270404,39.5727094
The Salty Squid Beach Bar & Restaurant,Restaurant,Diani Beach Road,-4.3508543,39.5634812
Asha Bistro,Restaurant,,-4.308492,39.5808522
Apero,Restaurant,Next to Chandarana Diani Beach Road,-4.307464,39.5776496
Sails Beach Bar & Restaurant,Restaurant,"Almanara Luxury Villas, Ukunda, Diani Beach Road",-4.35258,39.5629943
Ali Barbour's Cave Restaurant,Restaurant,Ali Barbour's Cave Restaurant Ground N/A Beach Road,-4.313006,39.576826
Estuary Beach Restaurant & Bar,Restaurant,Kongo River,-4.259715,39.5977255
Sizzlers Steak House and Pub,Restaurant,Diani Beach Road,-4.296366,39.5825372
Tribearth,Vegan,Diani Beach Road,-4.2947873,39.5834921
Copa Cabana Beach Bar And Restaurant,Restaurant,"PHFW+QCG, Diani Beach Road Diani Beach",-4.2755568,39.5960854
Mwaepe Fisherman Beach Restaurant,Restaurant,Diani Beach Road,-4.3429506,39.5658303
Shashin-ka,Japanese,MHVH+377,-4.3073379,39.5781716
Kokkos Cafe And Bistro,Coffee shop,Diani Beach Road,-4.3075144,39.5780952
Blue Marlin Restaurant,Restaurant,Diani Beach Road,-4.3503517,39.5640088
Diani Reef Beach Resort & Spa,5-star hotel,,-4.2792229,39.5944083
Jolly Pizzeria,Italian,"Shree Grocery entrance, Diani Beach Road",-4.3087403,39.5770885
Sol Sure√±o Restaurant & Sports Bar Diani,Restaurant,MHRG+MV Soko Complex,-4.3083534,39.5771671
Colobus Shade,Restaurant,Diani Beach Road,-4.3429201,39.5658522
Anchor,Restaurant,Kivulini Beach,-4.3024707,39.5829746
Funky Monkey Cocktail Bar & Restaurant,Restaurant,Diani Beach Road,-4.3064472,39.5785532
Pallet Cafe,Restaurant,Diani Beach Road,-4.3731661,39.5561217
La Gusta Diani Kenya,Seafood,Diani Beach Road,-4.2956682,39.5863934
The Oasis Beach Bar & Restaurant,Restaurant,Diani Beach Road,-4.2725476,39.5972643
Mvureni Beach Bar and Restaurant,African,"Diani, Galu Beach - Ukunda",-4.3588192,39.5622333
Chill Spot,Restaurant,,-4.3000374,39.5844083
The African Pot Restaurant-Diani,African,Diani Beach Road,-4.2848312,39.5730449
Tangezi Seafood Restaurant,Seafood,MH69+MF5 Baobab Beach Resort & Spa,-4.3383526,39.568736
Ocean Avenue,Western,"PH3J+GXV At Bazaar Shopping Centre, Ukunda, Diani Beach Road",-4.2962649,39.5823356
Havana Bar,Restaurant,Diani Beach Road,-4.3079972,39.5772399
Coral Beach Bar & Restaurant,Seafood,Diani Beach Road,-4.2820198,39.5928142
AFRICANA FRESH SEA FOOD RESTAURANT,Seafood,PHMX+59,-4.2670649,39.5984297
The K Korean Restaurant,Korean,Diani Beach Road,-4.3066786,39.5784791
Amigos Beach Bar And Restaurant,Restaurant,MHGF+MP2,-4.3233705,39.5742667
Faultys Beach Bar and Restaurant,Barbecue,,-4.3131683,39.5778748
Sundowner Bar & Restaurant,Restaurant,"Galu Beach, Galu Kinondo Diani Beach Road",-4.3480923,39.5617854
Kibanda Restaurant Diani,Barbecue,Diani Beach Road,-4.2951991,39.5835529
Milly's Bar & Restaurant,Family-friendly,"MHXJ+627, Diani Beach Road",-4.3020073,39.5797943
Coast Dishes Restaurant,Halal,"PH6J+CQV, Diani, Diani Beach Rd",-4.288884,39.5819304
Coolwave Restaurant Diani,Restaurant,"Mbarak Building, Beach Road, Diani Beach, Kwale County",-4.2868311,39.5774718
Sir William‚Äôs Grill Seafood Cafe,Seafood,MH57+2CG,-4.3424466,39.5635719
Qua Bruce Bar and Restaurant,Restaurant,diani beach road,-4.2893447,39.5862111
Shan - E - Punjab Bar & Restaurant,Restaurant,"Ukunda, Diani Beach Road",-4.2786436,39.5906867
Bandarini beach bar and restaurant,Restaurant,PH2P+G2,-4.298688,39.585002
Husna Dishes Diani Restaurant,Restaurant,"PH2J+HQ3, Diani Beach Road",-4.2986246,39.5819274
Java House - Diani,Restaurant,"Center Point Building, Diani Beach Rd",-4.290694,39.585444
Blooming,Restaurant,Diani Beach Road,-4.2991245,39.5812345
Swahili Pot Restaurant,Restaurant,Ukunda road Diani,-4.2848283,39.5729674
Ristorante Pizzeria Da Aniello,Italian,Diani Beach Road,-4.2888971,39.5865089
Sunnyside Up,Restaurant,"JHP5+CW7, Diani Beach Road",-4.3639538,39.5598076
Carneval Rooftop Lounge & Restaurant,Restaurant,PH3J+FX,-4.2959593,39.5821108
LA TERRASSE RESTAURANT DIANI BEACH,Restaurant,Diani Beach Road,-4.3035997,39.5797021
The 41 Beach Club,Restaurant,Diani Beach Road,-4.3150808,39.5761554
Fins Beach Bar & Grill,Grill,Diani Beach Road,-4.2795595,39.5940757
House of Woodfired,Pizza,Diani Airstrip Road,-4.3000989,39.5756242
Barharini,Restaurant,"PH4Q+J3V, Swahili Beach Resort, Ukunda, Diani Beach Road",-4.2933802,39.5876737
SPEEDY'S BISTRO ~ DIANI,Restaurant,,-4.3040033,39.5820739
Bahari Dhow Beach Villas,3-star hotel,,-4.271643,39.5945764
Hangover Cafe,Restaurant,Diani Beach Road,-4.2938369,39.584273
GERMANIC MUG RESTAURANT AND BAR DIANI,Grill,Bazaar Shopping centre next to full moon club Diani,-4.2968372,39.5823213
Higgins Restaurant,Restaurant,Beach road,-4.2724488,39.5939064
Rock Starz Village,Restaurant,"Ukunde - Diani Beach Road, Ukunda, Rd",-4.2859973,39.576973
Baba's Burgers,Hamburger,PH8C+H5P,-4.2835942,39.5705911
The source restaurant,Restaurant,Diani Beach Road,-4.3646477,39.5573721
Coco Bongo Diani,Restaurant,"PHFR+JR4, Ukunda, Diani Beach Road",-4.2759375,39.5920625
House of Woodfired,Pizza Takeout,Diani Beach Road,-4.2987444,39.5814617
Chinese Diani Restaurant,Chinese,"Diani Villas, Diani Beach Road",-4.2780745,39.591028
Hangover Cafe,Restaurant,Diani Beach Road,-4.2938369,39.584273
Double Fifteen Restaurant,Mexican,bahari dhow,-4.2714525,39.5941827
Noura suites Diani,Restaurant,,-4.2852739,39.5750866
Moiz Swahili Dishes,Restaurant,DIANI PALM ROAD,-4.2893431,39.5830264
Le Caf√©,Restaurant,Diani Beach Road,-4.3649231,39.5595851
Nokia Cafe,Restaurant,"Next To Fly 540 Offices, Diani Beach Road",-4.2958493,39.581514
Madafoo's Beach Bar & Restaurant,Restaurant,Galu 723,-4.370041,39.5580115
Jacaranda Indian Ocean Beach Resort,4-star hotel,,-4.2617618,39.59544
Lemongrass Asian Fusion,Asian,Diani Beach Road,-4.2850152,39.5890934
"The Afters, Diani - Boutique Hotel",Restaurant,,-4.2609641,39.5938994
Soul Breeze Beach Resort,3-star hotel,,-4.3647999,39.5576134
Coconut Bar and Restaurant,Restaurant,"South Coast, 80400 Kenya",-4.3639787,39.5602569
Soul Breeze Beach Club and Restaurant,Restaurant,70,-4.3657533,39.5591936
Diani Restaurant,Restaurant,"Opposite Arusha House, PH78+H52, Ukunda-Ramisi Road",-4.2861237,39.5654043
Nomad Beach Resort,5-star hotel,,-4.3279096,39.5716651
Galaxy Diani Restaurant Ltd,Restaurant,Mama Ngina Dr,-4.277583,39.591169
Amani Angani Rooftop Restaurant,Restaurant,Amani Luxury Apartments,-4.3409104,39.5599859
Whitehouse restaurant diani beach,Restaurant,Diani Beach Road,-4.2755433,39.5960861
Spaghetteria da Roberto,Italian,Diani Beach Road,-4.3032347,39.5801464
The Golden Karafuu Restaurant,Restaurant,"At the Golden Sun shopping complex, Along Diani Beach Road",-4.2706342,39.5949604
Blue Marlin Hotel,4-star hotel,,-4.3502467,39.5632992
Bandarini Swahili Dishes,Restaurant,"MHWJ+FQ7, Diani Beach Road",-4.3038498,39.5819344
The Octave Bar,Grill,Diani,-4.2968111,39.5823204
DiAniS fINeST Hangout,Grill,Beach Road,-4.2877618,39.5666781
Strangers Rooftop Diani,Grill,"Diani Beach Road, Next to Tandoori International club",-4.3160631,39.5734033
DD's Restaurant and Bar,Lunch,"Diani Beach Road, Shree Supermarket Complex, Diani",-4.3087505,39.5771011
Pinewood Beach Resort & Spa,Hotel,,-4.3758348,39.5522602
Pasta n pizza tornati,Restaurant,"Leopard Beach Resort, Diani Beach Road",-4.2840318,39.5913925
Diani Sea Lodge,4-star hotel,,-4.3180311,39.5753208
Chui Grill,Restaurant,Shella Diani Beach Road Leopard Beach Resort and Spa,-4.2840384,39.5914111
Kinondo Kwetu,Restaurant,,-4.389153,39.5491409
Chocos Restaurant,Restaurant,,-4.342574,39.5633777
Golden Sun Resort (Fisherhut Restaurant),Restaurant,Diani Beach Road,-4.2700662,39.595375
Nana Delifest,Restaurant,"Noura Suits, Ground Floor Diani Beach Road",-4.2851473,39.5747507
One Day Somewhere,Restaurant,"PH6J+FJX, Diani Beach Road",-4.2887734,39.5816096
Torta Nera Bites,Restaurant,"MHQG+RFJ, Diani Beach Road",-4.3104242,39.5761495
"Lantana Galu - Hotel in Diani, South Coast Kenya",4-star hotel,Diani Beach Road,-4.3640977,39.5577424
MADINI,Restaurant,Airport Road,-4.3007964,39.5748689
Cape Of Good Hope Bar & Restaurant,Restaurant,"PH6J+8X8, Diani",-4.2892244,39.5824625
Stadler Fresh Fruits & Cafe,Restaurant,MH57+39,-4.3421127,39.5631499
Octocafe And Italian Icecream,Restaurant,MHRG+JP2,-4.3084926,39.5767728
Neema Cafe Restoran,Restaurant,80401 Diani Beach Road,-4.3087951,39.5770856
Naz Restaurant,East African,Diani Beach,-4.3570971,39.5590882
Ambari Dishes Diani,Restaurant,"by the Kongo, North end of Diani Beach, river estuary",-4.2879617,39.5652842
Kanuu - Tracy Bar and Restaurant,Restaurant,Diani Beach Road,-4.3572921,39.5590376
KITAMU RESTAURANT,Restaurant,BEACH ROAD,-4.2797626,39.5946958
The Villa Luxury Suites Hotel,4-star hotel,Off Diani Beach Road,-4.2872271,39.5847249
BB 2 Bar & Restaurant,Restaurant,"MHMF+J99, Opposite Diana Sea Lodge, Diana Complex, Diana, Diani Beach Road",-4.3159676,39.5734693
Euro ShowGround,Restaurant,Diani main street,-4.2833627,39.5700933
Fusion Fast Foods Diani,Fast Food,,-4.2874043,39.5796522
Rockys Pub,Restaurant,,-4.2859375,39.5753125
Seaesta Studios Diani,Restaurant,Beach Road,-4.286871,39.5755252
The Salty Squid Beach Bar & Restaurant,Restaurant,Diani Beach Road,-4.3508543,39.5634812
Soul Breeze Beach Club and Restaurant,Restaurant,70,-4.3657533,39.5591936
Sir William‚Äôs Grill Seafood Cafe,Seafood,MH57+2CG,-4.3424466,39.5635719
Madafoo's Beach Bar & Restaurant,Restaurant,Galu 723,-4.370041,39.5580115
Sails Beach Bar & Restaurant,Restaurant,"Almanara Luxury Villas, Ukunda, Diani Beach Road",-4.35258,39.5629943
Sundowner Bar & Restaurant,Restaurant,"Galu Beach, Galu Kinondo Diani Beach Road",-4.3480923,39.5617854
Pallet Cafe,Restaurant,Diani Beach Road,-4.3731661,39.5561217
Mvureni Beach Bar and Restaurant,African,"Diani, Galu Beach - Ukunda",-4.3588192,39.5622333
Chocos Restaurant,Restaurant,,-4.342574,39.5633777
Blue Marlin Restaurant,Restaurant,Diani Beach Road,-4.3503517,39.5640088
The source restaurant,Restaurant,Diani Beach Road,-4.3646477,39.5573721
Colobus Shade,Restaurant,Diani Beach Road,-4.3429201,39.5658522
Sunnyside Up,Restaurant,"JHP5+CW7, Diani Beach Road",-4.3639538,39.5598076
Le Caf√©,Restaurant,Diani Beach Road,-4.3649231,39.5595851
Mwaepe Fisherman Beach Restaurant,Restaurant,Diani Beach Road,-4.3429506,39.5658303
FatFats,Restaurant,Diani Beach Road,-4.3635024,39.5586569
Coconut Bar and Restaurant,Restaurant,"South Coast, 80400 Kenya",-4.3639787,39.5602569
Stadler Fresh Fruits & Cafe,Restaurant,MH57+39,-4.3421127,39.5631499
KenRock,Fusion restaurant,,-4.364908,39.5572429
Pinewood Beach Resort & Spa,Hotel,,-4.3758348,39.5522602
Tangezi Seafood Restaurant,Seafood,MH69+MF5 Baobab Beach Resort & Spa,-4.3383526,39.568736
Amani Angani Rooftop Restaurant,Restaurant,Amani Luxury Apartments,-4.3409104,39.5599859
Anchor,Restaurant,Kivulini Beach,-4.3024707,39.5829746
La Gusta Diani Kenya,Seafood,Diani Beach Road,-4.2956682,39.5863934
Kanuu - Tracy Bar and Restaurant,Restaurant,Diani Beach Road,-4.3572921,39.5590376
Funky Monkey Cocktail Bar & Restaurant,Restaurant,Diani Beach Road,-4.3064472,39.5785532
Faultys Beach Bar and Restaurant,Barbecue,,-4.3131683,39.5778748
Simba Oryx Beach Cottages,4-star hotel,,-4.3559113,39.5595083
Nomad Beach Bar & Restaurant,Restaurant,Diani Beach Road,-4.3270404,39.5727094
Ocean Avenue,Western,"PH3J+GXV At Bazaar Shopping Centre, Ukunda, Diani Beach Road",-4.2962649,39.5823356
The K Korean Restaurant,Korean,Diani Beach Road,-4.3066786,39.5784791
Asha Bistro,Restaurant,,-4.308492,39.5808522
Amigos Beach Bar And Restaurant,Restaurant,MHGF+MP2,-4.3233705,39.5742667
Apero,Restaurant,Next to Chandarana Diani Beach Road,-4.307464,39.5776496
Ali Barbour's Cave Restaurant,Restaurant,Ali Barbour's Cave Restaurant Ground N/A Beach Road,-4.313006,39.576826
Casamia Diani Beach,Restaurant,"4.312746, 39",-4.3115357,39.5753774
The 41 Beach Club,Restaurant,Diani Beach Road,-4.3150808,39.5761554
Tribearth,Vegan,Diani Beach Road,-4.2947873,39.5834921
"Lantana Galu - Hotel in Diani, South Coast Kenya",4-star hotel,,-4.3640977,39.5577424
Milly's Bar & Restaurant,Family-friendly,"MHXJ+627, Diani Beach Road",-4.3020073,39.5797943
Naz Restaurant,East African,Diani Beach,-4.3570971,39.5590882
Beach Restaurant,Restaurant,MH27+VW6,-4.3478321,39.5647674
Mojos,Restaurant,"Galu, Beach Road Opposite Neptune, Inside ArtGarden",-4.3602308,39.5579731
Treepalace,Fusion restaurant,Diani Beach Road,-4.3650191,39.5572412
Ocean Avenue,Western,"PH3J+GXV At Bazaar Shopping Centre, Ukunda, Diani Beach Road",-4.2962649,39.5823356
Leonardo's Restaurant,Restaurant,"Colliers Centre, Diani Complex, Ukunda, Diani Beach Road",-4.287741,39.586991
La Gusta Diani Kenya,Seafood,Diani Beach Road,-4.2956682,39.5863934
Diani Restaurant,Restaurant,"Opposite Arusha House, PH78+H52, Ukunda-Ramisi Road",-4.2861237,39.5654043
DiAniS fINeST Hangout,Grill,Beach Road,-4.2877618,39.5666781
Karafuu restaurant,Restaurant,Beach Rd Ukunda/South,-4.2818586,39.5673506
Bethelia Swahili Restaurant Ukunda,Restaurant,Ukunda-Ramisi Rd,-4.2773036,39.567994
Apero,Restaurant,Next to Chandarana Diani Beach Road,-4.307464,39.5776496
The Salty Squid Beach Bar & Restaurant,Restaurant,Diani Beach Road,-4.3508543,39.5634812
The African Pot Restaurant-Diani,African,Diani Beach Road,-4.2848312,39.5730449
Anchor,Restaurant,Kivulini Beach,-4.3024707,39.5829746
Nomad Beach Bar & Restaurant,Restaurant,Diani Beach Road,-4.3270404,39.5727094
Swahili Pot Restaurant,Restaurant,Ukunda road Diani,-4.2848283,39.5729674
Sails Beach Bar & Restaurant,Restaurant,"Almanara Luxury Villas, Ukunda, Diani Beach Road",-4.35258,39.5629943
Rock Starz Village,Restaurant,"Ukunde - Diani Beach Road, Ukunda, Rd",-4.2859973,39.576973
Coolwave Restaurant Diani,Restaurant,"Mbarak Building, Beach Road, Diani Beach, Kwale County",-4.2868311,39.5774718
Tsunami Garden Cafe,Restaurant,Ukunda-Ramisi Rd,-4.2914896,39.5643435
Al Yasmin Swahili Dishes,Restaurant,,-4.2822449,39.5685039
Uteo's Restaurant,Restaurant,PH99+CPQ,-4.281431,39.5693609
Eddie's Longue,Restaurant,"PH98+4R3, Ukunda-Ramisi Rd",-4.2822358,39.5670345
Miami Bar & Restaurant,Restaurant,"Mosque Markaz, Diani, Ukunda-Ramisi Rd",-4.2759215,39.5683144
Mvureni Beach Bar and Restaurant,African,"Diani, Galu Beach - Ukunda",-4.3588192,39.5622333
Ali Barbour's Cave Restaurant,Restaurant,Ali Barbour's Cave Restaurant Ground N/A Beach Road,-4.313006,39.576826
Coast Dishes Restaurant,Halal,"PH6J+CQV, Diani, Diani Beach Rd",-4.288884,39.5819304
Rongai Annex Bar & Restaurant,Restaurant,"PHC9+V45, Ukunda-Ramisi Rd",-4.2778639,39.5678621
Panorama Restaurant,African,"Siku Njema Plaza, Ukunda-Ramisi Rd",-4.2871706,39.5659235
Funky Monkey Cocktail Bar & Restaurant,Restaurant,Diani Beach Road,-4.3064472,39.5785532
Amani Angani Rooftop Restaurant,Restaurant,Amani Luxury Apartments,-4.3409104,39.5599859
Madina Restaurant,Restaurant,,-4.2843134,39.566509
Ristorante Pizzeria Da Aniello,Italian,Diani Beach Road,-4.2888971,39.5865089
Tribearth,Vegan,Diani Beach Road,-4.2947873,39.5834921
Ambari Dishes Diani,Restaurant,"by the Kongo, North end of Diani Beach, river estuary",-4.2879617,39.5652842
Baba's Burgers,Hamburger,PH8C+H5P,-4.2835942,39.5705911
Shashin-ka,Japanese,MHVH+377,-4.3073379,39.5781716
Asha Bistro,Restaurant,,-4.308492,39.5808522
Havana Bar,Restaurant,Diani Beach Road,-4.3079972,39.5772399
Milly's Bar & Restaurant,Family-friendly,"MHXJ+627, Diani Beach Road",-4.3020073,39.5797943
002 EATS AND GRILL RESTAURANT,Restaurant,"Kona ya musa, off lungalunga rd",-4.3050295,39.5549692
Qua Bruce Bar and Restaurant,Restaurant,diani beach road,-4.2893447,39.5862111
Sizzlers Steak House and Pub,Restaurant,Diani Beach Road,-4.296366,39.5825372
Noura suites Diani,Restaurant,,-4.2852739,39.5750866
J. J Bar & Restaurant,Restaurant,"PH27+G75, Near Dola Depot, Off Ukunda-Ramisi Road, Ukunda-Ramisi Rd",-4.2987306,39.5632468
Hollywood Speiserestaurant,Western,"PH78+79C, Ukunda-Ramisi Rd",-4.2867816,39.5659057
The Octave Bar,Grill,Diani,-4.2968111,39.5823204
Chale point fisherman RESTAURANT,Seafood,1008,-4.2879617,39.5652842
LA TERRASSE RESTAURANT DIANI BEACH,Restaurant,Diani Beach Road,-4.3035997,39.5797021
Kibanda Restaurant Diani,Barbecue,Diani Beach Road,-4.2951991,39.5835529
Coast dishes,Restaurant,PH68+R39,-4.2879586,39.5652384
Tropical Restaurant,Restaurant,MHW3+5MX,-4.3045078,39.5542421
D'ja Vu,Restaurant,"PH57+JQV, Ukunda-Ramisi Rd",-4.290885,39.5644231
Meat Palace,Restaurant,"PH98+MJ2, Ukunda-Ramisi Rd",-4.2808602,39.5665222
Mum's Choice Restaurant,Restaurant,"PHC8+2PQ, Next To Mombasa Maize Millers Depot, Ukunda-Ramisi Rd",-4.2799017,39.566848
The K Korean Restaurant,Korean,Diani Beach Road,-4.3066786,39.5784791
Faultys Beach Bar and Restaurant,Barbecue,,-4.3131683,39.5778748
The Lions Cage Bar & Restaurant,Grill,"PHF8+3X3, Ukunda-Ramisi Rd",-4.2773647,39.5674173
Chill Spot,Restaurant,,-4.3000374,39.5844083
Kokkos Cafe And Bistro,Coffee shop,Diani Beach Road,-4.3075144,39.5780952
"New Dodoma bar, club & restaurant",Restaurant,PH88+58G,-4.2845501,39.5658196
Carneval Rooftop Lounge & Restaurant,Restaurant,PH3J+FX,-4.2959593,39.5821108
Elites Pub & Restaurant,Restaurant,"PH8C+C95, Diani, Off Diani Beach Road",-4.2839866,39.5709886
Shan - E - Punjab Bar & Restaurant,Restaurant,"Ukunda, Diani Beach Road",-4.2786436,39.5906867
GERMANIC MUG RESTAURANT AND BAR DIANI,Grill,Bazaar Shopping centre next to full moon club Diani,-4.2968372,39.5823213
Diamond Park,African,,-4.2975757,39.5590088
MODE FISH BUCKET,Fish restaurant,diani beach road,-4.2824483,39.5686307
Rockys Pub,Restaurant,,-4.2859375,39.5753125
Bandarini beach bar and restaurant,Restaurant,PH2P+G2,-4.298688,39.585002
Java House - Diani,Restaurant,"Center Point Building, Diani Beach Rd",-4.290694,39.585444
Husna Dishes Diani Restaurant,Restaurant,"PH2J+HQ3, Diani Beach Road",-4.2986246,39.5819274
Blooming,Restaurant,Diani Beach Road,-4.2991245,39.5812345
Jolly Pizzeria,Italian,"Shree Grocery entrance, Diani Beach Road",-4.3087403,39.5770885
Amigos Beach Bar And Restaurant,Restaurant,MHGF+MP2,-4.3233705,39.5742667
House of Woodfired,Pizza,Diani Airstrip Road,-4.3000989,39.5756242
Sol Sure√±o Restaurant & Sports Bar Diani,Restaurant,MHRG+MV Soko Complex,-4.3083534,39.5771671
Black and White Swahili Dishes,Restaurant,PH98+JFM,-4.280918,39.5661723
shangazi dishes,Fast Food,MHX5+FP8,-4.3013329,39.5593226
Rainbow Restaurant,Restaurant,Ukunda-Ramisi Rd,-4.2871489,39.5656705
Chiken Republic Joint,Chicken,"Shop No. 48, Sacramento Shopping Centre, Diani, Ukunda-Ramisi Rd",-4.277411,39.5681237
Hangover Cafe,Restaurant,Diani Beach Road,-4.2938369,39.584273
Estuary Beach Restaurant & Bar,Restaurant,Kongo River,-4.259715,39.5977255
Rockstarz Gardens,Restaurant,MGGW+652,-4.3244858,39.5453756
Casamia Diani Beach,Restaurant,"4.312746, 39",-4.3115357,39.5753774
AFRICANA FRESH SEA FOOD RESTAURANT,Seafood,PHMX+59,-4.2670649,39.5984297
Pizza Inn Gate Mall,Pizza,"The Gate Mall, Ukunda-Ramisi Rd",-4.280781,39.5660258
Victorious Restaurant,Restaurant,"PH78+9HM, Behind Arusha Building, Ukunda-Ramisi Rd",-4.2865299,39.5664282
Nana Delifest,Restaurant,"Noura Suits, Ground Floor Diani Beach Road",-4.2851473,39.5747507
House of Woodfired,Pizza Takeout,Diani Beach Road,-4.2987444,39.5814617
Barharini,Restaurant,"PH4Q+J3V, Swahili Beach Resort, Ukunda, Diani Beach Road",-4.2933802,39.5876737
Ukunda canteen,Rice restaurant,corner beach,-4.2818559,39.5667963
Moiz Swahili Dishes,Restaurant,DIANI PALM ROAD,-4.2893431,39.5830264
Fins Beach Bar & Grill,Grill,Diani Beach Road,-4.2795595,39.5940757
Mwaepe Fisherman Beach Restaurant,Restaurant,Diani Beach Road,-4.3429506,39.5658303
PI Steaks,Restaurant,Ukunda-Ramisi Rd,-4.3096292,39.5530355
Coco Bongo Diani,Restaurant,"PHFR+JR4, Ukunda, Diani Beach Road",-4.2759375,39.5920625
Chicken Inn Gate Mall Ukunda,Chicken,"The Gate Mall, Ukunda-Ramisi Rd",-4.2807281,39.5658731
SPEEDY'S BISTRO ~ DIANI,Restaurant,,-4.3040033,39.5820739
Sundowner Bar & Restaurant,Restaurant,"Galu Beach, Galu Kinondo Diani Beach Road",-4.3480923,39.5617854
Colobus Shade,Restaurant,Diani Beach Road,-4.3429201,39.5658522
Sir William‚Äôs Grill Seafood Cafe,Seafood,MH57+2CG,-4.3424466,39.5635719
Rayan Restaurant -Somali,Restaurant,,-4.2879617,39.5652842
Pinewood Beach Resort & Spa,Hotel,,-4.3758348,39.5522602
Ocean Village Club,4-star hotel,"Diani Beach Road, Ukunda, Kenya",-4.3324398,39.569562
Madafoo's Beach Bar & Restaurant,Restaurant,Galu 723,-4.370041,39.5580115
Nokia Cafe,Restaurant,"Next To Fly 540 Offices, Diani Beach Road",-4.2958493,39.581514
Tsunami Swahili Dishes,Restaurant,,-4.2931965,39.5650729
Humwaka Palm Village,Restaurant,Ukunda-Ramisi Rd,-4.2981747,39.5622988
Collins recipe Fast Food Restaurant,Fast Food,Beach Rd,-4.2822731,39.5685513
Pallet Cafe,Restaurant,Diani Beach Road,-4.3731661,39.5561217
Blue Marlin Restaurant,Restaurant,Diani Beach Road,-4.3503517,39.5640088
Millennium Park Lodges -Hotel,Restaurant,MHX5+MG3,-4.3008729,39.5588064
Brazuca sports pub,Grill,PH68+R39,-4.2879586,39.5652384
Creamy Inn Gate Mall,Dessert shop,"The Gate Mall, Ukunda-Ramisi Rd",-4.2807569,39.5660096
Cape Of Good Hope Bar & Restaurant,Restaurant,"PH6J+8X8, Diani",-4.2892244,39.5824625
Leopold Bar & Restaurant,Grill,"PH2J+JF6, At Diani Shopping Centre, Ukunda, Diani Beach Road",-4.2984726,39.5811319
Kitamu Cafe,Restaurant,"PH7G+CM8, Diani Road",-4.2864633,39.5766979
Diani Dishes,Restaurant,Diani Beach Road,-4.3060982,39.5564416
Citi cafe & bar,Restaurant,PH47+G85,-4.2937272,39.5633534
Ukunda canteen,Rice restaurant,Ukunda next to ukunda youth polytechnic,-4.3036137,39.5557024
Bandarini Swahili Dishes,Restaurant,"MHWJ+FQ7, Diani Beach Road",-4.3038498,39.5819344
MADINI,Restaurant,Airport Road,-4.3007964,39.5748689
Ukunda canteen,Rice restaurant,Next to Babla secondary school Diani,-4.2646611,39.5693946
Diani - Banda Guest House,2-star hotel,,-4.303652,39.579914
Diani Reef Beach Resort & Spa,5-star hotel,,-4.279223,39.594408
Airbnb diani studio apartment,Bed & breakfast,,-4.2843628,39.5750995
Diani Airbnb Tribe,Travel agency,,-4.3007539,39.5761107
Tausi Diani Beach Airbnb,Holiday apartment rental,Diani Beach Road,-4.3461944,39.5533149
Villa Bea,Villa,Diani Beach Road,-4.2870502,39.5883195
Seaesta Studios Diani,Guest house,,-4.286871,39.5755252
Little Canada Beach House,Hotel,108 Seaviews Diani Beach Rd Lot 12,-4.2980378,39.5842673
Savita House Diani,Guest house,,-4.298843,39.5778385
JamboHaven BnB,Vacation home rental agency,"Diani beach road ,near palm beach hospital diani kenya",-4.2830371,39.5736818
Watano beach house,Hotel,,-4.2994413,39.5843719
"Studio,1,2,3 Airbnb's in Diani",Vacation home rental agency,Diani Link Rd,-4.2859314,39.5752114
Safina Cottages,3-star hotel,,-4.3083826,39.574437
Eden Escapes Kenya,Villa,"Diani Block, 1795",-4.341852,39.5652186
Eve‚Äôs Airbnb,Holiday apartment rental,PH7J+MWW,-4.2857162,39.582424
Villa Shaanti,Hotel,,-4.2966014,39.5778284
"Diani Wonder Apartments (5,000/=)",Hotel,,-4.287317,39.5829922
The Darad House,Hotel,,-4.2799989,39.5773979
Marula House on the Beach,Holiday home,Diani beach road,-4.374571,39.5551922
Mami Wata,Villa,,-4.3310563,39.5643572
Villa Green Paradise,Villa,Off Diani Beach Road,-4.3180551,39.569608
Villa Milele,Villa,"Behind Diani Beach Shopping Centre, Diani Beach Road",-4.2966774,39.578139
The African Art Loft,Holiday apartment rental,"MHWH+7G5, Diani Beach Road",-4.3043536,39.5788735
Frangipani Cottages,4-star hotel,,-4.3031267,39.5777195
108 Sea Views Diani Beach,Housing development,Diani Beach Road,-4.2971133,39.5824143
Salaam Green Homestays,Holiday home,MGJV+QC,-4.317797,39.5436794
Ahana Villa,Holiday home,Diani Beach Road,-4.3394773,39.5677057
Villa Mandhari Diani Beach,Hotel,,-4.3263698,39.5621082
Boma Banda Diani,Cottage rental,,-4.3054548,39.579237
EH - Diani,Villa,"MHM9+3MJ, Unnamed Road",-4.3172874,39.5691432
Casa grande Diani,Bed & breakfast,Diani beach road,-4.3030655,39.5742377
"Dolphin House, Galu Beach",Hotel,Diani Beach Road,-4.3571117,39.5610087
Villa Kapungu,Hotel,Diani Beach Road,-4.3212177,39.5713816
Saffron Villas,Hotel,,-4.3135024,39.5759322
Kenyaways Beach Bed & Breakfast,3-star hotel,,-4.3508613,39.5635787
Diani Cottages,Hotel,,-4.3086572,39.5778481
Three Monkeys House,Villa,MH97+FG5,-4.3313509,39.5638629
Amani Luxury Apartments,4-star hotel,,-4.3409079,39.5599643
Monkey Suites,Villa,,-4.3172033,39.5753582
Flametree Beach Homes,3-star hotel,,-4.2977695,39.5786766
Diani - Banda Guest House,2-star hotel,,-4.3036522,39.579914
Pumzika Villa Diani Beach,Self-catering accommodation,Unnamed Road,-4.2969815,39.5776262
Diani Beach Park Kite Villas,Villa,,-4.3732576,39.5546513
Penthouse 1,Holiday home,"Galu, Diani Beach Road",-4.3641736,39.5579939
CS Gisimba Villas,4-star hotel,,-4.3594722,39.5581855
Villa Mashariki - Diani Beach,Holiday home,"Coconut Grove I, Road",-4.3577569,39.5585094
Villa Ndoto,Holiday home,MHHC+H63,-4.3213347,39.5701037
Diani Beach,Beach,,-4.2797626,39.5946958
Fiorella Beach House,Serviced accommodation,,-4.2965385,39.5833337
Diani Beach Haven,Holiday home,Diani Beach Road,-4.3422966,39.5645052
Maua Beach House,Villa,JHW6+6P6,-4.3544623,39.5617554
Baobab Beach Resort & Spa,4-star hotel,,-4.3366306,39.56805
Footprints House,4-star hotel,,-4.3022948,39.5811185
Bonde Cottage,Cottage,"Diani Beach Road,",-4.2871172,39.5910237
Our Hobbit Home,Serviced accommodation,Coconut Grove II,-4.3572975,39.5562519
Bayana House,Holiday home,Diani Beach Road,-4.2629066,39.5953353
Casa Hera,Bed & breakfast,,-4.2731205,39.5895515
Diani Paradise Villas,Villa,,-4.2946059,39.579947
Panorama Grand Villa,Villa,PH2H+V4H,-4.297513,39.5778089
Candys Appartments,Homestay,"PH8F+M7Q, Diani Beach Hospital Rd",-4.2832969,39.5732214
Dadida's Pool Cottage,Bed & breakfast,,-4.2968185,39.5783903
Diani Beach Villas Cottages,3-star hotel,,-4.3141165,39.5689152
Villa P&P,Bed & breakfast,,-4.3279487,39.5715614
Pendo Villas Diani,2-star hotel,,-4.299223,39.57338
Barizieum Nest Villas,Holiday apartment rental,PHJV+6H,-4.269472,39.593948
Kivulini Beach Villa & Cottages,Resort hotel,,-4.3030334,39.582382
Halisi Villa - Diani Accommodation,Short term apartment rental agency,,-4.3263672,39.5644953
Baharini Holiday Apartments,Holiday apartment,"MHVG+9G4, Off Diani Beach Road",-4.3066244,39.5763359
Villa Kalista,3-star hotel,,-4.3943527,39.547747
MainaParadise,Vacation home rental agency,PH8C+WP2,-4.2827342,39.5717722
The Hidden Gem | Diani,Serviced apartment,"blue swallow hotel, Diani Beach Road",-4.2861254,39.5759701
Nomad Beach Resort,5-star hotel,,-4.3279096,39.5716651
Manola Beach House,Hotel,"The Address, Diani Beach Road",-4.2970883,39.5842496
Malaika Villas,Cottage,,-4.34925,39.556834
Tausi Diani Beach Airbnb,Holiday apartment rental,Diani Beach Road,-4.3461944,39.5533149
Airbnb diani studio apartment,Bed & breakfast,,-4.2843628,39.5750995
Villa Kasuku,Bed & breakfast,,-4.3612649,39.5557761
Maua Beach House,Villa,JHW6+6P6,-4.3544623,39.5617554
Marula House on the Beach,Holiday home,Diani beach road,-4.374571,39.5551922
Casa El Norte,Holiday home,Box 5860,-4.3710814,39.5572934
Malaika Villas,Cottage,,-4.34925,39.556834
Eden Escapes Kenya,Villa,"Diani Block, 1795",-4.341852,39.5652186
"Dolphin House, Galu Beach",Hotel,Diani Beach Road,-4.3571117,39.5610087
Monkey Beach House,4-star hotel,,-4.3537412,39.5624584
CS Gisimba Villas,4-star hotel,,-4.3594722,39.5581855
Galu Ecolodge - Diani Beach Kenya,Hotel,,-4.3696712,39.5560424
Diani Beach Park Kite Villas,Villa,,-4.3732576,39.5546513
Diani Airbnb Tribe,Travel agency,,-4.3007539,39.5761107
AirBnB Calabash Homes,Motel,,-4.029174,39.6899265
Galu Tulivu,3-star hotel,,-4.3720115,39.550715
"Lantana Galu - Hotel in Diani, South Coast Kenya",4-star hotel,,-4.3640977,39.5577424
Galu Gardens Apartments,Holiday apartment rental,,-4.3661441,39.554943
Tequila sunrise,Bed & breakfast,,-4.343068,39.5657393
Watano beach house,Hotel,,-4.2994413,39.5843719
Amani Luxury Apartments,4-star hotel,,-4.3409079,39.5599643
Three Monkeys House,Villa,MH97+FG5,-4.3313509,39.5638629
Villa Kapungu,Hotel,Diani Beach Road,-4.3212177,39.5713816
Villa Bea,Villa,Diani Beach Road,-4.2870502,39.5883195
Mami Wata,Villa,,-4.3310563,39.5643572
Tamani at Galu Beach,Villa,"Opposite Galu Inn Hotel, Near Public Beach Access Road, Galu Beach - Ukunda, Diani Beach Road",-4.3531562,39.5604326
Little Canada Beach House,Hotel,108 Seaviews Diani Beach Rd Lot 12,-4.2980378,39.5842673
The √âtui at Tishala House,Hotel,,-4.3421875,39.5565625
Kenyaways Beach Bed & Breakfast,3-star hotel,,-4.3508613,39.5635787
Galu Inn,3-star hotel,,-4.352838,39.5603751
Villa Milele,Villa,"Behind Diani Beach Shopping Centre, Diani Beach Road",-4.2966774,39.578139
River Sunset Luxury Villas,Holiday apartment,PHRR+45Q,-4.2596701,39.5904774
Savita House Diani,Guest house,,-4.298843,39.5778385
Bayana House,Holiday home,Diani Beach Road,-4.2629066,39.5953353
Frangipani Cottages,4-star hotel,,-4.3031267,39.5777195
Seaesta Studios Diani,Guest house,,-4.286871,39.5755252
Penthouse 1,Holiday home,"Galu, Diani Beach Road",-4.3641736,39.5579939
Aestus Villas Resort,3-star hotel,,-4.3640667,39.5563055
"Diani Wonder Apartments (5,000/=)",Hotel,,-4.287317,39.5829922
108 Sea Views Diani Beach,Housing development,Diani Beach Road,-4.2971133,39.5824143
"Studio,1,2,3 Airbnb's in Diani",Vacation home rental agency,Diani Link Rd,-4.2859314,39.5752114
Galu Kinondo Beach,Beach,,-4.3566509,39.5633699
The Darad House,Hotel,,-4.2799989,39.5773979
Galu Beach Kenya,Playground,JHQ6+5R,-4.362104,39.562042
EH - Diani,Villa,"MHM9+3MJ, Unnamed Road",-4.3172874,39.5691432
The African Art Loft,Holiday apartment rental,"MHWH+7G5, Diani Beach Road",-4.3043536,39.5788735
airbnb Lovely and airy 2 bedroom unit in Nyali,Hotel,,-4.0341832,39.7086468
Monkey Suites,Villa,,-4.3172033,39.5753582
Barizieum Nest Villas,Holiday apartment rental,PHJV+6H,-4.269472,39.593948
Our Hobbit Home,Serviced accommodation,Coconut Grove II,-4.3572975,39.5562519
Diani Beach Haven,Holiday home,Diani Beach Road,-4.3422966,39.5645052
Pumzika Villa Diani Beach,Self-catering accommodation,Unnamed Road,-4.2969815,39.5776262
Galu Beach Retreat,3-star hotel,,-4.2991695,39.5814765
Villa Green Paradise,Villa,Off Diani Beach Road,-4.3180551,39.569608
Jus Airbnb,Holiday home,12 Poor Street,-4.0380589,39.71226
Ahana Villa,Holiday home,Diani Beach Road,-4.3394773,39.5677057
Nature‚Äôs Villa,Villa,MH33+RX,-4.3454107,39.5550395
Casa grande Diani,Bed & breakfast,Diani beach road,-4.3030655,39.5742377
Heavenly Gardens,Hospitality and tourism school,off Diani Beach Road,-4.3562932,39.5581286
JamboHaven BnB,Vacation home rental agency,"Diani beach road ,near palm beach hospital diani kenya",-4.2830371,39.5736818
JamboHaven BnB,Vacation home rental agency,"Diani beach road ,near palm beach hospital diani kenya",-4.2830371,39.5736818
Tulua House,Hotel,,-4.3535806,39.5620163
Saffron Villas,Hotel,,-4.3135024,39.5759322
Eve‚Äôs Airbnb,Holiday apartment rental,PH7J+MWW,-4.2857162,39.582424
Galu Kinondo Beach House,Hotel,JG2V+VX4,-4.3978571,39.5449625
Diani - Banda Guest House,2-star hotel,,-4.303652,39.579914
Tradewinds Lodge,3-star hotel,,-4.305683,39.580178
Airbnb diani studio apartment,Bed & breakfast,,-4.2843628,39.5750995
Diani Airbnb Tribe,Travel agency,,-4.3007539,39.5761107
"Studio,1,2,3 Airbnb's in Diani",Vacation home rental agency,Diani Link Rd,-4.2859314,39.5752114
"Diani Wonder Apartments (5,000/=)",Hotel,,-4.287317,39.5829922
The Darad House,Hotel,,-4.2799989,39.5773979
Villa Bea,Villa,Diani Beach Road,-4.2870502,39.5883195
Tausi Diani Beach Airbnb,Holiday apartment rental,Diani Beach Road,-4.3461944,39.5533149
Seaesta Studios Diani,Guest house,,-4.286871,39.5755252
AirBnB Calabash Homes,Motel,,-4.029174,39.6899265
MainaParadise,Vacation home rental agency,PH8C+WP2,-4.2827342,39.5717722
Boma Banda Diani,Cottage rental,,-4.3054548,39.579237
Savita House Diani,Guest house,,-4.298843,39.5778385
JamboHaven BnB,Vacation home rental agency,"Diani beach road ,near palm beach hospital diani kenya",-4.2830371,39.5736818
Diani Classic Guest House Limited,Hotel,,-4.2825767,39.5693179
Watano beach house,Hotel,,-4.2994413,39.5843719
Tiwi House,Holiday home,Ukunda-Ramisi Road kIBWAGA,-4.2384072,39.6026079
Eve‚Äôs Airbnb,Holiday apartment rental,PH7J+MWW,-4.2857162,39.582424
