Name,Category,Address,Latitude,Longitude
Manyatta Resort & Disco Lounge,Disco club,,-4.3211133,39.5724927
Shakatak Disco,Disco club,"you r, Near The Diana Sea Lodge, Diana, Diani Beach Road",-4.3180805,39.5734587
Tandoori Baharini lounge,Bar,"Beach Road, Opposite Diana Sea Lodge, Diana",-4.3163252,39.5733401
Coco Bongo Diani,Sports bar,"PHFR+JR4, Ukunda, Diani Beach Road",-4.2759375,39.5920625
The Club Diani,Bar,PHFR+JR4 diani beach,-4.2759897,39.5920747
JohRay'z discotheque and restaurant,Night club,"PG7Q+97M, Diani",-4.2865416,39.5381684
Spice Lounge,Bar,"PHGV+X35, Diani Beach Hospital Rd",-4.2736343,39.5935395
Club Mandingo,Bar,"PH37+V8P, Ukunda-Ramisi Rd",-4.2952996,39.5633383
Full Moon Night Club,Night club,"PH3J+FX Diani Beach, Diani Beach Road",-4.2959594,39.5819899
Terminal 2 Cocktail Bar - Diani Beach,Cocktail bar,Diani Beach Road,-4.2708645,39.594914
Diani Reef Beach Resort & Spa,5-star hotel,,-4.2792229,39.5944083
Club Liquid Diani,Disco club,"PH78+F75, Ukunda-Ramisi Rd",-4.2863601,39.5657398
Blitz Sports Bar & Grill,Night club,Diani Beach Road,-4.3159713,39.5734643
Nomad Beach Bar & Restaurant,Bar,Diani Beach Road,-4.3270404,39.5727094
Casa Buenos Lounge,Night club,White House,-4.2737238,39.593609
DIANI Bazaar,Shopping mall,Diani Beach Road,-4.2967277,39.5823332
The Octave Bar,Grill,Diani,-4.2968111,39.5823204
Palmer Lounge & Restaurant,Bar,Diani Beach PH7H+2W Diani Beach,-4.2874375,39.5798125
Diani Place Fully Furnished Apartments,Apartment building,33 Diani Beach Road,-4.310713,39.5753005
Diani Pearl Luxury Apartments,Holiday apartment rental,"Diani Pearl Diani Beach Road, Behind Baharini Plaza Diani Beach, Kwale County KE",-4.3061181,39.57654
Amani Luxury Apartments,4-star hotel,,-4.3409079,39.5599643
"Bella Seaview, 4x serviced apartments on Diani Beach, Kenya",Serviced accommodation,Diani Beach Road,-4.2971361,39.5824229
Airbnb diani studio apartment,Bed & breakfast,,-4.2843628,39.5750995
Cave Diani Holiday Apartments,Villa,,-4.3033481,39.5707704
BAALI DIANI APARTMENTS,Holiday apartment rental,"PH7H+QPM, Diani Beach",-4.2852028,39.5794518
Rosa Mystica Aparments Diani beach,Holiday apartment rental,Diani beach,-4.3070607,39.5755112
"Diani Wonder Apartments (5,000/=)",Hotel,,-4.287317,39.5829922
Diani Springs Apartments,Apartment complex,"Diani Rd, Off Ole Odume Road",-1.2949773,36.7732699
Galu Gardens Apartments,Holiday apartment rental,,-4.3661441,39.554943
Wayside Beach Apartments,Holiday apartment,Diani Beach Road,-4.304195,39.5802339
Apple Mango Apartments,3-star hotel,,-4.3077555,39.5771937
Diani Beach Gold Apartments,Holiday apartment rental,Diani airstrip road,-4.3001407,39.572883
Baharini Holiday Apartments,Holiday apartment,"MHVG+9G4, Off Diani Beach Road",-4.3066244,39.5763359
Chrystal Baharini Beachfront Studio Suites at Golden Sun Resort,Furnished apartment building,Diani Beach Road,-4.2695666,39.5978437
CORAL BEACH COTTAGES & APARTMENTS,Conference center,Diani Beach Road,-4.2888423,39.5877543
Akiki Apartments & Villa,Holiday apartment,Diani Beach Road,-4.3104601,39.5752824
Ammarville Luxury Villa & Apartments,Bed & breakfast,Diani Beach Road,-4.2632657,39.5931432
leomilo holidays diani,Holiday apartment rental,Beach road,-4.3069823,39.5754986
leomilo holidays diani,Holiday apartment rental,Beach road,-4.3069823,39.5754986
Hibiscus Diani | Self Catering House & Apartments Kenya,3-star hotel,,-4.3496359,39.5586109
DIANI AIRPORT VIEW APARTMENTS,Apartment building,MHXF+W57,-4.3002006,39.5729339
DALLAS APARTMENTS,Apartment building,PH7J+9HV,-4.2865092,39.5814206
Simba Village Apartments,Apartment building,"Ukunda, Diani Beach Road",-4.3044791,39.5789711
Leshan Luxury Villas Diani,Holiday apartment rental,PH4G+V3,-4.2929911,39.5749989
Tandoori Villas And Apartments,Apartment building,"MHMC+HX5, Diani Beach Road",-4.316112,39.5724957
Diani Swed Breeze Apartments,1-star hotel,,-4.2714557,39.5898062
Stockholm apartments Diani,Apartment building,PH7H+QPM,-4.2855492,39.5793041
Diani Paradise Villas,Apartment building,,-4.2946059,39.579947
Frangipani Cottages,4-star hotel,,-4.3031267,39.5777195
Agape Apartments diani,Apartment building,airport street,-4.3019197,39.5657654
Roset Apartments,Apartment building,,-4.3275061,39.5622639
The Nest Apartments,Apartment building,"PH8H+GGV, Unnamed Road",-4.2836309,39.5787872
Coco's Paradise Cottages & Apartments,Apartment building,"Zara house, Diani, Diani Beach Road Kwitu Cottage Road, near",-4.2668652,39.5936758
House,Holiday apartment rental,"Behind Kenya Posta Diani, Diani Beach Road",-4.3015261,39.5750916
Diani Beach South Retreat,Short term apartment rental agency,PH8H+VPC,-4.2828125,39.5793125
Fiorella Beach House,Holiday apartment rental,,-4.2965385,39.5833337
Apartments,Furnished apartment building,Diani Beach Road,-4.3087951,39.5770856
Halisi Villa - Diani Accommodation,Short term apartment rental agency,,-4.3263672,39.5644953
Twiga Apartments,Holiday apartment rental,"MHWH+CPH, Baharini Plaza Tourist Centre Matatu Stop, Ukunda, Diani Beach Road",-4.3039423,39.5793584
V-Szameitat Homes (Diani South Coast-Kenya),Villa,,-4.3087014,39.5792684
Boho Comfort Homes,Short term apartment rental agency,Diani Beach Road,-4.3185329,39.5699245
Jo's Baobab Luxury Apartments,Furnished apartment building,Near Diani Beach Road Google Plus Code: MH44+QWJ Diani Beach,-4.3430625,39.5573125
The Beka Luxury Apartment,Holiday apartment rental,Diani Beach Road,-4.3081283,39.5697381
Fairview apartments,Apartment building,"MHV2+XC7, Unnamed Road",-4.3050877,39.5510599
Tranquil Terrace Cottages Diani,Furnished apartment building,PH6G+84,-4.2891101,39.5753426
Flametree Beach Homes,3-star hotel,,-4.2977695,39.5786766
Enzi furnished apartment diani,Holiday apartment rental,"PHCQ+WWX, Diani Beach Road",-4.2775446,39.5893243
Aqua Resort,Holiday apartment rental,,-4.272937,39.5936968
Nieyela luxury apartments,Apartment building,PH8F+HMQ,-4.2829211,39.5736799
Diani East Apartments,Hotel,,-4.2828218,39.5792666
Morning Star Diani Beach Resort,3-star hotel,,-4.2771883,39.5915103
Oceans Whisper Holiday Apartment in Diani,Holiday apartment rental,Kwitu Cottages Rd,-4.2674114,39.5916283
Mbili Kuwili Studio Apartments - Diani,Diani Beach Road,,-4.3044801,39.5789716
Ndoto Apartment Diani,Apartment building,PH7F+XWX,-4.2850062,39.5748489
Diani Airbnb Tribe,Travel agency,,-4.3007539,39.5761107
"Kimemu Willows Apartments, Diani",Holiday apartment,"PH8G+C9W, Diani Beach Road",-4.2838987,39.5759686
Beach Valley Apartment Diani,Apartment building,"PH3G+G89, Diani Link Rd",-4.2962078,39.5758749
Kizuri Home,Furnished apartment building,"PHGV+878, Diani Beach Hospital Rd",-4.2742045,39.593195
Ali's Plaza,Apartment complex,Diani Beach Road,-4.2776568,39.5912048
Monkey Suites,Villa,,-4.3172033,39.5753582
Darad studio apartment,Serviced accommodation,Rockstarz village,-4.2829569,39.5788741
Little star apartment,Apartment building,PH9G+P56,-4.2810445,39.5755688
Executive studios diani,Apartment building,PHFM+WJW,-4.275145,39.5840698
Diani Prestige Apartments,Apartment building,,-4.2841844,39.5709878
RoseVille,Villa,,-4.2968185,39.5780982
"Jamii Villas, Diani Kenya",Holiday apartment rental,PHFR+V6,-4.2752672,39.5906059
Diani Sea Lodge,4-star hotel,,-4.3180311,39.5753208
Green Village Apartment Diani,Holiday apartment rental,Ukunda Diani,-4.2761993,39.5642433
Bora Apartment,Apartment building,PH8H+MGX,-4.2832643,39.578874
FRESH VIEW DIANI LIVING.,Holiday apartment rental,PH7H+QPM,-4.2848406,39.5801555
Diani Backpackers,2-star hotel,,-4.341119,39.560823
Costa Sur Complex,Apartment complex,"MHVH+78M, Diani Beach Road",-4.3067857,39.5783046
Diani budget homes,Apartment building,,-4.2879617,39.5652842
Lotfa Resort Diani,3-star hotel,,-4.3259762,39.5693391
Bush Telegraph Real Estate,Real estate agency,"Diani Beach Road, Ocean springs",-4.3044818,39.5794025
Real Diani,Real estate rental agency,,-4.4065322,39.4919388
Ronn Apartment,Apartment building,MGVX+V8F,-4.3053018,39.5482958
DIDIZ CONFERENCE APARTMENT UTEO CATERING SERVICES DIANI,Holiday apartment rental,PH99+CPQ,-4.2815537,39.5693364
HAVEN HOMES DIANI,Apartment complex,80401 Diani Beach Road,-4.3087951,39.5770856
Imani Appartments,Apartment building,MHVG+R63,-4.3054926,39.5755456
Tropical breeze apartments,Apartment building,"PH5J+CFC, Unnamed Road",-4.2914283,39.5811311
Diani Apartments,Hotel,,-4.3004754,39.5780446
Leshons Apartments,Apartment building,"PG7Q+97M, Diani",-4.2865416,39.5381684
Eden Place,Apartment rental agency,"PH6J+J9W, Diani, Diani Beach Road",-4.2883841,39.5809423
Diani Luxury Apartments,Apartment building,Diani Luxury behind Selby Resort Juakali Center,0.5987189,35.146795
Rindig Apartment,Apartment building,"PH2F+G3P, Near Ukunda Airstrip, Diani Airstrip Road, Ukunda",-4.2986616,39.5727059
The Sandcastle,Apartment building,Diani Beach Road,-4.2974157,39.5823984
Roisam Diani Retreat,Holiday apartment rental,PH5F+43,-4.2921924,39.5726581
"Doric Cottages Diani, Kenya",3-star hotel,,-4.297959,39.577697
El Mufasa - Luxury Holiday Accommodation,Holiday apartment rental,Diani Beach Road,-4.3042651,39.5790849
Pine Grove Apartments,Apartment complex,MHX2+2QQ,-4.302412,39.5519974
Villa Musa diani beach,Bed & breakfast,108 sea view diani beach,-4.2975557,39.5831337
HOME DIANI,Apartment building,MG6W+WX,-4.3376329,39.5473848
Diani Homes Ltd,Apartment building,Majengo Diani Beach Rd Bazaar Shopping Centre Mvita,-4.2965906,39.5824782
Mawimbi Apartments,Holiday apartment rental,Baharini,-4.307943,39.579375
Seline Apartments LTD,Apartment building,"PHHV+QPW, Diani Beach Road",-4.2706178,39.5934832
Amani Joy Apartment,Apartment building,PH6G+946,-4.2890785,39.5752428
WABO Paradise - Diani,Apartment building,PH8F+WG6,-4.2827001,39.5737717
Villa Ilona,Apartment building,Diani Reef Rd. 177,-4.3217763,39.5616374
Diani Ukunda Holiday Homes,3-star hotel,Ukunda-Ramisi Rd,-4.3137614,39.5530727
Tophic Properties Ltd,Industrial real estate agency,"Rongai Complex, 1st Flr, Beach Road, Diani, South Coast, Dawida Annex, 2nd Flr, Suite #B63, Bata Road, (Opp. ACK St. Peterâ€™s Church), Voi.",-4.2909619,39.5855338
Jacaranda Indian Ocean Beach Resort,4-star hotel,"Jacaranda Indian Ocean Beach Resort Diani, Diani Beach Road",-4.2617618,39.59544
Diani beach Shades,Holiday apartment rental,PH7G+5GP,-4.2873357,39.5760138
Indian Ocean Apartments,Apartment building,PH8C+H5H,-4.2835625,39.5704844
The Beach Villa Diani beach,Holiday apartment rental,PH3P+44,-4.2973106,39.5850924
Eger-Diani Apartments,Apartment complex,,-4.2905943,39.575118
Golden Beach Apartments,Holiday apartment rental,PHHW+V4X,-4.2702726,39.5953619
Golf and Living,Resort hotel,"PH7Q+J3M, Diani Beach Road",-4.2854215,39.5863669
108 Lifestyle & Residences,Apartment complex,,-4.2970918,39.5821822
Alfajiri Villas,Cottage,Majengo Mvita,-4.286725,39.5895927
The Sun,Apartment building,MHXF+JPH,-4.3009341,39.5743744
Kingston apartment,Apartment building,MHV2+X3,-4.3048121,39.5502121
Maisha Matamu Appartments,Apartment rental agency,PHFW+C7Q Diani Beach,-4.2764093,39.5957405
Seacluded Family Villa,Holiday apartment rental,,-4.2772336,39.5884895
Bstan Homes Diani at Blueswallow,Furnished apartment building,,-4.2868396,39.5756094
Diani West Apartments,Apartment building,MHQ3+F7G,-4.3113038,39.5531916
Four shells apartments diani,Holiday apartment,MHWG+77C Diani Airport,-4.30431,39.575639
Chameleon house Diani,Apartment building,PH5H+9C,-4.2915051,39.5785341
Airbnb diani studio apartment,Bed & breakfast,,-4.2843628,39.5750995
Zion Apartments 2,Housing complex,Zion2 - Apartments,-4.2779796,39.5739187
Mpambe Apartments,Apartment complex,1316 ukunda,-4.2884101,39.5733184
Indian Ocean Apartments,Apartment building,PH8C+H5H,-4.2835625,39.5704844
Diani Place Fully Furnished Apartments,Apartment building,33 Diani Beach Road,-4.310713,39.5753005
BAALI DIANI APARTMENTS,Holiday apartment rental,"PH7H+QPM, Diani Beach",-4.2852028,39.5794518
"Bella Seaview, 4x serviced apartments on Diani Beach, Kenya",Serviced accommodation,Diani Beach Road,-4.2971361,39.5824229
Darad Apartments,Homestay,PH9F+7CR,-4.2817626,39.573523
Tawi Apartments,Apartment building,"PH79+HC9, Near Ukunda Secondary School, Ukunda-Ramisi Rd",-4.2860852,39.5686179
Langai Villa,Apartment complex,,-4.3356577,39.5514883
Agape Apartments diani,Apartment building,airport street,-4.3019197,39.5657654
GFC Apartments,Apartment complex,"Kibundani, Ukunda-Ramisi Rd",-4.2923956,39.5585439
Pine Grove Apartments,Apartment complex,MHX2+2QQ,-4.302412,39.5519974
Beach Valley Apartment Diani,Apartment building,"PH3G+G89, Diani Link Rd",-4.2962078,39.5758749
Sunset Apartment Ukunda,Apartment building,"PH78+MRC, Next To St. Joseph's Primary School, Ukunda-Ramisi Rd",-4.2858102,39.5670157
Simba Village Apartments,Apartment building,"Ukunda, Diani Beach Road",-4.3044791,39.5789711
Rindig Apartment,Apartment building,"PH2F+G3P, Near Ukunda Airstrip, Diani Airstrip Road, Ukunda",-4.2986616,39.5727059
Apple Mango Apartments,3-star hotel,,-4.3077555,39.5771937
STEVE'S RESIDENTIAL APARTMENTS,Apartment building,"PHG9+J2J, Ukunda-Ramisi Rd",-4.2734038,39.5675133
CORAL BEACH COTTAGES & APARTMENTS,Conference center,Diani Beach Road,-4.2888423,39.5877543
Diani budget homes,Apartment building,,-4.2879617,39.5652842
Nyakwar Odero apartments,Apartment building,MHV5+3FX,-4.3072725,39.5587417
INSIGHT HAVEN,Apartment building,MHX7+27,-4.3025232,39.5630654
Kepha apartment,Apartment building,PH68+R47,-4.2879617,39.5652842
Ideal Apartments,Apartment building,"PH99+J68, A14",-4.2809661,39.5680796
Tamasha Garden Villas,Apartment building,PH9C+9WP,-4.2815392,39.572314
DALLAS APARTMENTS,Apartment building,PH7J+9HV,-4.2865092,39.5814206
Tranquil Terrace Cottages Diani,Furnished apartment building,PH6G+84,-4.2891101,39.5753426
Alice Maundu home,Apartment complex,MHX6+WW7,-4.3002215,39.5623007
The Nest Apartments,Apartment building,"PH8H+GGV, Unnamed Road",-4.2836309,39.5787872
Stockholm apartments Diani,Apartment building,PH7H+QPM,-4.2855492,39.5793041
Cyrah Apartment,Apartment building,MHG5+X35,-4.3232003,39.5573522
Jam Jam Apartment,Apartment building,"PH26+JPJ, Near Dola Depot, Ukunda-Ramisi Rd",-4.2984162,39.5617734
Tandoori Villas And Apartments,Apartment building,"MHMC+HX5, Diani Beach Road",-4.316112,39.5724957
DIANI AIRPORT VIEW APARTMENTS,Apartment building,MHXF+W57,-4.3002006,39.5729339
Wayside Beach Apartments,Holiday apartment,Diani Beach Road,-4.304195,39.5802339
Ndoto Apartment Diani,Apartment building,PH7F+XWX,-4.2850062,39.5748489
Little star apartment,Apartment building,PH9G+P56,-4.2810445,39.5755688
Savannah Sunset Long Term Homes Diani,Holiday apartment rental,Diani Beach Road,-4.2674454,39.5915686
Fairview apartments,Apartment building,"MHV2+XC7, Unnamed Road",-4.3050877,39.5510599
Leshons Apartments,Apartment building,"PG7Q+97M, Diani",-4.2865416,39.5381684
Orange House,Apartment building,"PHMF+263, Near Gobato Secondary School, Off Ukunda - Ramisi Road, Ukunda",-4.2674753,39.573042
Diani Beach South Retreat,Short term apartment rental agency,PH8H+VPC,-4.2828125,39.5793125
Double A apartment,Apartment building,PH9F+7CR,-4.2817664,39.5735233
T's Apartment,Apartment building,MHQ4+GJW,-4.3111372,39.556578
Coco's Paradise Cottages & Apartments,Apartment building,"Zara house, Diani, Diani Beach Road Kwitu Cottage Road, near",-4.2668652,39.5936758
Jo's Baobab Luxury Apartments,Furnished apartment building,Near Diani Beach Road Google Plus Code: MH44+QWJ Diani Beach,-4.3430625,39.5573125
Hadidah homes,Apartment building,MGHR+RM4,-4.3204809,39.5417156
"Villa UZURI, Diani Beach, Ukunda",Apartment building,"Diani Beach Road, Diani Beach",-4.3333264,39.5565408
Nieyela luxury apartments,Apartment building,PH8F+HMQ,-4.2829211,39.5736799
FBI,Apartment building,MHW5+3C6,-4.3048266,39.5585164
Elyon A Apartments,Apartment complex,"left Last Moran, 1 Ukunda-Ramisi Rd",-4.3091388,39.5545308
Haorora Apptments Diani Beach Ukunda,Apartment rental agency,Diani +254-727438081,-4.2854589,39.574036
Baharini Holiday Apartments,Holiday apartment,"MHVG+9G4, Off Diani Beach Road",-4.3066244,39.5763359
Sun House,Apartment building,MHR5+P2G,-4.3090856,39.5580883
Diani Ukunda Holiday Homes,3-star hotel,,-4.3137614,39.5530727
Mischek's Apartments,Apartment building,PH9F+Q76,-4.2799291,39.5732372
Laban House,Apartment building,MGVX+F68,-4.3065532,39.5495789
"Binnah Apartment -Ukunda Showground next to Kenya National Library Services ,Kwale Branch",Apartment building,PH7C+XC7,-4.2850977,39.5710477
"Ukunda, kenya",Apartment building,"PH97+HX7, Ramisi",-4.2810984,39.5649284
Chrystal Baharini Beachfront Studio Suites at Golden Sun Resort,Furnished apartment building,Diani Beach Road,-4.2695666,39.5978437
Diani Paradise Villas,Apartment building,,-4.2946059,39.579947
HAVEN HOMES DIANI,Apartment complex,80401 Diani Beach Road,-4.3087951,39.5770856
Maisha Matamu Appartments,Apartment rental agency,PHFW+C7Q Diani Beach,-4.2764093,39.5957405
Diani Airbnb Tribe,Travel agency,,-4.3007539,39.5761107
The Ng'ethe Apartment,Apartment complex,MHV4+MQ5,-4.3066868,39.5569255
Bora Apartment,Apartment building,PH8H+MGX,-4.2832643,39.578874
Tornson Agencies,Apartment rental agency,"Siku Njema Plaza, Ukunda-Ramisi Rd",-4.2871515,39.5658846
Kenia,Apartment complex,PH77+VJX,-4.2852729,39.5641079
Costa Sur Complex,Apartment complex,"MHVH+78M, Diani Beach Road",-4.3067857,39.5783046
jojoanca appartments,Apartment building,"PH89+QVR, Diani Link Rd",-4.2830019,39.5696551
SELINE Apartment Building LTD,Apartment building,Beach Rd,-4.309989,39.554629
Apartments,Furnished apartment building,Diani Beach Road,-4.3087951,39.5770856
Sajjo homes Kona musa,Apartment complex,Kona musa,-4.3177827,39.5588473
Kizuri Home,Furnished apartment building,"PHGV+878, Diani Beach Hospital Rd",-4.2742045,39.593195
Pinky Gabbana Residence,Apartment building,"Tukutane, Ukunda-Ramisi Rd",-4.2732328,39.5673126
Melisa,Apartment building,PH68+R47,-4.2879617,39.5652842
HAVEN HOMES DIANI,Apartment complex,,-4.2966158,39.5337278
Caren's Park - Mvindeni,Apartment building,,-4.3147887,39.5438104
K'Shaven,Apartment building,PH7G+5GP,-4.2868887,39.575711
Marco Polo apartments,Apartment building,MHW2+C3P,-4.3039047,39.5502084
Diani Prestige Apartments,Apartment building,,-4.2841844,39.5709878
Imani Appartments,Apartment building,MHVG+R63,-4.3054926,39.5755456
WABO Paradise - Diani,Apartment building,PH8F+WG6,-4.2827001,39.5737717
"PH7C+JCR Ukunda, Kenya",Apartment building,PH7C+JCR,-4.2858875,39.5710156
Ronn Apartment,Apartment building,MGVX+V8F,-4.3053018,39.5482958
The Ark Homes,Apartment building,PH68+R47,-4.2879617,39.5652842
Tropical breeze apartments,Apartment building,"PH5J+CFC, Unnamed Road",-4.2914283,39.5811311
Germano Cottages Garden and Pool,Hotel,,-4.2878614,39.5766889
Executive studios diani,Apartment building,PHFM+WJW,-4.275145,39.5840698
Dolphin residence,Apartment building,MHR4+922,-4.3101941,39.5551859
Lillesand apartments,Apartment building,"Apartments, lillesand soko mpya",-4.3102823,39.5473517
Boma Banda Diani,Cottage rental,,-4.3054548,39.579237
DUBS HOMES AND PROPERTIES LTD,Corporate office,Ukunda-Ramisi Rd,-4.4643125,39.4720625
The Sun,Apartment building,MHXF+JPH,-4.3009341,39.5743744
Kwa governor,Apartment building,PG2X+856,-4.299224,39.5478845
Ali's Plaza,Apartment complex,Diani Beach Road,-4.2776568,39.5912048
King's villa,Apartment building,PH25+W5F,-4.2980024,39.5585452
Tophic Properties Ltd,Industrial real estate agency,"Rongai Complex, 1st Flr, Beach Road, Diani, South Coast, Dawida Annex, 2nd Flr, Suite #B63, Bata Road, (Opp. ACK St. Peterâ€™s Church), Voi.",-4.2909619,39.5855338
Kwa Judge,Apartment building,PHH8+X3,-4.2701089,39.5652379
Mike's House,Apartment complex,MHR5+P2G,-4.3078976,39.5576916
Tango house,Apartment complex,PH5P+Q6F,-4.2889335,39.5853315
Amani Joy Apartment,Apartment building,PH6G+946,-4.2890785,39.5752428
Kedu Ukunda,Holiday apartment rental,PH92+2J,-4.2824155,39.5515482
Eden Place,Apartment rental agency,"PH6J+J9W, Diani, Diani Beach Road",-4.2883841,39.5809423
Joe Palace,Apartment building,PH79+M8X,-4.2857553,39.5683502
Ajab White House apartment,Apartment building,MHM3+3J2,-4.3173641,39.5540106
Bstan Homes Diani at Blueswallow,Furnished apartment building,,-4.2868396,39.5756094
Leon's Eden,Apartment building,579 Diani Road,-4.2879617,39.5652842
Simiyu house,Apartment building,PH65+GW,-4.2887346,39.5597898
Kwa Vero,Apartment building,"PH78+46F, Ukunda-Ramisi Rd",-4.2871838,39.565551
Diani Homes Ltd,Apartment building,Majengo Diani Beach Rd Bazaar Shopping Centre Mvita,-4.2965906,39.5824782
Bezi Valley Appartements,Apartment building,PH3G+X76,-4.2962575,39.5758177
TatjanaðŸ˜Ž,Apartment building,PH6F+5RV,-4.288963,39.5742063
Eger-Diani Apartments,Apartment complex,,-4.2905943,39.575118
Tulivu Suites Diani,Holiday apartment,,-4.2970037,39.5772078
Boga Family Home,Apartment building,PH68+R39,-4.2879586,39.5652384
The Sandcastle,Apartment building,Diani Beach Road,-4.2974157,39.5823984
Anfield Apartments,Apartment building,PH7H+QPG,-4.2844976,39.5785157
kayz Home,Apartment building,PH55+MFC,-4.2908125,39.5586406
Galu Gardens Apartments,Holiday apartment rental,,-4.3661441,39.554943
Paradiso Beach Apartments,Condominium complex,Beach Road 5771,-4.3569255,39.5597929
Galu Salama,Holiday apartment rental,JGMX+7Q,-4.36681,39.5494465
Havillah Bustani Apartments,Holiday apartment rental,MH55+98,-4.3416503,39.5584909
Simulizi Apartments,Hotel,,-4.34444,39.5600948
"Lantana Galu - Hotel in Diani, South Coast Kenya",4-star hotel,,-4.3640977,39.5577424
Hollmann Residence,Apartment building,Hennes-Weisweiler-Allee,-4.3605415,39.5510294
Diani Place Fully Furnished Apartments,Apartment building,33 Diani Beach Road,-4.310713,39.5753005
Galu Suites,Apartment building,,-4.3007539,39.5761107
"Bella Seaview, 4x serviced apartments on Diani Beach, Kenya",Serviced accommodation,Diani Beach Road,-4.2971361,39.5824229
Jo's Baobab Luxury Apartments,Furnished apartment building,Near Diani Beach Road Google Plus Code: MH44+QWJ Diani Beach,-4.3430625,39.5573125
Upani in Diani,4-star hotel,,-4.3635997,39.555716
Diani Luxe Villa,Serviced apartment,"Bougain 1 residence lane 50m, off Diani Beach Road",-4.3560144,39.5587322
Hibiscus Diani | Self Catering House & Apartments Kenya,3-star hotel,,-4.3496359,39.5586109
Villa Black Pearl Diani,Vacation home rental agency,,-4.3572175,39.5573071
Diani Pearl Luxury Apartments,Holiday apartment rental,"Diani Pearl Diani Beach Road, Behind Baharini Plaza Diani Beach, Kwale County KE",-4.3061181,39.57654
"Jade Luxury Apartments, Diani",Homestay,,-4.349332,39.561327
Villa Soleil - Free Wi-Fi,Vacation home rental agency,,-4.3616779,39.5549516
Galu suits,Apartment building,JHQ4+774,-4.3618643,39.5557101
Kwetu Homes & Cottages,Holiday apartment rental,,-4.3458839,39.5615962
Villa Soleil - Free Wi-Fi,Vacation home rental agency,,-4.3616779,39.5549516
"Jade Luxury Apartments, Diani",Homestay,,-4.349332,39.561327
Galu suits,Apartment building,JHQ4+774,-4.3618643,39.5557101
Galu Ecolodge - Diani Beach Kenya,Hotel,,-4.3696712,39.5560424
Kwetu Homes & Cottages,Holiday apartment rental,,-4.3458839,39.5615962
Blue bell Apartments,Lodging,253-80400,-4.3423646,39.5640444
BAALI DIANI APARTMENTS,Holiday apartment rental,"PH7H+QPM, Diani Beach",-4.2852028,39.5794518
Penthouse 1,Holiday home,"Galu, Diani Beach Road",-4.3641736,39.5579939
Diani South Apartments,Apartment building,,-4.356587,39.5562628
Amani Luxury Apartments,4-star hotel,,-4.3409079,39.5599643
Coast to coast Paradise villa,Holiday apartment rental,MH27+XF5,-4.3476011,39.5637206
Waridi Luxury Apartments,Apartment building,"Next To Palm Park Villas, Opposite Lantana Galo Beach Hotel, Galo Beach - Ukunda, Diani Beach Road",-4.3647012,39.5573228
Nyumbani Ya Pili- Guest House,Holiday apartment rental,"JHR4+X27, Unnamed Road",-4.3575765,39.5550403
VILLA LOISITA,Holiday apartment rental,Off Palm road,-4.360917,39.554185
Airbnb diani studio apartment,Bed & breakfast,,-4.2843628,39.5750995
Moringa House,Lodging,,-4.3561359,39.5615206
Lala Galu,Hotel,,-4.3636385,39.5589771
"Al Mahali Villas, Diani Galu Beach, Kenya",Villa,,-4.3641176,39.5596131
crocodile lodge,Holiday apartment rental,JHW3+3J7,-4.3548436,39.5540529
Galu Tulivu,3-star hotel,,-4.3720115,39.550715
Cave Diani Holiday Apartments,Villa,,-4.3033481,39.5707704
Palm House,Apartment complex,"Opposite Galu Inn Hotel, Galu Beach - Ukunda, Diani Beach Road",-4.3525015,39.5606456
Mawimbi,Hotel,,-4.3543142,39.5623752
"Jahazi Beach House, Galu Beach",Villa,,-4.3569717,39.5608808
Mibuyuni site,Holiday apartment rental,3,-4.3606083,39.5512051
Tamani at Galu Beach,Villa,"Opposite Galu Inn Hotel, Near Public Beach Access Road, Galu Beach - Ukunda, Diani Beach Road",-4.3531562,39.5604326
Swahili Afrique Beach House,Holiday apartment rental,Diani Beach Road,-4.3508721,39.5610572
Simba Oryx Beach Cottages,4-star hotel,,-4.3559113,39.5595083
Maua Mazuri @ Ebenezer Apartments Diani Beach,Hotel,MH24+W88,-4.3477004,39.5558231
Shimba Hill apartments,Hotel,JHX5+3CH,-4.3523212,39.558597
Tulua House,Hotel,,-4.3535806,39.5620163
SUNSET VILLA,3-star hotel,,-4.3639092,39.5528144
Apple Mango Apartments,3-star hotel,,-4.3077555,39.5771937
Diani Hideaway Villa,Holiday home,Diani Beach Road,-4.3564652,39.5590533
Malisela cottages,Holiday apartment rental,JHX4+W9F,-4.3501796,39.555919
Seascape Cottage,Holiday apartment rental,"JHX5+PXQ, Diani Beach Road",-4.3506669,39.5599995
Woods Gardens,Apartment building,Diani Beach Road,-4.356932,39.5583426
Waseal Limited,Condominium rental agency,JHR5+323 Blue Water Resort Diani,-4.3598519,39.5575316
Rock Galana Holiday Apartments,Holiday apartment,P.O. Box 5219 Diani Beach,-4.3537147,39.5511286
Mzuri Beach House,4-star hotel,,-4.3539524,39.5624458
Boxo Diani,4-star hotel,,-4.363113,39.5579518
Galu Inn,3-star hotel,,-4.352838,39.5603751
Miwa Diani beach Villa & Single Apartments,Cottage,Diani Beach Road,-4.364372,39.5556545
Agape Apartments diani,Apartment building,airport street,-4.3019197,39.5657654
Almanara Luxury Villas,5-star hotel,,-4.3523521,39.562561
ZumZum Beachhouse,Resort hotel,,-4.3700296,39.5558188
Kusini Beach Cottages,Cottage,,-4.365951,39.558513
Zuri Cottages at Vulcano,Cottage rental,,-4.3447337,39.5618849
Villa Kalista,3-star hotel,,-4.3943527,39.547747
Ocean Village Club,4-star hotel,,-4.3324398,39.569562
The Zubeida,4-star hotel,,-4.345478,39.5648187
Coconut Grove - Diani Beach Villas,Holiday home,Galu Beach - Diani,-4.3579717,39.5589261
Casa El Norte,Holiday home,Box 5860,-4.3710814,39.5572934
Aestus Villas Resort,3-star hotel,,-4.3640667,39.5563055
Villa Kasuku,Bed & breakfast,,-4.3612649,39.5557761
Mzima Beach Diani,Hotel,,-4.3574818,39.5610443
Apartments,Furnished apartment building,Diani Beach Road,-4.3087951,39.5770856
Tichi Villa Diani Beach,Hotel,,-4.3645574,39.5567787
QUEENS CHATEAU BOUTIQUE VILLA,3-star hotel,,-4.3624138,39.5571201
Galawa Beach Apartments,Holiday apartment,"Bahari complex, Diani Beach Road",-4.3075565,39.5782872
Villa Mashariki - Diani Beach,Holiday home,"Coconut Grove I, Road",-4.3577569,39.5585094
Galu Beach Retreat,3-star hotel,,-4.2991695,39.5814765
Gardenia Cottages,Holiday home,Sunset Rd,-4.3507098,39.5567983
TAMONI HOMES,Vacation home rental agency,,-4.3441258,39.5624541
Diani peaceful Garden,Hotel,,-4.3650789,39.5565415
CS Gisimba Villas,4-star hotel,,-4.3594722,39.5581855
Bougain Villa Cottages,Cottage,"Opposite Mzima House, Galu Beach - Ukunda, Diani Beach Road",-4.3560016,39.5581563
Zawama House,Bed & breakfast,Diani Beach Road,-4.3482078,39.5644368
Maua Beach House,Villa,JHW6+6P6,-4.3544623,39.5617554
Tahira Villa,Villa,,-4.3637722,39.5573176
Africa Pearl spa,Hotel,,-4.2776624,39.5907709
Palm Dream Villa,3-star hotel,,-4.3628583,39.554911
Makuti House,Hotel,Kevin Road,-4.3464837,39.5575437
The Ape Escape,Holiday apartment rental,,-4.3581449,39.5609894
Diani Beach Haven,Holiday home,Diani Beach Road,-4.3422966,39.5645052
Estate Sonrisa,Holiday apartment rental,Beach Road,-4.3846405,39.5512978
Blessing holiday homes,Hotel,,-4.3637838,39.5571136
Diani Beach Park Kite Villas,Villa,,-4.3732576,39.5546513
Mango villa,Villa,,-4.361092,39.5536553
Blue Water Villas,Homestay,,-4.3657436,39.5525123
Soul Breeze Beach Resort,3-star hotel,Diani Beach Road,-4.3647999,39.5576134
Four Twenty South,4-star hotel,Off Diani Beach Road,-4.3424372,39.5659339
Cycad Palm Diani,Hotel,,-4.3276645,39.5592411
Maridadi Tulivu,Holiday apartment rental,"Tamani Private Residences, Off Diani Beach Road",-4.3536928,39.5621006
Villa Dora,Hotel,Off Diani Beach Road,-4.362756,39.552819
Palm Park Villas No. 1,Villa,"JHP5+92P, Near Waridi Luxury Apartments, Galo Beach - Ukunda, Diani Beach Road",-4.3640476,39.55759
AFRICAN QUEEN Diani Beach,Hotel,Coconut Grove 1 Ukanda,-4.3573965,39.557731
Neptune Village Beach Resort & Spa,4-star hotel,,-4.3625013,39.5604142
The Shore House Kenya,Villa,MH27+QC,-4.3480096,39.563503
Saffron Villas,Hotel,80400 Ali Barbours Rd,-4.3135024,39.5759322
A Sentimental Villa With a Swimmingpool Near Beach,Hotel,Po box 5415 - 80401 Diani,-4.3641316,39.5573155
firstrose Villa,Villa,,-4.3552373,39.5547156
Diani Beachalets (2003) Ltd,Cottage rental,Diani Beach Road,-4.3455115,39.5643183
Stilts Tree Houses,Hotel,"MHQF+5H7, Opposite Ali Barbours Cave, Off, Diani Beach Road",-4.3120961,39.5739288
Villa Madinina Diani Ltd.,Holiday home,Coconut Grove I,-4.3575161,39.5574061
Seaclusion Diani,4-star hotel,33 Diani Beach Road,-4.310092,39.5749243
Ahana Villa,Holiday home,Diani Beach Road,-4.3394773,39.5677057
Villa Mandhari Diani Beach,Hotel,MHF7+J8,-4.3263698,39.5621082
Garden House Diani,Lodging,,-4.356565,39.5579287
SWAHILI HQ,Apartment building,MH34+M9C,-4.3458185,39.5558972
Diani Reef Beach Resort & Spa,5-star hotel,,-4.279223,39.594408
Jacaranda Indian Ocean Beach Resort,4-star hotel,,-4.261762,39.59544
The Villa Luxury Suites Hotel,4-star hotel,,-4.2872271,39.5847249
Monkey Suites,Villa,,-4.3172033,39.5753582
Taraji SUITES,Holiday apartment,,-4.2965583,39.5775169
Diani Sea Lodge,4-star hotel,,-4.3180311,39.5753208
Diani Reef Beach Resort & Spa,5-star hotel,,-4.2792229,39.5944083
Seaclusion Diani,4-star hotel,,-4.310092,39.5749243
Baobab Beach Resort & Spa,4-star hotel,,-4.3366306,39.56805
Seaesta Studios Diani,Guest house,,-4.286871,39.5755252
Nomad Beach Resort,5-star hotel,,-4.3279096,39.5716651
Diani Pearl Luxury Apartments,Holiday apartment rental,"Diani Pearl Diani Beach Road, Behind Baharini Plaza Diani Beach, Kwale County KE",-4.3061181,39.57654
"Diani Wonder Apartments (5,000/=)",Hotel,,-4.287317,39.5829922
Ocean Village Club,4-star hotel,,-4.3324398,39.569562
Diani Luxe Villa,Serviced apartment,"Bougain 1 residence lane 50m, off Diani Beach Road",-4.3560144,39.5587322
Amani Luxury Apartments,4-star hotel,,-4.3409079,39.5599643
Pendo Villas Diani,2-star hotel,,-4.299223,39.57338
Africa Pearl spa,Hotel,,-4.2776624,39.5907709
Monkey Beach House,4-star hotel,,-4.3537412,39.5624584
Galu Suites,Apartment building,,-4.3007539,39.5761107
Chrystal Baharini Beachfront Studio Suites at Golden Sun Resort,Furnished apartment building,Diani Beach Road,-4.2695666,39.5978437
Amkia Villas Diani,Hotel,,-4.3255995,39.563898
Southern Palms Beach Resort,4-star hotel,,-4.2682637,39.5970049
Papillon Lagoon Reef,3-star hotel,,-4.3332646,39.5672755
Villa Mandhari Diani Beach,Hotel,,-4.3263698,39.5621082
Kivulini Beach Villa & Cottages,Resort hotel,,-4.3030334,39.582382
Swahili Beach Resort,5-star hotel,,-4.292183,39.586675
Jacaranda Indian Ocean Beach Resort,4-star hotel,,-4.2617618,39.59544
Tulivu Suites Diani,Holiday apartment,,-4.2970037,39.5772078
Easy escape @ Noura Suites,Serviced accommodation,Palm Avenue,-4.2852085,39.5747571
Cave Diani Holiday Apartments,Villa,,-4.3033481,39.5707704
PrideInn Hotel Diani,Hotel,,-4.2879887,39.5812613
Diani Paradise Villas,Villa,,-4.2946059,39.579947
"The Afters, Diani - Boutique Hotel",Hotel,,-4.2609641,39.5938994
Chale Island Resort,4-star hotel,,-4.4428343,39.5362363
"Lantana Galu - Hotel in Diani, South Coast Kenya",4-star hotel,,-4.3640977,39.5577424
Lotfa Resort Diani,3-star hotel,,-4.3259762,39.5693391
Diani Beach Luxury Retreat With 5 Bedrooms,Extended stay hotel,,-4.3564154,39.5559025
Prideinn Express Diani,3-star hotel,,-4.2755123,39.5925342
Elewana AfroChic Diani Beach,4-star hotel,,-4.271843,39.597075
Diani Backpackers,2-star hotel,,-4.341119,39.560823
Bahari Dhow Beach Villas,3-star hotel,,-4.271643,39.5945764
Almanara Luxury Villas,5-star hotel,,-4.3523521,39.562561
Diamonds Leisure Beach & Golf Resort,4-star hotel,,-4.281539,39.5924429
"Safari Beach Hotel, Diani",Hotel,,-4.3311551,39.5680296
Southern Cottages resort Diani,3-star hotel,,-4.2667829,39.5919353
Mzima Beach Diani,Hotel,,-4.3574818,39.5610443
The Maji Beach Boutique Hotel,5-star hotel,,-4.2762412,39.5940109
The Zubeida,4-star hotel,,-4.345478,39.5648187
Galu Inn,3-star hotel,,-4.352838,39.5603751
Waterlovers Beach Resort,4-star hotel,,-4.3080734,39.5806263
Tombo House,Hotel,,-4.2755383,39.5889014
Searenity Beach Villa,Villa,,-4.3025647,39.5829882
Kaskazi Beach Resort,4-star hotel,,-4.2935937,39.5863427
Asha Boutique Hotel,Hotel,,-4.3084629,39.5804949
Neptune Village Beach Resort & Spa,4-star hotel,,-4.3625013,39.5604142
Stilts Tree Houses,Hotel,,-4.3120961,39.5739288
Diani Greenland villas,Cottage rental,,-4.2631333,39.5928901
Diani Cottages,Hotel,,-4.3086572,39.5778481
Morning Star Diani Beach Resort,3-star hotel,,-4.2771883,39.5915103
Saffron Villas,Hotel,,-4.3135024,39.5759322
"Dolphin House, Galu Beach",Hotel,Diani Beach Road,-4.3571117,39.5610087
Amani Tiwi Beach Resort,4-star hotel,,-4.2520029,39.5994529
Pinewood Beach Resort & Spa,Hotel,,-4.3758348,39.5522602
Karibu Palms Resort - Diani Beach,Self-catering accommodation,Airstrip road diani beach,-4.303743,39.5777163
Noura suites Diani,Restaurant,,-4.2852739,39.5750866
"Msitu Kwetu (Luxury Villa Estate, Diani Beach)",Villa,,-4.3215385,39.5714759
Upani in Diani,4-star hotel,,-4.3635997,39.555716
Raquel's Bliss Diani,Hotel,,-4.3260119,39.5634811
Kole Kole Hotel,4-star hotel,,-4.3377807,39.5674163
Leopard Beach Resort and Spa,Hotel,,-4.2841087,39.5892313
Gold Sand International Hotel,Hotel,,-4.2702648,39.5954466
Boxo Diani,4-star hotel,,-4.363113,39.5579518
Kenyaways Beach Bed & Breakfast,3-star hotel,,-4.3508613,39.5635787
Eleven Pearl Boutique Hotel & Spa,4-star hotel,,-4.3416889,39.5662658
Blue Marlin Hotel,4-star hotel,,-4.3502467,39.5632992
QUEENS CHATEAU BOUTIQUE VILLA,3-star hotel,,-4.3624138,39.5571201
Ocean Springs Diani Beach,Hotel,"MHWH+6Q6, Diani Beach Road",-4.3044632,39.5794008
Modern South Hotel - Diani,Hotel,,-4.2840344,39.5765545
Niro Beach House-Kusyombunguo Hotels Ltd,2-star hotel,,-4.3029324,39.5798467
Diani Orchard,Hotel,"Diani Orchard, Parcel Number 372, Diani Complex, Mwakamba Estate",-4.267411,39.5908551
Oasis Diani Villas,5-star hotel,,-4.3199944,39.5690765
Diani Swed Breeze Apartments,1-star hotel,,-4.2714557,39.5898062
Havillah Bustani Apartments,Holiday apartment rental,MH55+98,-4.3416503,39.5584909
Diani Breeze Villas,3-star hotel,,-4.3092258,39.5763443
Casa Hera,Bed & breakfast,,-4.2731205,39.5895515
Diani Sea Resort,Hotel,,-4.3068277,39.5797706
Manyatta Resort & Disco Lounge,Disco club,,-4.3211133,39.5724927
Diani Beach Haven,Holiday home,Diani Beach Road,-4.3422966,39.5645052
Cycad Palm Diani,Hotel,,-4.3276645,39.5592411
Soul Breeze Beach Resort,3-star hotel,,-4.3647999,39.5576134
HillPark Tiwi & Amare Resort,4-star hotel,,-4.224201,39.607094
Footprints House,4-star hotel,,-4.3022948,39.5811185
Brightstar Apartments Diani,3-star hotel,,-4.2941591,39.5801236
Neptune Palm Beach Boutique Resort & Spa,Hotel,,-4.3632709,39.5601838
Diani Classic Guest House Limited,Hotel,,-4.2825767,39.5693179
Villa Black Pearl Diani,Vacation home rental agency,,-4.3572175,39.5573071
Lala Galu,Hotel,,-4.3636385,39.5589771
Swahili Beach diani,Hotel,,-4.2921967,39.5864883
Tradewinds Lodge,3-star hotel,,-4.305683,39.5801779
Diana Beach Shades Hotel,Hotel,,-4.2869862,39.5756376
Retro Boutique Hotel,3-star hotel,,-4.2871218,39.5838349
HAVEN HOMES DIANI,Apartment complex,80401 Diani Beach Road,-4.3087951,39.5770856
Shakatak Disco,Disco club,"you r, Near The Diana Sea Lodge, Diana, Diani Beach Road",-4.3180805,39.5734587
Manyatta Resort & Disco Lounge,Disco club,,-4.3211133,39.5724927
Coco Bongo Diani,Sports bar,"PHFR+JR4, Ukunda, Diani Beach Road",-4.2759375,39.5920625
The Club Diani,Bar,PHFR+JR4 diani beach,-4.2759897,39.5920747
JohRay'z discotheque and restaurant,Night club,"PG7Q+97M, Diani",-4.2865416,39.5381684
Tandoori Baharini lounge,Bar,"Beach Road, Opposite Diana Sea Lodge, Diana",-4.3163252,39.5733401
Club Mandingo,Bar,"PH37+V8P, Ukunda-Ramisi Rd",-4.2952996,39.5633383
Ocean Village Club,4-star hotel,,-4.3324398,39.569562
Babe's Liquor Store,Bar,"Galu Kinindo, Diani Beach Road",-4.3480795,39.5617615
Spice Lounge,Bar,"PHGV+X35, Diani Beach Hospital Rd",-4.2736343,39.5935395
Sundowner Bar & Restaurant,Bar,"Galu Beach, Galu Kinondo Diani Beach Road",-4.3480923,39.5617854
The Salty Squid Beach Bar & Restaurant,Bar,Diani Beach Road,-4.3508543,39.5634812
Club Liquid Diani,Disco club,"PH78+F75, Ukunda-Ramisi Rd",-4.2863601,39.5657398
The 41 Beach Club,Restaurant,Diani Beach Road,-4.3150808,39.5761554
Pallet Cafe,Bar,Diani Beach Road,-4.3731661,39.5561217
Seafood Pub And Restaurant,Bar,MH57+2CF,-4.3424284,39.5635453
Nomad Beach Bar & Restaurant,Bar,Diani Beach Road,-4.3270404,39.5727094
Diani Reef Beach Resort & Spa,5-star hotel,,-4.2792229,39.5944083
Sails Beach Bar & Restaurant,Restaurant,"Almanara Luxury Villas, Ukunda, Diani Beach Road",-4.35258,39.5629943
Soul Breeze Beach Resort,3-star hotel,,-4.3647999,39.5576134
Pinewood Beach Resort & Spa,Hotel,,-4.3758348,39.5522602
Neptune Village Beach Resort & Spa,4-star hotel,,-4.3625013,39.5604142
Southern Palms Beach Resort,4-star hotel,,-4.2682637,39.5970049
Blue Marlin Restaurant,Bar,Diani Beach Road,-4.3503517,39.5640088
Galu Beach Kenya,Playground,JHQ6+5R,-4.362104,39.562042
Galu Gardens Apartments,Holiday apartment rental,,-4.3661441,39.554943
Ali Barbour's Cave Restaurant,Restaurant,Ali Barbour's Cave Restaurant Ground N/A Beach Road,-4.313006,39.576826
Sizzlers Steak House and Pub,Restaurant,Diani Beach Road,-4.296366,39.5825372
M&J WINES $SPIRITS,Bar,Along Diani Beach Road,-4.3075095,39.5779027
Full Moon Night Club,Night club,"PH3J+FX Diani Beach, Diani Beach Road",-4.2959594,39.5819899
Treepalace,Bar,Diani Beach Road,-4.3650191,39.5572412
