Name,Category,Address,Latitude,Longitude
Diani Reef Beach Resort & Spa,5-star hotel,,-4.279223,39.594408
Jacaranda Indian Ocean Beach Resort,4-star hotel,,-4.261762,39.59544
Amani Tiwi Beach Resort,4-star hotel,,-4.2520029,39.5994529
HillPark Tiwi & Amare Resort,4-star hotel,,-4.224201,39.607094
Hillpark Hotel Tiwi Beach,Hotel,,-4.2224698,39.6016809
Diamonds Leisure Beach & Golf Resort,4-star hotel,,-4.281539,39.592443
Jacaranda Indian Ocean Beach Resort,4-star hotel,,-4.261762,39.59544
Sawa Sawa Beach House,4-star hotel,,-4.4764258,39.4873034
YU Resort,4-star hotel,,-4.4770925,39.4850871
Chale Island Resort,4-star hotel,,-4.4428343,39.5362363
Swahili Beach Resort,5-star hotel,,-4.292183,39.586675
Nomad Beach Resort,5-star hotel,,-4.3279096,39.5716651
Baobab Beach Resort & Spa,4-star hotel,,-4.3366306,39.56805
The Maji Beach Boutique Hotel,5-star hotel,,-4.2762412,39.5940109
Asha Boutique Hotel,Hotel,,-4.3084629,39.5804949
Mbuyu Beach Bungalows,Resort hotel,,-4.4742106,39.4891839
Neptune Village Beach Resort & Spa,4-star hotel,,-4.3625013,39.5604142
Galu Ecolodge - Diani Beach Kenya,Hotel,,-4.3696712,39.5560424
Msambweni Beach House and Private Villas,Hotel,,-4.5079856,39.4693597
Tulia Eco Garden,Hotel,,-4.3124264,39.5178807
Lala Galu,Hotel,,-4.3636385,39.5589771
"Lantana Galu - Hotel in Diani, South Coast Kenya",4-star hotel,,-4.3640977,39.5577424
Villa Mandhari Diani Beach,Hotel,,-4.3263698,39.5621082
"Safari Beach Hotel, Diani",Hotel,,-4.3311551,39.5680296
Eleven Pearl Boutique Hotel & Spa,4-star hotel,,-4.3416889,39.5662658
Stilts Tree Houses,Hotel,,-4.3120961,39.5739288
Sonnie Guest House,3-star hotel,,-4.3193697,39.5662117
Mwazaro Beach Lodge,3-star hotel,,-4.5973719,39.3928249
Villa Mandhari Diani Beach,Hotel,,-4.3263698,39.5621082
Neptune Paradise Beach Resort & Spa,4-star hotel,,-4.361214,39.5606776
SUNSET VILLA,3-star hotel,,-4.3639092,39.5528144
Amkia Villas Diani,Hotel,,-4.3255995,39.563898
Oasis Diani Villas,5-star hotel,,-4.3199944,39.5690765
Lotfa Resort Diani,3-star hotel,,-4.3259762,39.5693391
PrideInn Hotel Diani,Hotel,,-4.2879887,39.5812613
Blue Water Villas,Homestay,,-4.3657436,39.5525123
African Dream Cottages - Diani Beach,Cottage,,-4.3109888,39.5730919
Diani Beach Villas Cottages,3-star hotel,,-4.3141165,39.5689152
Diani Backpackers,2-star hotel,,-4.341119,39.560823
Mzima Beach Diani,Hotel,,-4.3574818,39.5610443
Upani in Diani,4-star hotel,,-4.3635997,39.555716
Morning Star Diani Beach Resort,3-star hotel,,-4.2771883,39.5915103
Papillon Lagoon Reef,3-star hotel,,-4.3332646,39.5672755
Seaclusion Diani,4-star hotel,,-4.310092,39.5749243
Kijani Cottages,Lodge,,-4.3392761,39.5598505
Kinondo Poa Beach Resort,3-star hotel,,-4.3900625,39.5483125
Boxo Diani,4-star hotel,,-4.363113,39.5579518
Diani Sea Lodge,4-star hotel,,-4.3180311,39.5753208
Soul Breeze Beach Resort,3-star hotel,,-4.3647999,39.5576134
Galu Inn,3-star hotel,,-4.352838,39.5603751
Marikeka Hotel,Hotel,,-4.3495683,39.5567091
Flamboyant Diani,4-star hotel,,-4.3134098,39.5777863
Diani Beach Luxury Retreat With 5 Bedrooms,Extended stay hotel,,-4.3564154,39.5559025
Serena Beach Resort & Spa,5-star hotel,,-3.9730636,39.7507238
Coco-De-Ville Beach Holiday Home,3-star hotel,,-4.3550739,39.5586483
Hibiscus Diani | Self Catering House & Apartments Kenya,3-star hotel,,-4.3496359,39.5586109
Blessing holiday homes,Hotel,,-4.3637838,39.5571136
Almanara Luxury Villas,5-star hotel,,-4.3523521,39.562561
Kaskazi Beach House,Resort hotel,,-4.5001878,39.4715091
QUEENS CHATEAU BOUTIQUE VILLA,3-star hotel,,-4.3624138,39.5571201
Zuhri Villas - Diani,Villa,,-4.3871719,39.5475911
Zuri Tulivu Resort & Restaurant,Bed & breakfast,,-4.3697676,39.5554915
Manyatta Resort & Apartments,Resort hotel,,-4.3279487,39.5715614
Raquel's Bliss Diani,Hotel,,-4.3260119,39.5634811
Cycad Palm Diani,Hotel,,-4.3276645,39.5592411
Bamburi Beach Hotel,3-star hotel,,-3.9907806,39.7363036
Bora Bora Luxury Tented Camp,,,-4.354223,39.55995
Ocean Village Club,4-star hotel,,-4.3324398,39.569562
Wells Villa Hotel,Hotel,,-3.9965558,39.7324865
Titanic hotel msambweni,Lodging,,-4.4597107,39.478219
Allamanda Boutique Hostel,Hostel,,-4.3501091,39.5585913
Diani Hostel,1-star hotel,,-4.3371025,39.5542596
The Zubeida,4-star hotel,,-4.345478,39.5648187
Severin Sea Lodge,4-star hotel,,-3.9867697,39.7394552
Kaya Imani,Wellness hotel,,-4.5028125,39.4710625
Lovely 5-bed Room House With a Swimming Pool,Extended stay hotel,,-4.3294,39.56574
Kiloran Funzi House,Hotel,,-4.5711467,39.4371966
Swahili Beach Apartments,Hotel,,-4.0307318,39.7188845
Armaan Shopping Complex,Guest house,,-4.316064,39.5733988
Maweni Beach Cottages,Hotel,,-4.096879,39.64629
"CityBlue Creekside Hotel & Suites, Mombasa",4-star hotel,,-4.0426316,39.6750853
Sai Rock Beach Hotel & Spa,3-star hotel,,-3.9999811,39.7303219
Mombasa Beach Hotel,3-star hotel,,-4.0320562,39.7178888
ZumZum Beachhouse,Resort hotel,,-4.3700296,39.5558188
Milele Beach Hotel,3-star hotel,,-4.0069353,39.7251122
Language Point Cottages,Cottage rental,,-4.3547266,39.5404698
Midview Hotel-Nyali,Hotel,,-4.033374,39.716677
Oasys House,Homestay,,-4.47615,39.4875679
Ocean View Nyali Boutique Hotel,2-star hotel,,-4.024068,39.724158
msambweni Beaches,Hotel,,-4.4652898,39.481266
Kole Kole Hotel,4-star hotel,,-4.3377807,39.5674163
Cingaki Hotel,Hotel,,-4.0065357,39.6255401
Pinewood Beach Resort & Spa,Hotel,,-4.3758348,39.5522602
Kinondo Kwetu,Hotel,,-4.389153,39.5491409
Neptune Palm Beach Boutique Resort & Spa,Hotel,,-4.3632709,39.5601838
CHELSEA BLUES HOTEL,Hotel,,-2.2767667,37.8153296
Diani Marine Divers Village,4-star hotel,,-4.3122353,39.5773735
"Al Mahali Villas, Diani Galu Beach, Kenya",Villa,,-4.3641176,39.5596131
Blue Marlin Hotel,4-star hotel,,-4.3502467,39.5632992
Mango villa,Villa,,-4.361092,39.5536553
Villa Kalista,3-star hotel,,-4.3943527,39.547747
Monkey Beach House,4-star hotel,,-4.3537412,39.5624584
Saffron Villas,Hotel,,-4.3135024,39.5759322
Msambweni Private Villa 1,4-star hotel,,-4.507856,39.469553
Kitu Kidogo House,Villa,,-4.3132438,39.5760078
Simba Oryx Beach Cottages,4-star hotel,,-4.3559113,39.5595083
The Cove Retreat,3-star hotel,,-4.4058192,39.5452767
Zana Villas,Villa,,-4.3252855,39.5645594
"Msitu Kwetu (Luxury Villa Estate, Diani Beach)",Villa,,-4.3215385,39.5714759
Funzi Cove Ecolodge,3-star hotel,,-4.569233,39.4372057
Shimba Lodge,3-star hotel,,-4.192497,39.4254849
LaSpaDiani,4-star hotel,,-4.3223241,39.5621214
Aestus Villas Resort,3-star hotel,,-4.3640667,39.5563055
Msambweni Private Villa II,Hotel,,-4.508541,39.469521
Lazy Days,Villa,,-4.3437555,39.5646202
African Huts,Resort hotel,,-4.3245041,39.5648913
Monkey Suites,Villa,,-4.3172033,39.5753582
Forest Dream Cottages (Resort),Cottage,,-4.334975,39.56158
Amani Luxury Apartments,4-star hotel,,-4.3409079,39.5599643
"Almond Ridge, Diani",Serviced accommodation,,-4.3880288,39.5423853
CS Gisimba Villas,4-star hotel,,-4.3594722,39.5581855
Sheba Cottages,Hotel,,-4.3751532,39.5463229
Munje Beach Villas,Serviced accommodation,,-4.5243071,39.4645868
Villa Soleil - Free Wi-Fi,Vacation home rental agency,,-4.3616779,39.5549516
Four Twenty South,4-star hotel,,-4.3424372,39.5659339
Kenyaways Beach Bed & Breakfast,3-star hotel,,-4.3508613,39.5635787
The Shore House Kenya,Villa,,-4.3480096,39.563503
Miftah Stores,Grocery store,"Bomani, Msambweni, Ukunda-Ramisi Rd",-4.4619731,39.4758872
Mpakani Maskani Shop,Grocery store,"Msambweni, Mwaembe, Ukunda-Ramisi Rd",-4.4771134,39.4824489
Chandarana Foodplus,Supermarket,Ukunda Diani Beach rd baharini Plaza,-4.3077406,39.5772739
Migingi Shop,Grocery store,"Msambweni, Mwaembe, Ukunda-Ramisi Rd",-4.4761745,39.4825357
Nguji Shop,Grocery store,"Bomani, Msambweni, Ukunda-Ramisi Rd",-4.4619244,39.476022
Shamsia Dairy & Grocery,Grocery store,"Next, Filling Station, Bomani, Msambweni, Bomani, Ukunda-Ramisi Rd",-4.4610031,39.4765416
Vijimambo,Grocery store,"Msambweni, Milalani, Ukunda-Ramisi Rd",-4.4747165,39.4604488
Mama Asha Shop,General store,"GFGM+MPR, Msambweni - Mwaembe Road, Msambweni, Sawa Sawa",-4.4732568,39.4842711
"Naivas Supermarket- Diani, Ukunda",Supermarket,"The Gate Mall, Ukunda-Ramisi Rd",-4.2807655,39.5661889
Msambweni Kisite General Shop,General store,"GFFJ+7X7, Msambweni - Mwaembe Road, Msambweni, Kisite",-4.4768419,39.4824139
Msambweni,Grocery store,JH2F+FQ2,-3.3988648,38.5744025
"Carrefour Market, Diani",Grocery store,"Centre Point Mall, Diani Beach Road",-4.2906226,39.5852151
Msambweni Stores,General store,"Next To Msambweni District Hospital, Msambweni Mwaemre Road, Msambweni, Ukunda-Ramisi Rd",-4.4796649,39.4808726
Msambweni Pasca Cooking Gas And Accessories kilishop,Gas shop,,-4.4628801,39.4742384
Msambweni Sea Foods,Seafood,"GFG6+935, At Milalani Shopping Centre, Off Ukunda - Ramisi Road, Msambweni",-4.4741179,39.4602426
Shree Green Grocers supermarket,Supermarket,Diani Beach Road,-4.3084945,39.576772
Obamas Shop,General store,"Stall 4, Msambweni Mwab, Msambweni",-4.4809409,39.4811114
Samrat Supermarket,Grocery store,,-4.2822732,39.5678901
MAMA SHANTEL SHOP,Shopping mall,GFPF+MG,-4.4632303,39.4738097
Mwananchi Shop,Food store,"GFCJ+49J, Next To Msambweni District Hospital, Off Msambweni Mwaemre Road, Msambweni",-4.4796567,39.4808882
Waterside Villa,Self-catering accommodation,"QJF4+6M3, Tiwi Beach, road",-4.2269895,39.6066565
Swahili House,4-star hotel,,-4.2380144,39.6028292
Alfajiri Villas,Cottage,,-4.286725,39.5895927
Villa Tiwi,Hotel,"QH3V+R7W, Off Ramisi Road",-4.2453888,39.5931879
Sand Island Beach Cottages,Cottage,Majengo Tiwi beach Tiwi,-4.2513978,39.5979758
Tiwi House,Holiday home,Ukunda-Ramisi Road kIBWAGA,-4.2384072,39.6026079
Tiwi Baobab House,Villa,"QJ32+CC6, Next to Bellezza Cottages, Tiwi Beach",-4.2459984,39.6015442
Ocean Villa,Housing complex,"QJF4+CW9, Road",-4.2264209,39.6072806
Kivulini Beach Villa & Cottages,Resort hotel,,-4.3030334,39.582382
HillPark Tiwi & Amare Resort,4-star hotel,,-4.224201,39.607094
Searenity Beach Villa,Villa,,-4.3025647,39.5829882
Bahari Dhow Beach Villas,3-star hotel,,-4.271643,39.5945764
The Villa Luxury Suites Hotel,4-star hotel,,-4.2872271,39.5847249
Villa Bea,Villa,Diani Beach Road,-4.2870502,39.5883195
Amani Tiwi Beach Resort,4-star hotel,,-4.2520029,39.5994529
Villa Mandhari Diani Beach,Resort hotel,,-4.3263698,39.5621082
"Msitu Kwetu (Luxury Villa Estate, Diani Beach)",Villa,,-4.3215385,39.5714759
V-Szameitat Homes (Diani South Coast-Kenya),Villa,,-4.3087014,39.5792684
"Al Mahali Villas, Diani Galu Beach, Kenya",Villa,,-4.3641176,39.5596131
Tahira Villa,Villa,,-4.3637722,39.5573176
Tichi Villa Diani Beach,Resort hotel,,-4.3645574,39.5567787
Wembley Villa Diani Beach,Villa,,-4.2662855,39.59343
Kusini Beach Cottages,Cottage,,-4.365951,39.558513
Muone Villas And Cottages,Hotel,"QH2X+5W4, Tiwi Beach, South Coast,",-4.2496229,39.599814
Tausi Holiday Villas,Lodge,,-4.2659195,39.5918978
Villa Sultanas Diani,Villa,,-4.303086,39.5740381
Oasis Diani Villas,5-star hotel,,-4.3199944,39.5690765
Golden Duranta Villas,Villa,,-4.2940341,39.5773277
Diani Paradise Villas,Villa,,-4.2946059,39.579947
Villa Verde,Villa,,-4.3202256,39.5665167
Sandarusi House,Holiday apartment rental,QJH5+2FP,-4.2433163,39.6014068
Amkia Villas Diani,Villa,,-4.3255995,39.563898
Almanara Luxury Villas,5-star hotel,,-4.3523521,39.562561
KIVULI VILLAS,Holiday home,"PALM PARK, 1 Diani Beach Road",-4.364041,39.5568548
Ammarville Luxury Villa & Apartments,Villa,Diani Beach Road,-4.2632657,39.5931432
Tiwani Cottages,4-star hotel,,-4.2408239,39.5974086
Villa Becky Diani,Villa,,-4.3070578,39.5755112
Msambweni Beach House and Private Villas,Hotel,,-4.5079856,39.4693597
milamax beach villa,Cottage rental,,-4.2719261,39.5967125
Villa Omara,Villa,PHQW+83G,-4.2616989,39.595202
ZUMARIDI LUXURY VILLAS,Villa,PH9H+H8W,-4.2804959,39.5788434
The Zubeida,4-star hotel,,-4.345478,39.5648187
Sand Island Beach Cottage,Hotel,,-4.2224133,39.608714
SUNSET VILLA,3-star hotel,,-4.3639092,39.5528144
Safina Cottages,3-star hotel,,-4.3083826,39.574437
Auregi villas,Vacation home rental agency,Kwitu Cottages Rd,-4.2710312,39.590459
Villa Tulivu,Homestay,Diani Beach Road,-4.3190146,39.5660541
Backdoor Villa,Villa,,-4.2651316,39.5935486
Hillpark Hotel Tiwi Beach,Hotel,,-4.2224698,39.6016809
Pendo Villas Diani,2-star hotel,,-4.299223,39.57338
Villa jahawi,Villa,Diani Beach Road,-4.2901976,39.5839872
"Tawi Villas, Diani",Holiday apartment rental,MHG8+CR,-4.323998,39.5668631
Miwa Diani beach Villa & Single Apartments,Villa,Diani Beach Road,-4.364372,39.5556545
Villa E'mocean,Villa,PHRV+6V3,-4.2594794,39.5946654
Villa SeaRender,Villa,Diani Beach Road,-4.267027,39.5953139
Zana Villas,Villa,,-4.3252855,39.5645594
Grace Villa,Hotel,,-4.261018,39.596384
Diani Beach Park Kite Villas,Villa,,-4.3732576,39.5546513
Kenya Charming Villas,Villa,,-4.2629574,39.5953307
Saffron Villas,Hotel,,-4.3135024,39.5759322
Diani Greenland villas,Cottage rental,,-4.2631333,39.5928901
Keringet Luxury Tent,Self-catering accommodation,1 Tiwi Beach Rd,-4.2263357,39.6066153
Maskani Villa,Villa,,-4.2843931,39.585129
Sea Breeze Villas Diani,Villa,,-4.2996516,39.5736726
Kitu Kidogo House,Villa,,-4.3132438,39.5760078
Waterlovers Beach Resort,4-star hotel,,-4.3080734,39.5806263
Villa Njoroge,Resort hotel,"PHHV+896, Diani, Beach Rd",-4.2717054,39.593398
Villa Milele,Villa,"Behind Diani Beach Shopping Centre, Diani Beach Road",-4.2966774,39.578139
Seaside Villa One Ltd.,Villa,,-4.3530995,39.5606294
Villa Shaanti,Hotel,,-4.2966014,39.5778284
African Pool Map Natural,Tourist attraction,,-4.234987,39.6054896
Maisha Marefu,Cabin rental agency,,-4.2647982,39.5950391
Baobahari Tiwi,Housing development,Plot 374,-4.2433,39.6025395
Diani Breeze Villas,3-star hotel,,-4.3092258,39.5763443
Maweni Villa,Villa,,-4.299864,39.5723333
Diani Cottages,Hotel,,-4.3086572,39.5778481
Haki Villas,Villa,,-4.3255334,39.5624964
Elewana AfroChic Diani Beach,4-star hotel,,-4.271843,39.597075
Cheka Villa,Villa,"PHPV+HVM, Diani Beach Road",-4.263537,39.594677
Monkey Suites,Villa,,-4.3172033,39.5753582
glory oceanvillas diani,Villa,,-4.3031269,39.5772573
Masai Paradise Cottages,Villa,,-4.3507901,39.5608516
"Casa Di Mia Luxury Villa, Beach Road",Villa,,-4.2633251,39.5946011
Eurika Villas Diani,Hotel,MHHC+H63,-4.3211183,39.5705359
Amani at Diani,Villa,,-4.3007539,39.5761107
Golf and Living,Resort hotel,,-4.2854215,39.5863669
Swahili Beach Resort,5-star hotel,,-4.292183,39.586675
Inshallah Kenya,Villa,MHJG+RH,-4.3178851,39.5764593
"Bella Seaview, 4x serviced apartments on Diani Beach, Kenya",Villa,Diani Beach Road,-4.2971361,39.5824229
Glaso Villas Diani,Villa,,-4.2989714,39.5732808
Villa Kapungu,Hotel,Diani Beach Road,-4.3212177,39.5713816
Jandi Diani,Villa,,-4.2957734,39.5807754
Ruffoni Villa,Hotel,MHWH+F9W,-4.3037739,39.5784516
Villa Lindenhof,Villa,Beach Road,-4.3142551,39.5684745
Watano beach house,Hotel,,-4.2994413,39.5843719
Panorama Grand Villa,Villa,PH2H+V4H,-4.297513,39.5778089
Kenda Villas,3-star hotel,,-4.2829404,39.5902516
Cave Diani Holiday Apartments,Villa,,-4.3033481,39.5707704
Diani Backpackers,2-star hotel,,-4.341119,39.560823
Tranquil Villa,Hotel,,-4.2797626,39.5946958
Kivulini Bahari Villas,Hotel,Tudor,-4.061847,39.686696
LaSpaDiani,4-star hotel,,-4.3223241,39.5621214
Qua Bruce Villas,3-star hotel,,-4.3080718,39.5776636
Villa Mirinalek,Villa,Anthony Sorgic Po. b o x 5128,-4.3180361,39.5647157
Mkelekele House,Hotel,,-4.243797,39.600954
Swahili Oasis,Villa,,-4.2973125,39.5788732
Diani Marine_5*PADI Scuba diving school & ACCOMMODATION,Hotel,Diani Beach Road,-4.3122814,39.5771779
Ringo Golden Villa,Villa,QH3R+8F,-4.2466624,39.5912477
Rosis palm house,Villa,PH68+R47,-4.2879617,39.5652842
Twiga Lodge,4-star hotel,,-4.2404172,39.6026818
Manyatta Villas and Apartments,3-star hotel,,-4.3211803,39.5724086
Ocean Village Club,4-star hotel,,-4.3324398,39.569562
Villa Office,Real estate rental agency,"Darling, Ukunda, Ukunda-Ramisi Rd",-4.2671089,39.5693074
Rafiki Villaz,Villa,Diani Beach Road,-4.2849268,39.5850352
Tulia Eco Garden,Hotel,,-4.3124264,39.5178807
Diani Marine Divers Village,4-star hotel,,-4.3122353,39.5773735
Leopard Beach Resort and Spa,Hotel,,-4.2841087,39.5892313
Shamba La Salama,Villa,,-4.38334,39.551688
Sky B&B by Keya Homestays,Hotel,Diani Beach Road,-4.3087951,39.5770856
Villa Usawa,Villa,PHQV+GW6,-4.2611148,39.5947615
"Kenya Luxury Villa Beachfront in Msambweni, AC, 3BDRS, Infinity pool",,,-4.4775801,39.4823799
Msambweni Beach House and Private Villas - Villa with Sea View,,,-4.5080199,39.4693108
"Villa m. Pool, Tropischen Garten & ca 7 Minuten zum Herrlichen Weißen Sandstrand",,,-4.4697351,39.4816551
Kaskazi Beach house,Villa,,-4.47649,39.4622002
"Villa m. Pool, Tropischen Garten  ca 7 Minuten zum Herrlichen Weißen Sandstrand",,,-4.4697299,39.4816513
Amani Paradise - Luxury Villas,Villa,,-4.3610401,39.5552711
Private villa in Lamu style with private pool and cook/ staff 250 m to the beach,Villa,,-4.3287382,39.5683556
Saffron Villas,Villa,,-4.3134298,39.5764694
10 minutes to the beach! Villa Sultanas Luxury Villa with private swimming pool,Villa,,-4.3238988,39.5709305
ZANA DIANI VILLAS. LUXURIOUS 2 BEDROOM VILLA 10 MIN FROM THE BEACH,Villa,,-4.325942,39.5646095
ZANA DIANI VILLAS. LUXURIOUS 3 BEDROOM PRIVATE VILLA 10 min from the beach,Villa,,-4.3260012,39.5645752
3 Bedroom Luxury Villa-Sita in Diani,Villa,,-4.3878798,39.5421104
New beautiful villa in great location only 2 minutes to exotic white sandy beach,Villa,,-4.3542991,39.5599327
Tahira Villa - Villa with Private Pool,Villa,,-4.36378,39.5573082
Black Pearl - Luxury Villa with private pool - near beach,,,-4.3573699,39.55756
5 Bedroom Luxury Villa In Diani,,,-4.34339,39.5613899
Villas Dora and Holly,Villa,,-4.36273,39.5531693
Al Mahali Villas Diani Beach,Villa,,-4.3642702,39.5603905
Malaika Holiday Villas,Villa,,-4.3492699,39.5568199
Villa Black Pearl,,,-4.3572021,39.557312
"Luxury Private Villas in Diani Beach, Mombasa Kenya",,,-4.326005,39.5632133
"Artistic Dreamscape 4br Villa Diani Beach, 5 minutes walk to the white beach",,,-4.3489318,39.5617142
"The Ultimate Villa in an Ideal Location, Kwale County Villa 1000",,,-4.3629298,39.5525513
"South Fork Diani, 3 bedroom with pool.",,,-4.3418665,39.5571823
Grand Amber Villas Diani,,,-4.3562889,39.5583229
BLUE WATER VILLAS,,,-4.3658409,39.5525093
Marabi Luxury Villa,,,-4.350872,39.561058
Diani Beach | Kenya | Luxury Swahili Beach Villas at Lantana Galu Beach,,,-4.3647299,39.5598984
Villa Black Pearl,,,-4.3572021,39.557312
3 Bedroom Luxurious Villa in Diani,,,-4.3881898,39.5422058
3-bedroom villa in enchanting Diani Beach with AC,,,-4.3286018,39.5697937
Amber Villas Diani,Villa,,-4.35707,39.5591698
Oasis Diani Beach Villas - Two-Bedroom Villa,,,-4.3200998,39.5690384
Oasis Villas- Diani Beach -5 mins walk to the Beach!,Villa,,-4.3198299,39.5719109
"Villa LeoMar: Exclusive vacation home with pool & garden, 350 m from the beach",Villa,,-4.3564572,39.5566673
Your wild villa escape near the Diani beach! The Heart of Serenity.,,,-4.3251829,39.5642052
Villa Dora,Villa,,-4.362359,39.5531006
Lovely 4-Bed Villa Family oriented or a smallgroup,Villa,,-4.35605,39.5591087
"Villa Kwako. For Privacy & safely. Tastefully-furnished, for family or group.",Villa,,-4.3526101,39.5587006
Beautiful paradise,,,-4.3670001,39.5569992
"Villa LeoMar with large private pool, tropical garden only 350 m from the beach",Villa,,-4.3564501,39.5566597
Villa LeoMar Diani Beach,Villa,,-4.3566799,39.556591
Grand Amber Villa,,,-4.3565922,39.5579376
Premium 6-bedroom villa in the World Famous Diani/Galu Beach in Kenya.,,,-4.356154,39.5614929
Diani Beachalets,,,-4.3460398,39.5646286
"Villa Kwako. For Privacy  safely. Tastefully-furnished, for family or group.",Villa,,-4.3526101,39.5586891
Marvelous 2 bedroom villa with AC in Diani,,,-4.320435,39.5664711
Villa SeaRender Deluxe Villa,,,-4.3217449,39.5625877
Galu Ecolodge - Diani Beach,Villa,,-4.37012,39.55793
Villa Lamuhouse Diani Beach,Villa,,-4.3216,39.571209
Coastal Bliss Diani Villa with private pool and Private Beach Acess,,,-4.3537688,39.5601463
Kivuli Villas Diani-3 Bedrooms,Villa,,-4.3088002,39.5770912
Peaceful Hideaway Cottage Pool/Barbecue/Aircon,,,-4.3623309,39.5532379
Almond Ridge - Villa Mfalme (Deluxe),,,-4.388063,39.542202
Queens Chateau Boutique Villa,,,-4.3201098,39.5763092
Almond Ridge - Villa Sita,Villa,,-4.3878846,39.5421143
Peaceful Hideaway Cottage Pool\/Barbecue\/Aircon,,,-4.36233,39.5532303
Paradise Awaits,Villa,,-4.3167,39.5724716
Sublime Villa 4BR 2 mins 2 beach,,,-4.3086982,39.5778008
Lazy Days,,,-4.3429942,39.5634918
Luxury villa with 2 bedrooms,,,-4.3221192,39.5744095
Villa Dora and Holly,,,-4.3627629,39.5529594
Greenfield Villa D- Diani,,,-4.3323398,39.5662994
La maison,Villa,,-4.3497701,39.5565414
Two Bedroomed Villa set in the pristine Galu Beach area of Diani,,,-4.3727608,39.5498123
Stay happy at Raz Homes,,,-4.3107071,39.5753136
"4 bedroom villa with a kitchen - Economy Double Room, Balcony, Garden View",,,-4.3639898,39.5568886
3 Bed Villa - Sleeps 6 - Wifi - Parking,,,-4.3640599,39.5573883
Coral Villas Cottage - One-Bedroom Chalet,Villa,,-4.3364301,39.5569305
Micmoll paradise vla,,,-4.36904,39.559269
2-bedroom villa 8min walk to the beach,,,-4.3204899,39.5669937
4 bedroom villa with a kitchen,,,-4.363996,39.5568924
Charming and Remarkable 1 Bed Villa in Diani Beach,,,-4.3442602,39.5627098
Serene 3 bed villa in the garden,,,-4.3225098,39.5836487
1 Bed Villa - Sleeps 2 - Pool - Smoking - Parking,,,-4.36413,39.5573692
Honeydream Villa  Studio Apartments,,,-4.3436999,39.5613289
1 Bed Villa - Sleeps 2 - Smoking - Parking - Wifi,Villa,,-4.36414,39.5573502
Airdunia Villa,,,-4.3509202,39.5603218
Magnificent Beachfront House with Private Pool in Tropical Gardens,Villa,,-4.46246,39.4744682
"Villa with pool, stunning sea views, a private chef and staff",Villa,,-4.4819999,39.4803696
"Villa with pool, stunning sea views, with own chef and staff on request",Villa,,-4.482007,39.4803772
Munje Beach Villas,,,-4.5235901,39.464489
Aestus Villas Resort,Villa,,-4.3642702,39.5560799
Villa Kalista Luxury Villas,Villa,,-4.3941498,39.5478706
‘NEW’ - Villa Zahra - Beach Front Villa,Villa,,-4.37361,39.5564384
5-Bedroom luxury Waterfalls Villa,,,-4.3509102,39.5579491
Diani Villa,Villa,,-4.3577256,39.5578537
"Luxurious Diani Beach Villa with 4 Bedrooms & Private Pool, Family-Friendly",,,-4.3531771,39.5606575
Luxury Holiday Villa - Private Chef - Pool - A\/C (partly),,,-4.3577299,39.5587502
Amani Paradise - Luxurious Seven bedroom villa,,,-4.3299699,39.5683784
Kokowa Villas,,,-4.36448,39.5546303
"Villa Waterfalls, Diani, Kenya",,,-4.3555102,39.5536919
"Marula House 4BD Villa, Diani Beach",,,-4.3744459,39.5550842
Diani Beach Luxury 3Br Swahili Villa,,,-4.36449,39.5583382
ZANA DIANI VILLAS,Villa,,-4.32583,39.5643082
Kwetu Villa Cottages,,,-4.3566065,39.5560684
4 U Luxury Bungalows Diani,Villa,,-4.35953,39.5519409
Kwetu Luxury Villas Diani,,,-4.34659,39.561409
Zuhri Villas Diani,,,-4.3871498,39.5476418
Blue Waters Villas,Villa,,-4.3640285,39.5531654
Tichi Villa- Private Villa in Diani Beach- 3 Minutes to the beach,,,-4.3663101,39.5570602
Villa Ndoto,Villa,,-4.32197,39.5722694
"Elna's Haven Villa Diani - Lush  Private with Swimming Pool, Wifi and Games",Villa,,-4.3206601,39.5693016
5-bedroom Villa - 3 Mins Walk To The Beach,,,-4.3645401,39.5569191
Spectacular Manola House – Beach 2 Min Walk,,,-4.3087802,39.5770416
"Monkey Beach House, Beachfront, Ocean Views,  Shared Pool, Staff Provided",Villa,,-4.3538299,39.5626602
Shirazi Bay,,,-4.5268402,39.4263496
Shamba La Salama,,,-4.3820591,39.5502052
Tichi Villa- Five Bedroom Villa in Diani Beach,,,-4.3647299,39.5568008
Luxury Holiday Villa - Private Chef - Pool - A/C (partly),,,-4.3577342,39.5587502
"Diani Hideaway Beach Villa, private pool, air conditioning and WiFi",Villa,,-4.3564401,39.5591888
Villa Holly partially air conditioned cottages 1,,,-4.38696,39.5484085
Villa in Diani with a Private Pool,,,-4.3504219,39.5611916
Diani Hideaway Beach Villa,Villa,,-4.3564358,39.5591888
Villa Loisita; 2 Bedroom with Loft  Swimming Pool,,,-4.3606901,39.5542183
Villa Loisita Cottage with 6 Beds  Swimming Pool,,,-4.3597898,39.5539207
Seaside Villa 1  Seaside Villa 2 at 'Tamani',Villa,,-4.3530998,39.5606003
4 U villas,,,-4.4476614,39.4746208
Esidai Villa,,,-4.3498302,39.5614319
Sealavie Blue Water,,,-4.3657832,39.552475
"Carrefour Market, Diani",Grocery store,"Centre Point Mall, Diani Beach Road",-4.2906226,39.5852151
Shree Green Grocers supermarket,Supermarket,Diani Beach Road,-4.3084945,39.576772
Chandarana Foodplus,Supermarket,Ukunda Diani Beach rd baharini Plaza,-4.3077406,39.5772739
Suzana's fruit shop,Grocery store,MH57+2CG,-4.3424348,39.5635915
"Naivas Supermarket- Diani, Ukunda",Supermarket,"The Gate Mall, Ukunda-Ramisi Rd",-4.2807655,39.5661889
Victoria shop,Grocery store,Diani Beach Road,-4.3572318,39.5587716
Muthaiga Mini Market,Supermarket,Diani Beach Road,-4.2993203,39.5807412
Diani Beach Shopping Centre,Shopping mall,Diani Beach Road,-4.2992317,39.5808005
Samrat Supermarket,Grocery store,,-4.2822732,39.5678901
Kikkis chillspot,Grocery store,132 Diani Beach Road,-4.3489284,39.5616903
Diamonds Leisure Beach & Golf Resort,4-star hotel,,-4.281539,39.592443
Jacaranda Indian Ocean Beach Resort,4-star hotel,,-4.261762,39.59544
HillPark Tiwi & Amare Resort,4-star hotel,,-4.224201,39.607094
Amani Tiwi Beach Resort,4-star hotel,,-4.2520029,39.5994529
Coconut Beach Lodge,4-star hotel,,-4.2481045,39.6009515
Twiga Lodge Restaurant,Restaurant,QJ53+V66,-4.2403499,39.6030087
Estuary Beach Restaurant & Bar,Restaurant,Kongo River,-4.259715,39.5977255
Faultys Beach Bar and Restaurant,Barbecue,,-4.3131683,39.5778748
Swahili House,4-star hotel,,-4.2380144,39.6028292
Kongo Pirates Beach Restaurant,Seafood,PHVX+289,-4.2576928,39.598248
Hillpark Hotel Tiwi Beach,Hotel,,-4.2224698,39.6016809
New Kingston Restaurant,Restaurant,"QH6F+FXW, Near Kenya Bixa, Ukunda-Ramisi Rd",-4.2387609,39.5749553
Sand Island Beach Cottages,Cottage,Majengo Tiwi beach Tiwi,-4.2513978,39.5979758
Double Fifteen Restaurant,Mexican,bahari dhow,-4.2714525,39.5941827
Uteo's Restaurant,Restaurant,PH99+CPQ,-4.281431,39.5693609
Nomad Beach Bar & Restaurant,Restaurant,Diani Beach Road,-4.3270404,39.5727094
Sandarusi House,Holiday apartment rental,QJH5+2FP,-4.2433163,39.6014068
Diani Reef Beach Resort & Spa,5-star hotel,,-4.2792229,39.5944083
Kombani Dishes,Restaurant,,-4.1979035,39.5902511
Club swiss,Barbecue,Likoni-Ukunda Rd,-4.2075867,39.5852882
The Oasis Beach Bar & Restaurant,Restaurant,Diani Beach Road,-4.2725476,39.5972643
Tangezi Seafood Restaurant,Seafood,MH69+MF5 Baobab Beach Resort & Spa,-4.3383526,39.568736
Oasis Sea Food,Restaurant,"QH5G+42F, Opposite Gorofani Butchery, Off Ukunda-Ramisi Road, Tiwi - Ukunda",-4.2421849,39.575048
AFRICANA FRESH SEA FOOD RESTAURANT,Seafood,PHMX+59,-4.2670649,39.5984297
Coolwave Restaurant Diani,Restaurant,"Mbarak Building, Beach Road, Diani Beach, Kwale County",-4.2868311,39.5774718
Bethelia Swahili Restaurant Ukunda,Restaurant,Ukunda-Ramisi Rd,-4.2773036,39.567994
Jacaranda Indian Ocean Beach Resort,4-star hotel,,-4.2617618,39.59544
Barharini,Restaurant,"PH4Q+J3V, Swahili Beach Resort, Ukunda, Diani Beach Road",-4.2933802,39.5876737
Bahari Dhow Beach Villas,3-star hotel,,-4.271643,39.5945764
The Salty Squid Beach Bar & Restaurant,Restaurant,Diani Beach Road,-4.3508543,39.5634812
Tiwi lounge & Gardens,Bar,MP6Q+J9Q,-1.3384166,36.7384834
Qua Bruce Bar and Restaurant,Restaurant,diani beach road,-4.2893447,39.5862111
Mkoko Sunset beach bar and restaurant,Seafood,PHFW+X6C,-4.2750501,39.5955175
Diani Restaurant,Restaurant,"Opposite Arusha House, PH78+H52, Ukunda-Ramisi Road",-4.2861237,39.5654043
Coral Beach Bar & Restaurant,Seafood,Diani Beach Road,-4.2820198,39.5928142
African Pool Map Natural,Tourist attraction,,-4.234987,39.6054896
Asha Bistro,Restaurant,,-4.308492,39.5808522
Chale Island Resort,4-star hotel,,-4.4428343,39.5362363
Coral Cove Cottages,Hotel,,-4.2383996,39.5950186
Tsunami Garden Cafe,Restaurant,Ukunda-Ramisi Rd,-4.2914896,39.5643435
Rongai Annex Bar & Restaurant,Restaurant,"PHC9+V45, Ukunda-Ramisi Rd",-4.2778639,39.5678621
Sails Beach Bar & Restaurant,Restaurant,"Almanara Luxury Villas, Ukunda, Diani Beach Road",-4.35258,39.5629943
Leonardo's Restaurant,Restaurant,"Colliers Centre, Diani Complex, Ukunda, Diani Beach Road",-4.287741,39.586991
Kenyaways Beach Bed & Breakfast,3-star hotel,,-4.3508613,39.5635787
Eddie's Longue,Restaurant,"PH98+4R3, Ukunda-Ramisi Rd",-4.2822358,39.5670345
Tiwi Baobab House,Villa,"QJ32+CC6, Next to Bellezza Cottages, Tiwi Beach",-4.2459984,39.6015442
Moiz Swahili Dishes,Restaurant,DIANI PALM ROAD,-4.2893431,39.5830264
Apero,Restaurant,Next to Chandarana Diani Beach Road,-4.307464,39.5776496
Coast Dishes Restaurant,Halal,"PH6J+CQV, Diani, Diani Beach Rd",-4.288884,39.5819304
Swahili Pot Restaurant,Restaurant,Ukunda road Diani,-4.2848283,39.5729674
Pallet Cafe,Restaurant,Diani Beach Road,-4.3731661,39.5561217
Copa Cabana Beach Bar And Restaurant,Restaurant,"PHFW+QCG, Diani Beach Road Diani Beach",-4.2755568,39.5960854
Fins Beach Bar & Grill,Grill,Diani Beach Road,-4.2795595,39.5940757
Kombani Joint Bar & Restaurant,Grill,Likoni-Ukunda Rd,-4.1963164,39.5903001
Kombani mferejini,Chinese,RH3Q+2M,-4.1970133,39.5887633
Al Yasmin Swahili Dishes,Restaurant,,-4.2822449,39.5685039
Twiga Lodge,4-star hotel,,-4.2404172,39.6026818
Southern Palms Beach Resort,4-star hotel,,-4.2682637,39.5970049
Rama Huts,Guest house,,-4.2518067,39.5773797
Southern PBR main restaurant,Restaurant,PHJW+GMX,-4.268648,39.5967231
Noura suites Diani,Restaurant,,-4.2852739,39.5750866
Panorama Restaurant,African,"Siku Njema Plaza, Ukunda-Ramisi Rd",-4.2871706,39.5659235
Rock Starz Village,Restaurant,"Ukunde - Diani Beach Road, Ukunda, Rd",-4.2859973,39.576973
Pinewood Beach Resort & Spa,Resort hotel,,-4.3758348,39.5522602
Baba's Burgers,Hamburger,PH8C+H5P,-4.2835942,39.5705911
Dr.Kombo,Chinese,RH2M+JV3,-4.1984811,39.5846861
Coast dishes,Restaurant,PH68+R39,-4.2879586,39.5652384
Kinondo Kwetu,Resort hotel,,-4.389153,39.5491409
Kitamu Cafe,Restaurant,"PH7G+CM8, Diani Road",-4.2864633,39.5766979
Chale point fisherman RESTAURANT,Seafood,1008,-4.2879617,39.5652842
Madina Restaurant,Restaurant,,-4.2843134,39.566509
DiAniS fINeST Hangout,Grill,Beach Road,-4.2877618,39.5666781
Rockys Pub,Restaurant,,-4.2859375,39.5753125
Rainbow Restaurant,Restaurant,Ukunda-Ramisi Rd,-4.2871489,39.5656705
The African Pot Restaurant-Diani,African,Diani Beach Road,-4.2848312,39.5730449
Colobus Shade,Restaurant,Diani Beach Road,-4.3429201,39.5658522
Jolly Pizzeria,Italian,"Shree Grocery entrance, Diani Beach Road",-4.3087403,39.5770885
The Villa Luxury Suites Hotel,4-star hotel,,-4.2872271,39.5847249
Ritam Getaways - Self catering Cottages,3-star hotel,,-4.2038709,39.5876023
Galaxy Diani Restaurant Ltd,Restaurant,Mama Ngina Dr,-4.277583,39.591169
Mum's Choice Restaurant,Restaurant,"PHC8+2PQ, Next To Mombasa Maize Millers Depot, Ukunda-Ramisi Rd",-4.2799017,39.566848
Golden Sun Resort (Fisherhut Restaurant),Restaurant,,-4.2700662,39.595375
"The Afters, Diani - Boutique Hotel",Restaurant,,-4.2609641,39.5938994
Tiwi Chicken Farm,Chicken shop,"ukunda, road",-4.2446256,39.5748235
Waterlovers Beach Resort,4-star hotel,,-4.3080734,39.5806263
Ambari Dishes Diani,Restaurant,"by the Kongo, North end of Diani Beach, river estuary",-4.2879617,39.5652842
EAST AND THE WEST RESTAURANT.,Restaurant,RH98+FRH,-4.1813216,39.5671166
KITAMU RESTAURANT,Restaurant,BEACH ROAD,-4.2797626,39.5946958
Swahili Beach Resort,5-star hotel,,-4.292183,39.586675
Alfajiri Villas,Cottage,,-4.286725,39.5895927
Tamarind Restaurant Mombasa,Seafood,"XM2J+VXX, Cement Silos Road, Cement Rd",-4.0493846,39.681382
Diamonds Leisure Beach & Golf Resort,4-star hotel,,-4.281539,39.5924429
Shan - E - Punjab Bar & Restaurant,Restaurant,"Ukunda, Diani Beach Road",-4.2786436,39.5906867
Ristorante Pizzeria Da Aniello,Italian,Diani Beach Road,-4.2888971,39.5865089
Java House - Diani,Restaurant,"Center Point Building, Diani Beach Rd",-4.290694,39.585444
Sol Sureño Restaurant & Sports Bar Diani,Restaurant,MHRG+MV Soko Complex,-4.3083534,39.5771671
Karafuu restaurant,Restaurant,Beach Rd Ukunda/South,-4.2818586,39.5673506
Ish Village Bar And Restaurant.,Restaurant,Likoni-Ukunda Rd,-4.1954951,39.5901032
Makucha Restaurant,Restaurant,"RHCX+343, Next To Elilan Petroleum Delers, Maganya Kolo, Likoni-Ukunda Rd",-4.1798666,39.5977919
Neptune Palm Beach Boutique Resort & Spa,Hotel,,-4.3632709,39.5601838
Villa Mandhari Diani Beach,Resort hotel,,-4.3263698,39.5621082
Beach Kibanda (Not Part of Estuary Restaurant),Restaurant,PHRX+42P,-4.2596303,39.5981782
Kwakswell Paradise,Restaurant,,-4.4734977,39.4631912
Sawa Sawa Beach House,4-star hotel,,-4.4764258,39.4873034
"Yuppidu Bar, Ristorante & Pizzeria",Pizza,tumba road msambweni,-4.4704008,39.4899017
Hidden Paradise,Holiday apartment rental,GFFP+GWF,-4.4761969,39.487285
Highway Bar And Restaurant,Restaurant,GFRJ+8R4,-4.4592394,39.4820649
Msambweni Beach House and Private Villas,Hotel,,-4.5079856,39.4693597
Mzera Dishes,Restaurant,GFQG+46W,-4.4621454,39.4755692
Mvureni Beach Bar and Restaurant,African,"Diani, Galu Beach - Ukunda",-4.3588192,39.5622333
Half Moon Parlour Restaurant,Restaurant,"Msambweni, Mwaembe, Ukunda-Ramisi Rd",-4.4741897,39.4837763
Mbuyu Beach Bungalows,Resort hotel,,-4.4742106,39.4891839
Sunnyside Up,Restaurant,"JHP5+CW7, Diani Beach Road",-4.3639538,39.5598076
YU Resort,4-star hotel,,-4.4770925,39.4850871
Msambweni Main Canteen,Pub,"GF9J+JG6, Opposite Msambweni District Hospital, Mwaembe, Off Ukunda - Ramisi Road",-4.4809525,39.4812684
Titanic hotel msambweni,Lodging,,-4.4597107,39.478219
PAMOJA BAR AND RESTAURANT,Restaurant,GFC8+FGQ,-4.4787986,39.4663726
Msambweni Beach,Beach entertainment shop,GF8J+HW,-4.4835625,39.4823125
Chale Island Resort,4-star hotel,,-4.4428343,39.5362363
Soul Breeze Beach Club and Restaurant,Restaurant,70,-4.3657533,39.5591936
Kaya Imani,Wellness hotel,,-4.5028125,39.4710625
Travellers Cafe,Cafe,"Opposite KWT Micro Finance, Msambweni, Bomani, Ukunda-Ramisi Rd",-4.4614723,39.4757035
"Carrefour Market, Diani",Grocery store,"Centre Point Mall, Diani Beach Road",-4.2906226,39.5852151
Shree Green Grocers supermarket,Supermarket,Diani Beach Road,-4.3084945,39.576772
Chandarana Foodplus,Supermarket,Ukunda Diani Beach rd baharini Plaza,-4.3077406,39.5772739
"Naivas Supermarket- Diani, Ukunda",Supermarket,"The Gate Mall, Ukunda-Ramisi Rd",-4.2807655,39.5661889
Diani Beach Shopping Centre,Shopping mall,Diani Beach Road,-4.2992317,39.5808005
Muthaiga Mini Market,Supermarket,Diani Beach Road,-4.2993203,39.5807412
Nancy's,Grocery store,PH2J+38J,-4.2997811,39.5807812
Samrat Supermarket,Grocery store,,-4.2822732,39.5678901
Punjab Distributors,Grocery store,Diani Beach Rd. Next to Diani Beach Hospital,-4.2786149,39.5906867
Cabin Supermarket,Supermarket,"PH6P+GHF, Diani Complex, Ukunda, Diani Beach Road",-4.2886961,39.5864164
Tiwi House,Holiday home,Ukunda-Ramisi Road kIBWAGA,-4.2384072,39.6026079
Tausi Diani Beach Airbnb,Holiday apartment rental,Diani Beach Road,-4.3461944,39.5533149
Diani Airbnb Tribe,Travel agency,,-4.3007539,39.5761107
Airbnb diani studio apartment,Bed & breakfast,,-4.2843628,39.5750995
Tiwi Baobab House,Villa,"QJ32+CC6, Next to Bellezza Cottages, Tiwi Beach",-4.2459984,39.6015442
Amani Tiwi Beach Resort,4-star hotel,,-4.2520029,39.5994529
Sand Island Beach Cottages,Cottage,Majengo Tiwi beach Tiwi,-4.2513978,39.5979758
Waterside Villa,Self-catering accommodation,"QJF4+6M3, Tiwi Beach, road",-4.2269895,39.6066565
Mkelekele House,Hotel,,-4.243797,39.600954
HillPark Tiwi & Amare Resort,4-star hotel,,-4.224201,39.607094
Barizieum Nest Villas,Holiday apartment rental,PHJV+6H,-4.269472,39.593948
"Studio,1,2,3 Airbnb's in Diani",Vacation home rental agency,Diani Link Rd,-4.2859314,39.5752114
Hillpark Hotel Tiwi Beach,Hotel,,-4.2224698,39.6016809
Sandarusi House,Holiday apartment rental,QJH5+2FP,-4.2433163,39.6014068
Bayana House,Holiday home,Diani Beach Road,-4.2629066,39.5953353
Keringet Luxury Tent,Self-catering accommodation,1 Tiwi Beach Rd,-4.2263357,39.6066153
Villa Bea,Villa,Diani Beach Road,-4.2870502,39.5883195
Savita House Diani,Guest house,,-4.298843,39.5778385
Tiwi,Kenya,,-4.2383996,39.5950186
Tiwi Beaches,Beach,,-4.2327778,39.6063889
108 Sea Views Diani Beach,Housing development,Diani Beach Road,-4.2971133,39.5824143
Eve’s Airbnb,Holiday apartment rental,PH7J+MWW,-4.2857162,39.582424
Little Canada Beach House,Hotel,108 Seaviews Diani Beach Rd Lot 12,-4.2980378,39.5842673
River Sunset Luxury Villas,Holiday apartment,PHRR+45Q,-4.2596701,39.5904774
Villa Mandhari Diani Beach,Resort hotel,,-4.3263698,39.5621082
African Pool Map Natural,Tourist attraction,,-4.234987,39.6054896
Villa Tiwi,Hotel,"QH3V+R7W, Off Ramisi Road",-4.2453888,39.5931879
Mandhari Lodge,Bed & breakfast,Golini,-4.1503712,39.4394567
Kivulini Beach Villa & Cottages,Resort hotel,,-4.3030334,39.582382
Watano beach house,Hotel,,-4.2994413,39.5843719
Msambweni Beach House and Private Villas,Hotel,,-4.5079856,39.4693597
Airbnb diani studio apartment,Bed & breakfast,,-4.2843628,39.5750995
Msambweni Beach Private Villas,Condominium complex,GF9M+XC3,-4.4801241,39.4835329
Diani Airbnb Tribe,Travel agency,,-4.3007539,39.5761107
Msambweni villa,Holiday apartment rental,GFHR+5H,-4.4715234,39.4914883
Paradise Garden Msambweni,Holiday apartment rental,GF6G+99H,-4.4890559,39.475989
Wimbi Reef Beach House,Indoor lodging,Msambweni Beach,-4.496401,39.4735989
Sansuri Beach House,Villa,FFQ9+5HV,-4.5120208,39.4689137
Mbuyu Beach Bungalows,Resort hotel,,-4.4742106,39.4891839
Msambweni Private Villa 1,4-star hotel,,-4.507856,39.469553
Tausi Diani Beach Airbnb,Holiday apartment rental,Diani Beach Road,-4.3461944,39.5533149
Msambweni,Kenya,,-4.4778982,39.4822613
"Studio,1,2,3 Airbnb's in Diani",Vacation home rental agency,Diani Link Rd,-4.2859314,39.5752114
msambweni Beaches,Hotel,,-4.4652898,39.481266
Mango Lodge Msambweni,Apartment building,Mango Lodge,-4.4877119,39.4758001
Kaskazi Beach House,Resort hotel,,-4.5001878,39.4715091
Malaika Villas,Cottage,,-4.34925,39.556834
Hidden Paradise,Holiday apartment rental,GFFP+GWF,-4.4761969,39.487285
Boma Banda Diani,Cottage rental,,-4.3054548,39.579237
Kismet Blu,Villa,Sawa Sawa Beach,-4.4752159,39.4880323
Sawa Sawa Beach House,4-star hotel,,-4.4764258,39.4873034
Maua Beach House,Villa,JHW6+6P6,-4.3544623,39.5617554
Chingwede House,Holiday apartment rental,"GF4G+Q5V, Unnamed Road",-4.4930234,39.4754072
Savita House Diani,Guest house,,-4.298843,39.5778385
Munje Beach Villas,Serviced accommodation,,-4.5243071,39.4645868
Barizieum Nest Villas,Holiday apartment rental,PHJV+6H,-4.269472,39.593948
Tiwi House,Holiday home,Ukunda-Ramisi Road kIBWAGA,-4.2384072,39.6026079
YU Resort,4-star hotel,,-4.4770925,39.4850871
Villa Bea,Villa,Diani Beach Road,-4.2870502,39.5883195
JamboHaven BnB,Vacation home rental agency,"Diani beach road ,near palm beach hospital diani kenya",-4.2830371,39.5736818
Watano beach house,Hotel,,-4.2994413,39.5843719
Eve’s Airbnb,Holiday apartment rental,PH7J+MWW,-4.2857162,39.582424
"Naivas Supermarket- Diani, Ukunda",Supermarket,"The Gate Mall, Ukunda-Ramisi Rd",-4.2807655,39.5661889
"Carrefour Market, Diani",Grocery store,"Centre Point Mall, Diani Beach Road",-4.2906226,39.5852151
Samrat Supermarket,Grocery store,,-4.2822732,39.5678901
Chandarana Foodplus,Supermarket,Ukunda Diani Beach rd baharini Plaza,-4.3077406,39.5772739
Film Nation Kenya,Grocery store,Ibiza market,-4.2906031,39.5650893
Al Amin Stores - Ukunda,Grocery store,Ukunda-Ramisi Road Corner Ibiza Ukunda KE,-4.2899276,39.5648646
Shree Green Grocers supermarket,Supermarket,Diani Beach Road,-4.3084945,39.576772
The Gate Mall,Shopping mall,"PH98+MCR, Ukunda-Ramisi Rd",-4.2807573,39.5660294
Diani Beach Shopping Centre,Shopping mall,Diani Beach Road,-4.2992317,39.5808005
Diani Market Kwale County,Grocery store,"MHP2+J78, Ukunda-Ramisi Rd",-4.3134711,39.5507011
Kona ya Chief Grocery,Grocery store,PH26+66V Kona ya chief,-4.2993905,39.5605421
Muthaiga Mini Market,Supermarket,Diani Beach Road,-4.2993203,39.5807412
Ukunda Highway Shop,Grocery store,"Darling, Ukunda, Ukunda-Ramisi Rd",-4.2647207,39.5696938
Zulu General Stores,Grocery store,"Kwa Zulu, Ukunda, Ukunda-Ramisi Rd",-4.2711097,39.5687473
Kyalo Stores,Grocery store,"PH78+X7X, Ukunda-Ramisi Rd",-4.2850233,39.565726
Ukunda market,Market,PH67+2V9,-4.2899518,39.5647284
Advent Store,Grocery store,"Tukutane, Ukunda, Ukunda-Ramisi Rd",-4.272887,39.5676931
Al - Barakat Traders,Grocery store,"PHF9+G3C, Next To Chepe Chepe, Ukunda-Ramisi Rd",-4.2761752,39.5676412
Jamii Grocerys,Grocery store,"PH88+HC4, Near Diani Police Station, Ukunda-Ramisi Rd",-4.2836073,39.5660653
Golden Gate Shop,Grocery store,Off Ukunda-Ramisi Rd,-4.2752473,39.5675124
Cabin Supermarket,Supermarket,"PH6P+GHF, Diani Complex, Ukunda, Diani Beach Road",-4.2886961,39.5864164
Magambo Shop,Grocery store,"PHF9+X52, Opposite Diani Jamia Mosque, Ukunda-Ramisi Rd",-4.2751016,39.5678777
Watergate Shop,Grocery store,"Harmony, Ukunda, Ukunda-Ramisi Rd",-4.2694278,39.5674152
TotalEnergies Ukunda service station,Gas station,Ukunda-Ramisi Road,-4.2784368,39.5670258
Greens House Groceries,Grocery store,"Kenya Rural, Diani, Ukunda-Ramisi Rd",-4.2737036,39.5688027
Calm Retail Shop,Grocery store,"Tukutane, Ukunda, Ukunda-Ramisi Rd",-4.2722621,39.5671269
JOHN GROCERIES,Greengrocer,"you can contact me through, To reach me",-4.2902382,39.5646836
Harmony Shop,Grocery store,"Harmony, Ukunda, Ukunda-Ramisi Rd",-4.2691211,39.5691351
M. J. Safina Stores,Grocery store,"PHF9+G3C, Ukunda-Ramisi Rd",-4.2761774,39.5676455
General Shop,Grocery store,"Tukutane, Ukunda, Ukunda-Ramisi Rd",-4.2726421,39.5673454
Dala Dala Jnr. Shop,Grocery store,"Opposite New Neema Store, Ukunda, Ukunda-Ramisi Rd",-4.2765602,39.565077
Nancy's,Grocery store,PH2J+38J,-4.2997811,39.5807812
Divine Shop Ukunda,Grocery store,"PHF8+4X6, Next To Loi Hardware, Ukunda-Ramisi Rd",-4.2772035,39.5673864
Diani One Stop Shop,Shopping mall,PH99+23R,-4.2823788,39.5676498
Mama Omena Spices,Grocery store,,-4.2902818,39.5646965
Daniel Green Grocer,Grocery store,"QH6F+9R5, Near Kenya Bixa, Ukunda-Ramisi Rd",-4.2391221,39.5746106
CHAMWANA SHOP,Grocery store,PHG8+GR8,-4.2737075,39.5670936
Baharini Plaza,Business park,"MHRH+R6W, Diani Beach Road",-4.3077555,39.5771937
Punjab Distributors,Grocery store,Diani Beach Rd. Next to Diani Beach Hospital,-4.2786149,39.5906867
Ombogo Stores Ukunda,Grocery store,"Ukunda-Markaz, Ostrich Road",-4.2754145,39.5674488
Centre Point,Shopping mall,"Carrefour Diani, Diani Beach Road",-4.2906226,39.5852151
Veve Promoters,Grocery store,"PH78+44C, Next To UFS Petrol Station, Ukunda-Ramisi Rd",-4.2871884,39.5652742
Young Cash Shop,Grocery store,"PH78+P6F, Opposite Gulf Petrol Station, Ukunda-Ramisi Rd",-4.28568,39.5655368
Humanity Veve Base,Grocery store,"PHC8+4Q7, Next To Mombasa Maize Millers Depot, Ukunda-Ramisi Rd",-4.2797148,39.566911
Makim Supastore,Grocery store,"PHF8+8XX, Ukunda-Ramisi Rd",-4.2766415,39.5674881
Upendo Shop Opposite UKUNDA TOTAL ALTAR,Grocery store,PHC8+P63,-4.2782437,39.5655464
BES Grocery,Grocery store,"PHH9+6CR, Ukunda-Ramisi Rd",-4.2718837,39.5685531
Wa - Linet Stores,Grocery store,"PH98+WMQ, Next To Mombasa Maize Millers, Ukunda-Ramisi Rd",-4.280168,39.5667209
Kitui Cereals & Suppliers,Grocery store,"PHF9+W46, On Junction Of Ostrich Road, Ukunda-Ramisi Rd",-4.2752038,39.5677554
Biko Shop,Grocery store,"Harmony, Ukunda, Ukunda-Ramisi Rd",-4.2711105,39.5686967
Mwamba Traders,Grocery store,Off Ukunda-Ramisi Rd,-4.2752422,39.5675113
man ʐaք shop,Grocery store,ċɦɛքɛ chepe,-4.279254,39.5670071
Future Development Corporation Limited(FDC),Grocery store,PH99+584,-4.2821113,39.568322
Mama Denis Shop,Grocery store,"PHG9+249, Along Hostage N Junction, Ukunda-Ramisi Rd",-4.2749627,39.5678499
Leon Vision Shop,Grocery store,"PHG9+M86, Ukunda-Ramisi Rd",-4.2733335,39.5682565
Ukunda,Kenya,,-4.2879181,39.565308
Lunga Lunga General Shop,Grocery store,"VJWR+FP3, Ujamaa, Likoni-Ukunda Rd",-4.1038574,39.6417989
Mauzo Bora Shop,Grocery store,"Ostrich Lane, Ukunda-Ramisi Rd",-4.275601,39.5681162
"Bongwe, mwembe bar",Grocery store,"PH83+5H8, Mlazi Road",-4.284581,39.55396
Trade Mark Shop,Grocery store,"PHF9+R4R, Near Globa Electronics Store, Ukunda-Ramisi Rd",-4.2753774,39.5677666
NANA'S SHOP,Grocery store,,-4.2879617,39.5652842
"Naivas Supermarket- Diani, Ukunda",Supermarket,"The Gate Mall, Ukunda-Ramisi Rd",-4.2807655,39.5661889
"Carrefour Market, Diani",Grocery store,"Centre Point Mall, Diani Beach Road",-4.2906226,39.5852151
Chandarana Foodplus,Supermarket,Ukunda Diani Beach rd baharini Plaza,-4.3077406,39.5772739
Shree Green Grocers supermarket,Supermarket,Diani Beach Road,-4.3084945,39.576772
Zimbros,Greengrocer,,-4.2239231,39.580516
KITOWEO GROCER,Grocery store,"QHGJ+G29, Route to BAT Tiwi Cottages",-4.2237034,39.5800999
Muthaiga Mini Market,Supermarket,Diani Beach Road,-4.2993203,39.5807412
Daniel Green Grocer,Grocery store,"QH6F+9R5, Near Kenya Bixa, Ukunda-Ramisi Rd",-4.2391221,39.5746106
Samrat Supermarket,Grocery store,,-4.2822732,39.5678901
Diani Beach Shopping Centre,Shopping mall,Diani Beach Road,-4.2992317,39.5808005
Jacob,Grocery store,RH4R+HCG,-4.1935599,39.591071
Film Nation Kenya,Grocery store,Ibiza market,-4.2906031,39.5650893
HillPark Tiwi & Amare Resort,4-star hotel,,-4.224201,39.607094
Amani Tiwi Beach Resort,4-star hotel,,-4.2520029,39.5994529
Kinondo mall,Grocery store,JGJH+GF,-4.3687169,39.5286329
Diani Market Kwale County,Grocery store,"MHP2+J78, Ukunda-Ramisi Rd",-4.3134711,39.5507011
Green Light Shop,Grocery store,"RH97+XWH, Matuga Road, Matuga",-4.1800689,39.5648668
Cabin Supermarket,Supermarket,"PH6P+GHF, Diani Complex, Ukunda, Diani Beach Road",-4.2886961,39.5864164
Kona ya Chief Grocery,Grocery store,PH26+66V Kona ya chief,-4.2993905,39.5605421
Komban Viazi Wholesale,Grocery store,"kombani, Likoni-Ukunda Rd",-4.1944286,39.5910495
Al Amin Stores - Ukunda,Grocery store,Ukunda-Ramisi Road Corner Ibiza Ukunda KE,-4.2899276,39.5648646
Punjab Distributors,Grocery store,Diani Beach Rd. Next to Diani Beach Hospital,-4.2786149,39.5906867
Nancy's,Grocery store,PH2J+38J,-4.2997811,39.5807812
Zulu General Stores,Grocery store,"Kwa Zulu, Ukunda, Ukunda-Ramisi Rd",-4.2711097,39.5687473
Ukunda Highway Shop,Grocery store,"Darling, Ukunda, Ukunda-Ramisi Rd",-4.2647207,39.5696938
Y-Mart,Grocery store,Lungalunga Highway,-4.306954,39.5545783
Greens House Groceries,Grocery store,"Kenya Rural, Diani, Ukunda-Ramisi Rd",-4.2737036,39.5688027
Kyalo Stores,Grocery store,"PH78+X7X, Ukunda-Ramisi Rd",-4.2850233,39.565726
Watergate Shop,Grocery store,"Harmony, Ukunda, Ukunda-Ramisi Rd",-4.2694278,39.5674152
Mama Omena Spices,Grocery store,,-4.2902818,39.5646965
Advent Store,Grocery store,"Tukutane, Ukunda, Ukunda-Ramisi Rd",-4.272887,39.5676931
Uncle Sudi Shop,Grocery store,Likoni-Ukunda Rd,-4.1977366,39.5903302
Calm Retail Shop,Grocery store,"Tukutane, Ukunda, Ukunda-Ramisi Rd",-4.2722621,39.5671269
Centre Point,Shopping mall,"Carrefour Diani, Diani Beach Road",-4.2906226,39.5852151
Victoria shop,Grocery store,Diani Beach Road,-4.3572318,39.5587716
The Gate Mall,Shopping mall,"PH98+MCR, Ukunda-Ramisi Rd",-4.2807573,39.5660294
Baharini Plaza,Business park,"MHRH+R6W, Diani Beach Road",-4.3077555,39.5771937
Jamii Grocerys,Grocery store,"PH88+HC4, Near Diani Police Station, Ukunda-Ramisi Rd",-4.2836073,39.5660653
Kwa mama irungu,Grocery store,MH94+8W,-4.331675,39.5570474
Sand Island Beach Cottages,Cottage,Majengo Tiwi beach Tiwi,-4.2513978,39.5979758
Harmony Shop,Grocery store,"Harmony, Ukunda, Ukunda-Ramisi Rd",-4.2691211,39.5691351
Riyamu Minimart,Grocery store,,-4.1903003,39.5898335
"Bongwe, mwembe bar",Grocery store,"PH83+5H8, Mlazi Road",-4.284581,39.55396
Suzana's fruit shop,Grocery store,MH57+2CG,-4.3424348,39.5635915
Veve Promoters,Grocery store,"PH78+44C, Next To UFS Petrol Station, Ukunda-Ramisi Rd",-4.2871884,39.5652742
Neema Shop,Grocery store,"PHM9+4M3, Opposite Darling Stage, Ukunda-Ramisi Rd",-4.2672445,39.5691646
KFI Boutique,Boutique,Diani Beach Road,-4.3422957,39.5638602
Magambo Shop,Grocery store,"PHF9+X52, Opposite Diani Jamia Mosque, Ukunda-Ramisi Rd",-4.2751016,39.5678777
CHAMWANA SHOP,Grocery store,PHG8+GR8,-4.2737075,39.5670936
Al - Barakat Traders,Grocery store,"PHF9+G3C, Next To Chepe Chepe, Ukunda-Ramisi Rd",-4.2761752,39.5676412
M. J. Safina Stores,Grocery store,"PHF9+G3C, Ukunda-Ramisi Rd",-4.2761774,39.5676455
African Pool Map Natural,Tourist attraction,,-4.234987,39.6054896
H. S. Ranzuga,Grocery store,"Opposite Tawheed Islamic Centre, Maganyakulo, Likoni-Ukunda Rd",-4.1806582,39.5969387
JOHN GROCERIES,Greengrocer,"you can contact me through, To reach me",-4.2902382,39.5646836
Kikkis chillspot,Grocery store,132 Diani Beach Road,-4.3489284,39.5616903
Humanity Veve Base,Grocery store,"PHC8+4Q7, Next To Mombasa Maize Millers Depot, Ukunda-Ramisi Rd",-4.2797148,39.566911
General Shop,Grocery store,"Tukutane, Ukunda, Ukunda-Ramisi Rd",-4.2726421,39.5673454
Mweamart Diani,Grocery store,,-4.2835893,39.5697361
Bafagih Supermarket,Supermarket,Sagala,-3.393474,38.562922
La masonko,Grocery store,"MHJF+CF2, Diani Beach Road",-4.31928,39.5736367
BES Grocery,Grocery store,"PHH9+6CR, Ukunda-Ramisi Rd",-4.2718837,39.5685531
Wa - Linet Stores,Grocery store,"PH98+WMQ, Next To Mombasa Maize Millers, Ukunda-Ramisi Rd",-4.280168,39.5667209
Dala Dala Jnr. Shop,Grocery store,"Opposite New Neema Store, Ukunda, Ukunda-Ramisi Rd",-4.2765602,39.565077
Onn The Way Supermarket - Muthaiga,Supermarket,Limuru Rd,-1.2499809,36.8201453
Nomad Beach Resort,5-star hotel,,-4.3279096,39.5716651
Walamu Gen. Supplies,Grocery store,"RH4R+Q7Q, Opposite Baraka Motorcycle, Likoni Kwale Road, Kombani",-4.1930264,39.59072
Naivas Supermarket - Moi Avenue Nairobi,Supermarket,"Moi Avenue Opposite Imenti House Junction of Kenyatta Avenue and, Moi Ave",-1.2836592,36.8236195
Biko Shop,Grocery store,"Harmony, Ukunda, Ukunda-Ramisi Rd",-4.2711105,39.5686967
Baobab Beach Resort & Spa,4-star hotel,,-4.3366306,39.56805
JnJ Market & Supplies Ltd,Grocery store,Diani Beach Road,-4.2894793,39.5742848
Onn The Way Supermarket - Parklands,Supermarket,Limuru Rd,-1.2592905,36.8269993
Golden Gate Shop,Grocery store,Off Ukunda-Ramisi Rd,-4.2752473,39.5675124
Diamonds Leisure Beach & Golf Resort,4-star hotel,,-4.281539,39.5924429
Highway Stationers,Grocery store,Waa maganyakulo,-4.1808772,39.5967392
Onn The Way Supermarket - Gigiri (Petrocity),Grocery store,Limuru Rd,-1.2359549,36.807209
Swahili Beach Resort,5-star hotel,,-4.292183,39.586675
Onn The Way Supermarket - 1st. Avenue Parklands,Supermarket,First Parklands Ave,-1.2629134,36.8157396
Coral Cove Cottages,Hotel,,-4.2383996,39.5950186
Divine Shop Ukunda,Grocery store,"PHF8+4X6, Next To Loi Hardware, Ukunda-Ramisi Rd",-4.2772035,39.5673864
Diani Sea Lodge,4-star hotel,,-4.3180311,39.5753208
NANA'S SHOP,Grocery store,,-4.2879617,39.5652842
Diani Reef Beach Resort & Spa,5-star hotel,,-4.2792229,39.5944083
Quick Mart Waiyaki Way,Supermarket,"Deloitte Waruku, Waiyaki Wy",-1.2636733,36.7633495
Mauzo Bora Shop,Grocery store,"Ostrich Lane, Ukunda-Ramisi Rd",-4.275601,39.5681162
Powerstar Supermarket - Zimmerman,Supermarket,"Opposite Prestige Health Care, Zimmerman Base Road",-1.2093012,36.8940831
Southern Palms Beach Resort,4-star hotel,,-4.2682637,39.5970049
Mwamba Traders,Grocery store,Off Ukunda-Ramisi Rd,-4.2752422,39.5675113
Young Cash Shop,Grocery store,"PH78+P6F, Opposite Gulf Petrol Station, Ukunda-Ramisi Rd",-4.28568,39.5655368
Makim Supastore,Grocery store,"PHF8+8XX, Ukunda-Ramisi Rd",-4.2766415,39.5674881
Petro Oil Kenya - Diani,Gas station,PH6H+WMQ,-4.2876665,39.5792422
TotalEnergies Ukunda service station,Gas station,Ukunda-Ramisi Road,-4.2784368,39.5670258
Rubis Diani Service Station,Gas station,"Junction to Diani, off Lungalunga highway",-4.2809279,39.5665672
Diani Tyre Centre And Filling Station,Gas station,PH2J+JH8,-4.2984584,39.5814463
Blue Jay Gas Station,Gas station,"PHM8+JH, Darling, Diani, Ukunda-Ramisi Rd",-4.2650816,39.5702395
Diani Mart Service Station,Gas station,PH98+JJM,-4.2809137,39.5665465
Behind Total Petrol Station,Gas station,"PHC8+JV6, Ukunda-Ramisi Rd",-4.2784501,39.56713
"MozamEnergyltd.com,diani",Gas station,,-4.2677226,39.5701423
Shell petrol station,Gas station,Ukunda-Ramisi Rd,-4.2672858,39.5701289
Rubis Ukunda Service Station,Gas station,Ukunda-Ramisi Rd,-4.2861821,39.5661099
Galana Energies Station Ukunda,Gas station,Diani Link Rd,-4.2862677,39.5772779
GPS petrol station Ukunda,Gas station,PH7G+GV8,-4.2862445,39.5772787
Reem Petrol Station,Gas station,"PH26+MJR, Ukunda-Ramisi Rd",-4.2978672,39.5611409
Adipes Station,Gas station,"PHF9+C76, Adipes, Diani, Ukunda-Ramisi Rd",-4.2764676,39.5681274
Flamex Petroleum Ukunda Depot,Alternative fuel station,PH2C+4PC,-4.2996909,39.5717717
Petro Petrol Station,Gas station,PH2J+HJP,-4.2985376,39.5815651
Ukunda Filling Station,Gas station,"PH68+X2V, Ukunda-Ramisi Rd",-4.2875148,39.5650622
UFS Petrol Station,Gas station,"PH68+X3G, Opposite Ukunda Post Office, Ukunda-Ramisi Rd",-4.2875617,39.5652152
Rubis Ukunda Ramisi Service Station,Gas station,Ukunda-Ramisi Rd,-4.3094626,39.5531294
Discovery filling station,Gas station,"MG3P+GW6, Ukunda-Ramisi Rd",-4.3462224,39.53727
Cucchi Resort&Spa,Gas station,MH74+VR4,-4.3353622,39.5570633
TotalEnergies Ukunda service station,Gas station,Ukunda-Ramisi Road,-4.2784368,39.5670258
Rubis Ukunda Service Station,Gas station,Ukunda-Ramisi Rd,-4.2861821,39.5661099
Shell petrol station,Gas station,Ukunda-Ramisi Rd,-4.2672858,39.5701289
Behind Total Petrol Station,Gas station,"PHC8+JV6, Ukunda-Ramisi Rd",-4.2784501,39.56713
Blue Jay Gas Station,Gas station,"PHM8+JH, Darling, Diani, Ukunda-Ramisi Rd",-4.2650816,39.5702395
Reem Petrol Station,Gas station,"PH26+MJR, Ukunda-Ramisi Rd",-4.2978672,39.5611409
GPS petrol station Ukunda,Gas station,PH7G+GV8,-4.2862445,39.5772787
UFS Petrol Station,Gas station,"PH68+X3G, Opposite Ukunda Post Office, Ukunda-Ramisi Rd",-4.2875617,39.5652152
Rubis Diani Service Station,Gas station,"Junction to Diani, off Lungalunga highway",-4.2809279,39.5665672
Ukunda Filling Station,Gas station,"PH68+X2V, Ukunda-Ramisi Rd",-4.2875148,39.5650622
Galana Energies Station Ukunda,Gas station,Diani Link Rd,-4.2862677,39.5772779
Diani Mart Service Station,Gas station,PH98+JJM,-4.2809137,39.5665465
Rubis Ukunda Ramisi Service Station,Gas station,Ukunda-Ramisi Rd,-4.3094626,39.5531294
Adipes Station,Gas station,"PHF9+C76, Adipes, Diani, Ukunda-Ramisi Rd",-4.2764676,39.5681274
